PK;NOMBRE;DESCRIPCION-ENTIDAD;HORARIO;EQUIPAMIENTO;TRANSPORTE;DESCRIPCION;ACCESIBILIDAD;CONTENT-URL;NOMBRE-VIA;CLASE-VIAL;TIPO-NUM;NUM;PLANTA;PUERTA;ESCALERAS;ORIENTACION;LOCALIDAD;PROVINCIA;CODIGO-POSTAL;BARRIO;DISTRITO;COORDENADA-X;COORDENADA-Y;LATITUD;LONGITUD;TELEFONO;FAX;EMAIL;TIPO;TYPE
4847190;Casa Museo Lope de Vega;"'Mi casilla, mi quietud, mi g&uuml;ertecillo y estudio'. Así define su casa Félix Lope de Vega (1562-1635) en una carta dirigida a un amigo. Situada en pleno centro histórico, en el Barrio de las Letras, la Casa Museo Lope de Vega se ubica en el edificio donde el escritor vivió sus últimos 25 años. La recreación de ambientes, cuyo objetivo es que se respire la presencia de Lope, evoca la vida cotidiana del Siglo de Oro y nos acerca a su intimidad. El equipamiento de la casa incorpora obras de arte, mobiliario, enseres y ediciones bibliográficas vinculadas al literato y su tiempo.   Visitas Guiadas   El acceso al museo se hace mediante visitas guiadas en grupo (máximo 15 personas). Imprescindible reservar con antelación, llamando al teléfono 914 299 216 o escribiendo un correo electrónico a casamuseolopedevega@madrid.org.  Las visitas comienzan cada media hora y tienen una duración aproximada de 35 minutos (última visita a las 17 horas).  También se realizan visitas en inglés, italiano y francés.";Para la visita es  imprescindible reserva anticipada  en:  casamuseolopedevega@madrid.org  o en el teléfono: 914 299 216, en horario del museo.  De martes a domingo de 10 a 18 horas (último pase a las 17 horas)  Cerrado los lunes, días 1 y 6 de enero, 1 de mayo, 9 de noviembre y 24, 25 y 31 de diciembre.;;Metro: Antón Martín (línea 1).  Bus: 6, 9, 10, 14, 26, 27, 32, 34, 37, 45, 57.;;0;http://www.madrid.es/sites/v/index.jsp?vgnextchannel=9e4c43db40317010VgnVCM100000dc0ca8c0RCRD&vgnextoid=4eff8c46145e8110VgnVCM2000000c205a0aRCRD;CERVANTES;CALLE;V;11;;;;;MADRID;MADRID;28014;CORTES;CENTRO;440825;4473983;40.41435847;-3.697474155;914 299 216;914 292 601;;/contenido/entidadesYorganismos/Museos;Mueso
4949641;Casita - Museo del Ratón Pérez;La residencia de la familia Pérez está situada en los sótanos de la confitería Prasi, en el número ocho de la calle del Arenal, según cita Luis Coloma.;Lunes  de 17 a 20 horas.  De martes a viernes de 11 a 14 horas y de 17 a 20 horas.  Sábados de 11 a 15 horas y de 16 a 20 horas.  Domingos y festivos consultar.;;Metro: Sol (líneas: 1, 2 y 3), Ópera (línea 3, Ramal Ópera Príncipe Pío), Callao (línea 3, 5)  Bus: 3, 5, 15, 20, 52, 53, 150;Venta de entradas directamente en el Museo.  Recomendado a partir de los 5 años.  Aforo limitado. El acceso es por turnos de visitas.;3;http://www.madrid.es/sites/v/index.jsp?vgnextchannel=9e4c43db40317010VgnVCM100000dc0ca8c0RCRD&vgnextoid=990950e86d4ca110VgnVCM2000000c205a0aRCRD;ARENAL;CALLE;V;8;1.ª;;;;MADRID;MADRID;28013;SOL;CENTRO;440144;4474287;40.41704834;-3.705528884;915 226 968;;info@casamuseoratonperez.es;/contenido/entidadesYorganismos/Museos;Mueso
5682031;Castillo de la Alameda;El Castillo de la Alameda o de Barajas se trata de uno de los escasos vestigios de la arquitectura militar del pasado siglo  XV  y uno de los pocos castillos que ha sobrevivido al paso del tiempo. Bajo él y su entorno, existen restos de asentamientos antiguos desde la Edad del Bronce hasta la Época Romana. En el edificio se realizan talleres para escolares y actividades en verano.;Abierto solo en fin de semana (sábado y domingo) y festivos (lunes festivos incluidos)   Del 1 de abril al 15 de junio de 10 a 21 horas.  Del 16 de junio al 15 de septiembre de 10 a 20 horas.  Del 15 al 30 de septiembre de 10 a 21 horas.  De octubre a marzo de 10 a 18 horas.   Cerrado: 1 y 6 de enero, 1 de mayo, 24, 25 y 31 de diciembre.;;Metro:  Alameda de Osuna y El Capricho (línea 5)   Bus:  101, 105, 112, 114, 115 y 151;Accesibilidad    Rampas de acceso.  Aseos adaptados para personas con movilidad reducida.  Información en Braille para invidentes.;1;http://www.madrid.es/sites/v/index.jsp?vgnextchannel=9e4c43db40317010VgnVCM100000dc0ca8c0RCRD&vgnextoid=fe43c4be8e688210VgnVCM1000000b205a0aRCRD;ANTONIO SANCHA;CALLE;V;1;;;;;MADRID;MADRID;28042;ALAMEDA DE OSUNA;BARAJAS;449698;4478802;40.45835461;-3.593290382;"913 667 415                                                                         
";;castilloalameda@madrid.es;/contenido/entidadesYorganismos/MonumentosEdificiosArtisticos;Mueso
2064;Casón del Buen Retiro;Edificio que forma parte del Museo Nacional del Prado, donde pueden consultarse fondos de la Biblioteca, del Archivo y del Servicio de Documentación de la colección del Museo y de otras fuentes relativas a la historia del arte.;Mañanas    De lunes a jueves, de 9 a 15 horas (Servicio de libros y otros materiales hasta las 14:30 horas)  Viernes, de 9 a 14:30 horas (Servicio de libros y otros materiales hasta las 14 h)    Tardes    Lunes y miércoles, de 15 a 18 horas (Servicio de libros y otros materiales hasta las 17:30 horas)    Horario de verano     Desde el 16 de junio al 15 de septiembre, de lunes a viernes, de 9 a 14:30 horas;;Metro: Atocha (Línea 1)  Bus: 19, 10, 14, 27, 34, 37, 45  Renfe: Atocha;Descripción monumental   El Casón o Salón de Baile es el único volumen que permanece del antiguo Palacio del buen Retiro, ejecutado en 1637 con un proyecto de Alonso Carbonel. Aún se conserva la bóveda de cañon con lunetas, pintada al fresco por Lucas Jordán en 1692 con la Alegoría del Toisón de Oro. Su fachada principal, a poniente, arrasada la primitiva en 1886 por un ciclón, es de Velázquez Bosco. La última rehabilitación ha sido realizada por Jaime Torruell.;1;http://www.madrid.es/sites/v/index.jsp?vgnextchannel=9e4c43db40317010VgnVCM100000dc0ca8c0RCRD&vgnextoid=f0443d0b5e71c010VgnVCM1000000b205a0aRCRD;ALFONSO XII;CALLE;V;28;;;;;MADRID;MADRID;28014;LOS JERONIMOS;RETIRO;441635;4474285;40.41526375;-3.689232812;913 304 016 / 913 302 821;;biblioteca@museodelprado.es;/contenido/entidadesYorganismos/MonumentosEdificiosArtisticos;Mueso
103331;Centro Social y Cultural La Casa Encendida;Edificio de carácter monumental. De estilo neomudéjar, fue diseñado por el arquitecto Fernando Arbós e inaugurado en el año 1913. Cuenta con más de 6.000 metros cuadrados de instalaciones divididas en 4 plantas y una azotea.;De martes a domingo de 10 a 22 horas (todos los días del año, excepto festividades nacionales y de la Comunidad de Madrid)  Exposiciones: de 10 a 21:45 horas;Biblioteca  (Consulta catálogo  http://koha.montemadrid.es/ )   Biblioteca (Hemeroteca, Mediateca y Sala de ofimática) : de martes a domingos de 10 a 21:15 horas. Del 1 al 15 agosto, mediateca cerrada   Biblioteca joven:  de martes a viernes, de 10 a 20:30 horas, sábados y domingos de 10 a 13:30 horas   Bebeteca:  sábados y domingos de 10 a 13:30 horas     Ecotienda solidaria:    De martes a viernes de 14 a 21 horas, sábados y domingos de 11 a 15 y de 17 a 22 horas.  Cerrado del 7 al 22 agosto.   Verano: martes a viernes de 14 a 21 horas. Sábados y domingos 12 a 15 horas, y de 17 a 22 horas.     Cafetería:  De martes a domingo de 10 a 20:30 horas;Metro: Embajadores (línea 3), Lavapies (línea 3), Atocha (línea 1), Palos de la Frontera (línea 3)  Bus: 27, 34, 36, 41, 119, C1, C2  Renfe: Embajadores (C5), Atocha ( C1, C2, C3, C4, C5, C7, C8, C10);Tarifas 2018:    Exposiciones, Encuentros y Salidas: entrada libre  Audiovisuales y En Familia: 3 euros  Conciertos y escénicas: 5 euros  Cursos, talleres y campamentos: consultar cada actividad   Visitas guiadas y atención en sala: sábados y domingos de 12 a 14 horas y de 17 a 20 horas  Sin inscripción previa (gratuita);1;http://www.madrid.es/sites/v/index.jsp?vgnextchannel=9e4c43db40317010VgnVCM100000dc0ca8c0RCRD&vgnextoid=c27f8899fc81c010VgnVCM1000000b205a0aRCRD;VALENCIA;RONDA;V;2;;;;;MADRID;MADRID;28012;EMBAJADORES;CENTRO;440622;4473051;40.40595711;-3.699779794;"902 430 322                                                                 
";;lacasaencendida@montemadrid.es;/contenido/entidadesYorganismos/MonumentosEdificiosArtisticos;Mueso
6469186;Ermita de San Antonio de la Florida (Museo);Ermita dedicada a San Antonio de Padua y pequeño museo. Las pinturas murales que la decoran son de Francisco de Goya. Alberga los restos mortales del artista desde 1919. Para preservar sus pinturas, en 1929 se trasladó el culto a una ermita gemela construida a su lado, dejando el edificio original como museo.;De martes a domingos de 9:30 a 20 horas.   Cerrado:   lunes (incluidos festivos), 1 y 6 de enero, 1 de mayo, 24, 25 y 31 de diciembre.   Último pase de visita:  20 minutos antes del cierre (el desalojo de las salas comenzará 10 minutos antes)  Este horario y la apertura de salas pueden sufrir modificaciones.;Tienda, en la que se pueden adquirir las guías y publicaciones sobre la ermita editadas por el Museo y otros organismos públicos, así como catálogos y publicaciones de instituciones culturales del Ayuntamiento de Madrid.;Metro: Príncipe Pío (líneas 5, 10 y ramal Ópera - Príncipe Pío)  Bus: 41, 46 y 75 (Intercambiador Príncipe Pío)  Renfe: Príncipe Pío;Accesibilidad:  - Rampa de acceso al edificio  - Aseos no adaptados a personas con movilidad reducida;2;http://www.madrid.es/sites/v/index.jsp?vgnextchannel=9e4c43db40317010VgnVCM100000dc0ca8c0RCRD&vgnextoid=75950204770e7310VgnVCM2000000c205a0aRCRD;SAN ANTONIO DE LA FLORIDA;GLORIETA;V;5;;;;;MADRID;MADRID;28008;CASA DE CAMPO;MONCLOA-ARAVACA;438439;4475212;40.42525668;-3.725725718;915 420 722;;sanantonio@madrid.es;/contenido/entidadesYorganismos/MonumentosEdificiosArtisticos;Mueso
58353;Espacio Fundación Telefónica;;De martes a domingo, de 10 a 20 horas.  Cerrado al público todos los lunes y días 25 de diciembre, 1 y 6 de enero.;;Metro: Gran Vía (líneas 1, 5)  Bus: 1, 2, 3, 46, 74, 146, M2;;1;http://www.madrid.es/sites/v/index.jsp?vgnextchannel=9e4c43db40317010VgnVCM100000dc0ca8c0RCRD&vgnextoid=87748ed67151c010VgnVCM2000000c205a0aRCRD;FUENCARRAL;CALLE;V;3;;;;;MADRID;MADRID;28004;UNIVERSIDAD;CENTRO;440590;4474865;40.42041459;-3.701603419;915 808 700 (información general) / 915 226 645 (visitas guiadas y talleres);;;/contenido/entidadesYorganismos/Museos;Mueso
6017808;Fundación AMYC (Arte Moderno y Contemporáneo). Casa - Museo Fuente del Rey;;De martes a sábados de 10 a 19 horas. Lunes, domingos y festivos cerrado.  Visitas para grupos de hasta 25 personas dentro de los horarios de apertura. Pueden ser con guía propio o con guía de la Fundación, y la duración de la misma es de una hora. Previa reserva telefónica o vía correo electrónico.;Siguiendo la iniciativa del mecenazgo de Francisco Daurella, en 2009 decide crear la Fundación  AMYC , para la que recupera, rehabilita y acondicona una casa de uso privado para transformala en Casa - Museo. En sus instalaciones acogerá diferentes salas expositivas y una sala polivalente para actos culturales. El eje principal de la colección de más de 250 obras, es dar una visión muy dinámica de lo sucedido entre finales del siglo  XIX  y mediados del siglo  XX .;Bus: 161, I60;;1;http://www.madrid.es/sites/v/index.jsp?vgnextchannel=9e4c43db40317010VgnVCM100000dc0ca8c0RCRD&vgnextoid=5c1260101310f210VgnVCM1000000b205a0aRCRD;FUENTE DEL REY;CALLE;V;11;;;;;MADRID;MADRID;28023;ARAVACA;MONCLOA-ARAVACA;434663;4478596;40.4554618;-3.770583626;913 579 116;;info@fundacionamyc.org;/contenido/entidadesYorganismos/FundacionesCulturales;Mueso
3348;Monasterio de las Descalzas Reales;Convento fundado por la Princesa Juana de Austria, transformando un antiguo palacio de su madre Isabel de Portugal.;Sólo con visita guiada  .     De martes a sábado de 10 a 14 horas y de 16 a 18:30 horas  Domingos y festivos, de 10 a 15 horas. Cerrado los lunes  Cierre taquillas y acceso al Monasterio una hora antes;;Metro: Callao (líneas 3, 5) , Santo Domingo (línea 2) , Sol (líneas 1, 2, 3) Gran Vía (líneas 1, 5)  Bus: 1, 2, 3, 5, 15, 20, 25, 39, 40, 44, 46, 50, 51, 52, 53, 74, 75, 133, 146, 147, 148, 149, 150, 202;Aperturas extraordinarias para 2018    2 de mayo abierto hasta las 15:00  15 de mayo abierto hasta las 15:00  15 de agosto abierto hasta las 15:00  12 de octubre abierto hasta las 15:00  1 de noviembre abierto hasta las 15:00  9 de noviembre abierto hasta las 15:00  6 de diciembre abierto hasta las 15:00  8 de diciembre abierto hasta las 15:00    Días de cierre para 2018    1 de enero: cerrado en jornada completa  6 de enero: cerrado en jornada completa  28 de marzo: cerrado en jornada completa  29 de marzo: cerrado en jornada completa  30 de marzo: cerrado en jornada completa  31 de marzo: cerrado en jornada completa  1 de mayo: cerrado en jornada completa  24 de diciembre: cerrado en jornada completa  25 de diciembre: cerrado en jornada completa  31 de diciembre: cerrado en jornada completa   Además de los cierres ya previstos, puede haber cierres adicionales motivados también por la celebración de actos oficiales;3;http://www.madrid.es/sites/v/index.jsp?vgnextchannel=9e4c43db40317010VgnVCM100000dc0ca8c0RCRD&vgnextoid=12e113db5b71c010VgnVCM1000000b205a0aRCRD;DESCALZAS;PLAZA;V;3;;;;;MADRID;MADRID;28013;SOL;CENTRO;440087;4474418;40.41823336;-3.706213135;"914 548 700                                                             
";;;/contenido/entidadesYorganismos/MonumentosEdificiosArtisticos;Mueso
5873478;Museo ABC;Centro de arte, dibujo e ilustración.;De martes a sábado de 11 a 20 horas  Domingos de 10 a 14 horas   Lunes cerrado    Durante 2018 el Museo ABC permanecerá cerrado los días:   1 y 6 de enero  1 de mayo  24 , 25 y 31 de diciembre;;Metro: San Bernardo (líneas 2, 4), Noviciado (línea 2), Ventura Rodríguez (línea 3), Plaza de España (líneas 3, 10)  Bus: 3, 147;;1;http://www.madrid.es/sites/v/index.jsp?vgnextchannel=9e4c43db40317010VgnVCM100000dc0ca8c0RCRD&vgnextoid=f0103fee6537c210VgnVCM1000000b205a0aRCRD;AMANIEL;CALLE;V;29;;;;;MADRID;MADRID;28015;UNIVERSIDAD;CENTRO;439922;4475646;40.42741122;-3.70953926;917 588 379;;info_museo@abc.es;/contenido/entidadesYorganismos/Museos;Mueso
2067;Museo Africano Mundo Negro;Situado en los locales de los Misioneros Combonianos de Madrid y abierto al público en 1985, se propone divulgar la cultura africana, promoviendo el conocimiento de la vida, de la historia y de las diversas culturas africanas.;Grupos con cita previa : de lunes a viernes de 9,30 a 13,30 horas.   Particulares  (visitas guiadas): domingos a las 11,30 horas.   Cerrado : julio, agosto y septiembre.;;Bus: 11, 70, 114, 115, 122, 200.;;3;http://www.madrid.es/sites/v/index.jsp?vgnextchannel=9e4c43db40317010VgnVCM100000dc0ca8c0RCRD&vgnextoid=6ab8ef4d7f71c010VgnVCM1000000b205a0aRCRD;ARTURO SORIA;CALLE;V;101;;;;;MADRID;MADRID;28043;SAN JUAN BAUTISTA;CIUDAD LINEAL;444755;4477849;40.44946465;-3.651491728;914 152 412;;info@museoafricano.es;/contenido/entidadesYorganismos/Museos;Mueso
2050;Museo Arqueológico Nacional;Fundado en 1867, el  MAN  se inauguró en 1895 en su actual sede, en el Palacio de Biblioteca y Museos, edificio proyectado por Francisco Jareño y terminado por Antonio Ruiz de Salces.;"De martes a sábados de 9:30 a 20 horas  Domingos y festivos de 9:30 a 15 horas    Cerrado    Todos los lunes del año.  1 y 6 de enero, 1de mayo y 24, 25 y 31 de diciembre.    Horario de cierre de las taquillas:  15 minutos antes del cierre del Museo.   Días festivos 2018. Horario 9.30 a 15 horas:   29 y 30 de marzo; 2 de mayo;15 de agosto; 12 de octubre; 1 y 9 de noviembre; 6 y 8 de diciembre.";;Metro: Serrano (línea 4), Colón (línea 4).  Bus: 1, 2, 5, 9, 14, 19, 21, 27, 37, 45, 51, 53, 74, 150.  Renfe: Recoletos (línea C-1, C-2, C-7, C-8 y C-10).;;1;http://www.madrid.es/sites/v/index.jsp?vgnextchannel=9e4c43db40317010VgnVCM100000dc0ca8c0RCRD&vgnextoid=8fd8ef4d7f71c010VgnVCM1000000b205a0aRCRD;SERRANO;CALLE;V;13;;;;;MADRID;MADRID;28001;RECOLETOS;SALAMANCA;441711;4475173;40.42327764;-3.688418706;"915 777 912                                                                     
                                                                                     
";;;/contenido/entidadesYorganismos/Museos;Mueso
2072;Museo Casa de la Moneda;El Museo Casa de la Moneda alberga colecciones numismáticas y de artes gráficas: importantes dibujos, estampas, loterías, sellos,... Se trata de la que posiblemente sea la mayor exposición numismática del mundo, cubriendo la historia de la moneda desde el siglo  VII a.C.  hasta nuestros días.;"De martes a viernes ininterrumpidamente de 10 a 17:30 horas. Sábados, domingos y festivos de 10 a 14:15 horas  Cerrado los lunes (incluido festivos), y los días 1 y 6 de enero; 19 de marzo; 1 de mayo;  24, 25 y 31 de diciembre";El público puede acuñar una moneda durante su visita (consultar precio).  Audioguías individuales (con programas para sordos en lenguaje de signos).  Wifimuseun (en idiomas español e inglés y lengua de signos).;"Metro: O&acute;Donnell (línea 6)  Bus: 2, 28, 30, 56, 71, 143, C2";;1;http://www.madrid.es/sites/v/index.jsp?vgnextchannel=9e4c43db40317010VgnVCM100000dc0ca8c0RCRD&vgnextoid=12f8ef4d7f71c010VgnVCM1000000b205a0aRCRD;DOCTOR ESQUERDO;CALLE;V;36;;;;;MADRID;MADRID;28028;GOYA;SALAMANCA;443235;4474878;40.42259797;-3.669150206;"915 666 544                                 
";915 666 809;museo@fnmt.es;/contenido/entidadesYorganismos/Museos;Mueso
4112;Museo Cerralbo;Este Palacio, construido entre 1883 y 1893, fue concebido como vivienda y como museo para sede de las obras de arte reunidas por los Marqueses de Cerralbo y sus hijos, los Marqueses de Villa Huerta, durante los numerosos viajes que realizaron por España y Europa.;De martes a sábado de 9:30 a 15 horas.  Jueves de 17 a 20 horas, excepto festivos.  Domingos y festivos de 10 a 15 horas.  Cerrado:  Todos los lunes.  1 y 6 de enero.  1 de mayo.  24, 25 y 31 de diciembre.  Una fiesta local.;;Metro: Plaza de España (líneas 3, 10), Príncipe Pío (líneas 6 y 10).  Bus: 1, 2, 3, 44, 46, 74, 75, 133, 147, 148, C1, C2.  Renfe: Príncipe Pio (líneas C1, C7 Y C10).;Los usuarios del carné de alberguista disfrutarán de un 50% de descuento.    Visitas guiadas       El Museo ofrece la posibilidad de realizar visitas guiadas y en grupo de  martes a viernes  bajo distintas modalidades. Los  jueves por la tarde, fines de semana (sábados y domingos) y festivos no se admiten grupos  salvo los relacionados con la propia activdad del museo y su programación.  Grupos de 8 a 12 personas.   Más información .;2,6;http://www.madrid.es/sites/v/index.jsp?vgnextchannel=9e4c43db40317010VgnVCM100000dc0ca8c0RCRD&vgnextoid=a4efb0c40971c010VgnVCM1000000b205a0aRCRD;VENTURA RODRIGUEZ;CALLE;V;17;;;;;MADRID;MADRID;28008;ARGUELLES;MONCLOA-ARAVACA;439380;4475039;40.42376732;-3.714617039;915 473 646 / 47;915 591 171;museo.cerralbo@mecd.es;/contenido/entidadesYorganismos/Museos;Mueso
10091450;Museo EMT;El Museo de la  EMT  se ha convertido en realidad tras una década de duro trabajo de recuperación, restauración y reparación del patrimonio histórico de la Empresa Municipal de Transportes de Madrid, especialmente, material móvil, mobiliario, piezas mecánicas, maquinaria y otros elementos inherentes a la actividad de la  EMT  en sus 70 años de historia.;Visitas (con cita previa)   Apertura estacional durante seis meses al año: todos los sábados de abril, mayo, junio, julio, septiembre y octubre), a las 10, a las 11:30 y a las 13 horas.  Por ser un centro de trabajo únicamente pueden realizarse de forma organizada, previamente concertadas y limitadas a un máximo de 40 personas por turno.  Duración: 60 minutos aproximadamente.  Compra de entradas y reserva de horarios a través de la web:  http://tienda.emtmadrid.es  (a partir del 1 de marzo de 2018).;Si tiene una discapacidad física o sensorial, contacta con el Museo antes de reservar la visita y le informarán de la accesibilidad a la instalación.;Metro: Begoña (línea 10).  Bus: 66, 173, 174, 176, 191, 193, 194, 195, 196, 197, 712, 713, 714, 716, L171.;;0;http://www.madrid.es/sites/v/index.jsp?vgnextchannel=9e4c43db40317010VgnVCM100000dc0ca8c0RCRD&vgnextoid=d56ad05b2a255510VgnVCM2000001f4a900aRCRD;MAURICIO LEGENDRE;CALLE;V;40;;;;;MADRID;MADRID;28046;CASTILLA;CHAMARTIN;442096;4481278;40.48017361;-3.683159545;914 068 810;;;/contenido/entidadesYorganismos/AyuntamientoMadrid/OrganismosEmpresasMunicipales;Mueso
10237457;Museo Félix Cañada;Una selección de más de quinientas obras de arte de entre las cerca de mil de la donación original, constituyen la Colección Permanente que se puede visitar en las salas del Museo Félix Cañada de la Fundación Gómez Pardo, adscrita a la Escuela Técnica Superior de Ingenieros de Minas y Energía de la Universidad Politécnica de Madrid. Donada por el ingeniero de minas Doctor Félix Cañada Guerrero a la Fundación Gómez Pardo, reúne una amplia representación de trabajos de destacados artistas, pintores, escultores, ilustradores, grabadores, orfebres, ceramistas, etc. abarcando diferentes periodos desde el siglo  XI  hasta nuestros días.;Visitas: lunes, miércoles y viernes de 10 a 13 horas.;Visitas guiadas para grupos de entre 10 y 30 personas (sin guía propio)    http://museo.fundaciongomezpardo.es/;;;3;http://www.madrid.es/sites/v/index.jsp?vgnextchannel=9e4c43db40317010VgnVCM100000dc0ca8c0RCRD&vgnextoid=cb22820a52799510VgnVCM1000001d4a900aRCRD;ALENZA;CALLE;V;1;;;;;MADRID;MADRID;28003;RIOS ROSAS;CHAMBERI;440568;4477117;40.44258167;-3.700796192;914 417 921;;museo@fgomezpardo.es;/contenido/entidadesYorganismos/Museos;Mueso
2074;Museo Geominero;Construcción típica de la arquitectura en hierro y cristal de principios del siglo  XX  que alberga colecciones de minerales, rocas y fósiles procedentes de todas las regiones españolas y de antiguos territorios coloniales, así como de yacimientos significados del registro mundial.   Objetivos del museo : conservar, investigar y difundir el patrimonio geológico, paleontológico y mineralógico;De lunes a domingo y festivos de 9 a 14 horas  Cerrado los días 1 y 6 de enero y 24, 25 y 31 de diciembre;;Metro: Ríos Rosas (línea 1) y Alonso Cano (línea 7)  Bus: 3, 5, 12, 37, 45, 149;;3;http://www.madrid.es/sites/v/index.jsp?vgnextchannel=9e4c43db40317010VgnVCM100000dc0ca8c0RCRD&vgnextoid=ff0bef4d7f71c010VgnVCM1000000b205a0aRCRD;RIOS ROSAS;CALLE;V;23;;;;;MADRID;MADRID;28003;RIOS ROSAS;CHAMBERI;440663;4477057;40.44204795;-3.699670469;913 495 759;913 495 828;m.geominero@igme.es;/contenido/entidadesYorganismos/Museos;Mueso
2075;Museo Histórico Minero Don Felipe de Borbón y Grecia;Ubicado en la Escuela Técnica Superior de Ingenieros de Minas de Madrid;De lunes a viernes, de 9 a 14 horas.;;Metro: Ríos Rosas (línea 1)  Bus: 3, 12, 37, 45, 149;;3;http://www.madrid.es/sites/v/index.jsp?vgnextchannel=9e4c43db40317010VgnVCM100000dc0ca8c0RCRD&vgnextoid=822bef4d7f71c010VgnVCM1000000b205a0aRCRD;RIOS ROSAS;CALLE;V;21;;;;;MADRID;MADRID;28003;RIOS ROSAS;CHAMBERI;440603;4477062;40.44207963;-3.700390072;913 367 017;;;/contenido/entidadesYorganismos/Museos;Mueso
18176;Museo ICO;;De martes a sábados: de 11 a 20 horas    Domingos y festivos: de 10 a 14 horas     Cerrado:  Todos los lunes del año (incluidos festivos);;Metro: Banco de España (línea 2) , Sevilla (línea 2)  Bus: 3, 5, 9, 15, 20, 46, 51, 52, 53, 150, M1, M2;;3;http://www.madrid.es/sites/v/index.jsp?vgnextchannel=9e4c43db40317010VgnVCM100000dc0ca8c0RCRD&vgnextoid=2886444a2951c010VgnVCM2000000c205a0aRCRD;ZORRILLA;CALLE;V;3;;;;;MADRID;MADRID;28014;CORTES;CENTRO;440806;4474249;40.4167533;-3.697734624;914 201 242;;museoico@ico.es;/contenido/entidadesYorganismos/Museos;Mueso
6019032;Museo Los Caños del Peral. Estación de Metro Ópera;;Viernes, sábados y domingos de 11 a 13 y de 17 a 19 horas;;Metro: Ópera (líneas 2, 5 y Ramal).;Museo Los Caños del Peral   La estación de Ópera cuenta en su interior con el mayor museo arqueológico bajo tierra de Madrid, un espacio de 200 metros cuadrados donde se pueden ver restos arqueológicos de los siglos  XVI  y  XVII  pertenecientes a la Fuente de los Caños del Peral, el Acueducto de Amaniel y la Alcantarilla del Arenal.;1;http://www.madrid.es/sites/v/index.jsp?vgnextchannel=9e4c43db40317010VgnVCM100000dc0ca8c0RCRD&vgnextoid=435950262d50f210VgnVCM2000000c205a0aRCRD;ISABEL II;PLAZA;V;1;;;;;MADRID;MADRID;28013;PALACIO;CENTRO;439943;4474575;40.4177556;-3.70920207;902 444 403 / 917 796 399 ;;;/contenido/entidadesYorganismos/Museos;Mueso
2053;Museo Lázaro Galdiano;;"Martes a sábados de 10 a 16:30 horas.  Domingos de 10 a 15 horas.  Cerrado todos los lunes, y 6 de enero; 29 y 30 de marzo; 1 y 2 de mayo; 15 de agosto; 1 de noviembre y 24, 25 y 31 de diciembre de 2018.  Grupos y visitas guiadas consultar.";;Metro: Gregorio Marañón (línea 7 y 10).  Bus: 7, 9, 12, 14, 16, 19, 27, 40, 61, 145, 150.;;1;http://www.madrid.es/sites/v/index.jsp?vgnextchannel=9e4c43db40317010VgnVCM100000dc0ca8c0RCRD&vgnextoid=7d1aef4d7f71c010VgnVCM1000000b205a0aRCRD;SERRANO;CALLE;V;122;;;;;MADRID;MADRID;28006;CASTELLANA;SALAMANCA;441802;4476460;40.43675033;-3.686198013;915 616 084;915 617 793;;/contenido/entidadesYorganismos/MonumentosEdificiosArtisticos;Mueso
5349304;Museo Nacional Centro de Arte Reina Sofía (MNCARS);Edificio Sabatini:  calle Santa Isabel 52.   Edificio Nouvel  (ampliación): ronda de Atocha, esquina a plaza del Emperador Carlos V.   Espacios en el parque del Retiro:  Palacio de Velázquez y Palacio de Cristal.;De lunes a sábado de 10 a 21 horas y domingos de 10 a 19 horas.  Martes cerrado (incluso festivos).  Cerrado 1 y 6 enero, 1 y 15 de mayo, 9 de noviembre, 24, 25 y 31 de diciembre.;;Metro: Atocha (línea 1).  Bus:  6, 10, 14, 19, 26, 27, 32, 34, 36, 37, 41, 45, 59, 85, 86, 102, 119, C1, C2, E1.  Cercanías Renfe: Atocha (líneas C1, C2, C3, C4, C5, C7, C8, C10).;;1;http://www.madrid.es/sites/v/index.jsp?vgnextchannel=9e4c43db40317010VgnVCM100000dc0ca8c0RCRD&vgnextoid=69d8275bad5a1210VgnVCM2000000c205a0aRCRD;SANTA ISABEL;CALLE;V;52;;;;;MADRID;MADRID;28012;EMBAJADORES;CENTRO;441112;4473334;40.40854132;-3.694031651;"917 741 000                                                                                         
";;;/contenido/entidadesYorganismos/Museos;Mueso
2099;Museo Nacional Thyssen-Bornemisza;El Palacio donde se ubica la colección fue el antiguo palacio del duque de Villahermosa. Edificación neoclásica. Posteriormente se adapta como entidad bancaria perdiento sus espacios interiores. Más tarde, pasó a formar parte de los edificios del Museo del Prado. Desde principios de los 90 alberga la Colección Thyssen. El museo ofrece un recorrido por la historia de la pintura europea desde sus inicios en el siglo  XIII , hasta finales del siglo  XX.;Colecciones permanentes:   lunes de 12 a 16 horas (acceso gratuito gracias al patrocinio de MasterCard). Martes a domingos de 10 a 19 horas.    Exposiciones temporales : consultar horario específico en Museo.  Último acceso 1 hora antes del cierre. El desalojo de todas las salas tendrá lugar 5 minutos antes del cierre.   Avisos y aperturas extraordinarias:  los días 1 de enero, 1 de mayo y 25 de diciembre el Museo permanecerá cerrado. El 24 y el 31 de diciembre el horario de apertura del Museo será de 10 a 15 horas.;Accesible a personas con discapacidad (física y sensorial)   Folleto y señalización en braille para invidentes  Librería  Tienda  Cafetería  Restaurante  Guardarropa  Servicio de venta anticipada en las taquillas  Servicio de Audio Guía;Metro: Banco de España (línea 2).  Bus: 1, 2, 5, 9, 10, 14, 15, 20, 27, 34, 37, 41, 51, 52, 53, 74, 146 y 150.  Cercanías Renfe: Recoletos.;Arquitecto: Antonio López Aguado (1805 - 1806)  Adecuación: Rafael Moneo (1989 - 1992)  Ampliación: BOPBAA (1999 - 2004);1;http://www.madrid.es/sites/v/index.jsp?vgnextchannel=9e4c43db40317010VgnVCM100000dc0ca8c0RCRD&vgnextoid=0b8079262ef5d010VgnVCM1000000b205a0aRCRD;PRADO;PASEO;V;8;;;;;MADRID;MADRID;28014;CORTES;CENTRO;441058;4474164;40.41600554;-3.694744831;"917 911 370                                                                                                                                                                                                                        
";;cav@museothyssen.org;/contenido/entidadesYorganismos/MonumentosEdificiosArtisticos;Mueso
2057;Museo Nacional de Antropología;El Museo está instalado en el edificio de estilo clasicista construido por el Marqués de Cubas en 1875 por encargo del Doctor González Velasco, fundador de la institución.;De martes a sábado de 9:30 a 20 horas.  Domingos y festivos: de 10 a 15 horas.  Cerrado todos los lunes del año y los días 1 y 6 de enero, 1 y 15 de mayo, 24, 25 y 31 de diciembre.;;Metro: Atocha (línea 1).  Bus: 10, 14, 19, 24, 26, 32, 37,54, 57, 59, 85, 86, 102, 141, C1, C2.  Cercanías Renfe: Atocha (líneas C1, C2, C3, C4, C5, C7, C8, C10).;;1;http://www.madrid.es/sites/v/index.jsp?vgnextchannel=9e4c43db40317010VgnVCM100000dc0ca8c0RCRD&vgnextoid=456079262ef5d010VgnVCM1000000b205a0aRCRD;ALFONSO XII;CALLE;V;68;;;;;MADRID;MADRID;28014;LOS JERONIMOS;RETIRO;441550;4473258;40.40788754;-3.688862924;915 306 418 /915 395 995;914 677 098;antropologico@mecd.es;/contenido/entidadesYorganismos/Museos;Mueso
2055;Museo Nacional de Artes Decorativas;Inaugurado en 1912, su sede es un típico palacete madrileño del último tercio del siglo XIX. El museo posee muebles, cerámicas, vidrios, joyas, tejidos, arte oriental, y hasta 30 000 objetos distintos que a lo largo de la historia han servido para embellecer las casas, palacios y los monumentos de distintas culturas.  El museo posee muestras como el Jarrón de Sevres regalo de Napoleón III, la Cocina Valenciana del siglo XVIII compuesta por más de 1500 azulejos de Manises, la Mesa de plata del siglo XVI o la colección de alfombras españolas de los siglos XV al XVII.;Colección permanente:    Martes a sábados de 9:30 a 15 horas.  Domingo y festivos: de 10 a 15 horas.  Jueves tarde de 17 a 20 horas.   Cerrado:   todos los lunes del año, 1 y 6 de enero, 1 y 15 de mayo, 24, 25 y 31 de diciembre.;;Metro: Retiro (línea 2).  Bus: 1, 2, 9, 10, 14, 15, 19, 20, 27,  28, 34, 37, 45 51, 52, 74, 146, 203.  Cercanías Renfe: Recoletos (líneas C1, C2, C7, C8 Y C10).;El Museo dispone de una rampa de acceso al edificio en la C/ Montalbán. Para su uso, es necesario avisar con antelación al personal del Museo. El acceso a las diferentes plantas, puede realizarse mediante ascensor. Debido a las dimensiones del mismo, es necesario emplear en él las sillas de ruedas que el Museo pone a su disposición, previa solicitud.;2;http://www.madrid.es/sites/v/index.jsp?vgnextchannel=9e4c43db40317010VgnVCM100000dc0ca8c0RCRD&vgnextoid=287079262ef5d010VgnVCM1000000b205a0aRCRD;MONTALBAN;CALLE;V;12;;;;;MADRID;MADRID;28014;LOS JERONIMOS;RETIRO;441483;4474369;40.41789128;-3.689754685;915 326 499 / 915 326 845 / 910 505 755 (Reserva actividades infantiles) / 910 505 768 (Biblioteca) 910 505 763 (Atención a investigadores);915 232 086;mnad@mecd.es;/contenido/entidadesYorganismos/MonumentosEdificiosArtisticos;Mueso
2056;Museo Nacional de Ciencias Naturales;El Museo nacional de Ciencias Naturales (MNCN-CSIC) se fundó en 1771, lo que lo convierte en uno de los museos de historia natural más antiguos del mundo. Con exposiciones permanentes como Biodiversidad, Minerales, Fósiles y Evolución Humana o Fauna del Parque Nacional de la Sierra de Guadarrama, entre otras, este museo pretende acercar las ciencias naturales al público.  Ubicado en el antiguo Palacio de la Industria y de las Artes del Paseo de la Castellana de Madrid. Es un centro de investigación del Consejo Superior de Investigaciones Científicas (CSIC), que custodia colecciones científicas de incalculable valor.;De martes a viernes de 10 a 17 horas.  Sábados, domingos y festivos de 10 a 20 horas.  Sábados, domingos y festivos de agosto de 10 a 15 horas.       Cerrado : todos los lunes no festivos, 1 y 6 de enero, 1 de mayo y 25 de diciembre.;Biblioteca de Zoología, Entomología, Econología, Evolución, Geología y Paleontología, Archivo, publicaciones, consulta y asesoramiento científico y técnico, exposiciones permanentes y temporales, actividades culturales, talleres, cursos, sala de proyecciones, librería especializada.;Metro: Gregorio Marañón (líneas 7, 10)  Bus: 7, 12, 14, 27, 40, 45, 147, 150;;1;http://www.madrid.es/sites/v/index.jsp?vgnextchannel=9e4c43db40317010VgnVCM100000dc0ca8c0RCRD&vgnextoid=8edbef4d7f71c010VgnVCM1000000b205a0aRCRD;JOSE GUTIERREZ ABASCAL;CALLE;V;2;;;;;MADRID;MADRID;28006;EL VISO;CHAMARTIN;441463;4476870;40.44042008;-3.690220716;914 111 328 (centralita);915 645 078;;/contenido/entidadesYorganismos/MonumentosEdificiosArtisticos;Mueso
2076;Museo Naval;Temática: historia de la navegación española;De martes a domingo de 10 a 19 horas  Cerrado los lunes y los festivos 1 y 6 de enero y 24, 25 y 31 de diciembre  Agosto, martes a domingo de 10 a 15 horas;;Metro: Banco de España (línea 2)  Bus: 10, 14, 27, 34, 37, 45;;1;http://www.madrid.es/sites/v/index.jsp?vgnextchannel=9e4c43db40317010VgnVCM100000dc0ca8c0RCRD&vgnextoid=a30cef4d7f71c010VgnVCM1000000b205a0aRCRD;PRADO;PASEO;V;5;;;;;MADRID;MADRID;28014;LOS JERONIMOS;RETIRO;441337;4474537;40.4175129;-3.692768317;915 238 516 (martes y viernes de 9 a 14 horas) ;913 795 056;ohculturanaval@fn.mde.es;/contenido/entidadesYorganismos/Museos;Mueso
2085;Museo Postal y Telegráfico;Recorrido temático y cronológico por la evolución de los medios de comunicación y colecciones filatélicas de gran valor histórico, temáticas y por países.;Museo: de lunes a viernes de 9 a 14 y de 16 a 18 horas  Biblioteca: de lunes a viernes de 9 a 14;;Bus: 161;Visitas guiadas:  previa petición de hora, para grupos. Desde la web o por teléfono.  Mediante la proyección de videos y a través de la visita, se puede conocer la historia del correo y del telégrafo desde los orígenes hasta las nuevas tecnologías.  Aparcamiento propio;1;http://www.madrid.es/sites/v/index.jsp?vgnextchannel=9e4c43db40317010VgnVCM100000dc0ca8c0RCRD&vgnextoid=c82cef4d7f71c010VgnVCM1000000b205a0aRCRD;TAPIA DE CASARIEGO;CALLE;V;6;;;;;MADRID;MADRID;28023;VALDEMARIN;MONCLOA-ARAVACA;434912;4480162;40.46770603;-3.76907214;917 401 440 (Museo) / 917 400 664 (Biblioteca);;museopostaltelegrafico@correos.com;/contenido/entidadesYorganismos/Museos;Mueso
4997114;Museo Sorolla;;De martes a sábado: de 9:30 a 20 horas   Domingos: de 10 a 15 horas  Cerrado: todos los lunes del año, 1 de enero, 6 de enero, 1 de mayo, 24, 25 y 31 de diciembre y dos festivos locales.;;Metro: Rubén Darío (línea 5), Gregorio Marañón (líneas 7, 10)  Bus: 5, 7, 14, 16, 27, 40, 45, 61, 147 y 150;;0;http://www.madrid.es/sites/v/index.jsp?vgnextchannel=9e4c43db40317010VgnVCM100000dc0ca8c0RCRD&vgnextoid=6dd05e93aad9c110VgnVCM1000000b205a0aRCRD;GENERAL MARTINEZ CAMPOS;PASEO;V;37;;;;;MADRID;MADRID;28010;ALMAGRO;CHAMBERI;441281;4476335;40.43557864;-3.692328821;913 101 584;;museo.sorolla@mecd.es;/contenido/entidadesYorganismos/Museos;Mueso
2077;Museo Taurino de la Plaza de las Ventas;Su existencia data del día de San Isidro de 1951, creado por la extinta Diputación Provincial de Madrid. Sirve como testimonio de los momentos estelares del arte y la historia del toreo.  La entrada se encuentra situada junto al patio de caballos de la Plaza de Toros Monumental de Las Ventas.;Todos los días del año incluidos sábados, domingos y festivos de 10 a 18 horas, ininterrumpidamente, salvo los días de Festejo y en Feria de San Isidro y Otoño de 10 a 16 horas, ininterrumpidamente.;;Metro: Ventas (líneas 2, 5).  Bus: 12, 21, 38, 53, 74, 106, 110, 146, 210.;;0;http://www.madrid.es/sites/v/index.jsp?vgnextchannel=9e4c43db40317010VgnVCM100000dc0ca8c0RCRD&vgnextoid=958cef4d7f71c010VgnVCM1000000b205a0aRCRD;ALCALA;CALLE;V;237;;;;;MADRID;MADRID;28028;GUINDALERA;SALAMANCA;443775;4475871;40.4315711;-3.662872781;"912 761 287                 
";;museotaurinolasventas@madrid.org;/contenido/entidadesYorganismos/Museos;Mueso
2101;Museo Tiflológico;Edificio con una superficie de 1.500  m2  dividido en tres zonas con maquetas de monumentos nacionales e internacionales realizadas por invidentes e instrumentos utilizados por los invidentes desde hace 200 años. Es un espacio concebido para que sus visitantes puedan ver y tocar las piezas expuestas.;Martes a viernes de 10 a 14 horas y de 17 a 20 horas.  Sábados de 10 a 14 horas.  Lunes, domingos y festivos cerrado.  Cerrado 31 de Marzo de 2018 y 14 a 31 Agosto.;;Metro: Estrecho (línea 1)  Bus: 3, 42, 64, 66, 124, 127;Las visitas de grupos se realizan previa reserva, de 8 a 14 horas y de 17 a 20 horas, en el teléfono de información: 915 894 219  También se puede realizar visita colectiva guiada en inglés, previa reserva.;1;http://www.madrid.es/sites/v/index.jsp?vgnextchannel=9e4c43db40317010VgnVCM100000dc0ca8c0RCRD&vgnextoid=baacef4d7f71c010VgnVCM1000000b205a0aRCRD;LA CORUÑA;CALLE;V;18;;;;;MADRID;MADRID;28020;CUATRO CAMINOS;TETUAN;440740;4478725;40.4551979;-3.700196049;915 894 219;;museo@once.es;/contenido/entidadesYorganismos/Museos;Mueso
2068;Museo de Aeronáutica y Astronáutica;Emplazado en Cuatro Vientos desde 1966, tiene como objetivo narrar la historia y el desarrollo científico - técnico de la Aeronáutica y Astronáutica españolas. Ocupa una superficie de 66.938 metros cuadrados, repartidos en una zona de exposición exterior y siete hangares que albergan más de 140 aeronaves, así como uniformes, condecoraciones, motores, maquetas y otros fondos relacionados con la aviación.;De martes a domingo de 10 a 14 horas (hora tope de entrada 13:30 horas)  Cerrado los días 1 y 6 de enero, Jueves y Viernes Santos, 12 de octubre, 10 de diciembre (Patrona de Aviación), 24, 25 y 31 de diciembre.;Aparcamiento: gratuito, de 10 a 14 horas  Cafetería: de 10 a 13:30 horas  Punto de venta: de 10 a 13:30 horas   Visitas guiadas para grupos:  de martes a domingo de 10 a 14 horas, previa petición de autorización por carta o correo electrónico (museodelaire@ea.mde.es). Se recomienda anticipar las peticiones por teléfono de lunes a viernes. Grupo mínimo de 10 personas   Obtención de fotografías y/o filmaciones:     Tratándose de fotografías o filmaciones para uso particular no es necesario pedir ningún tipo de autorización.   Es necesaria la solicitud de permiso previo mediante correo a museodelaire@ea.mde.es, si el objetivo es la difusión por medios de comunicación. El permiso se ajustará a lo dispuesto en la Instrucción 65/2004, de 31 de marzo, del Secretario de Estado de Defensa.     Para más información teléfono 915 091 690;;;1;http://www.madrid.es/sites/v/index.jsp?vgnextchannel=9e4c43db40317010VgnVCM100000dc0ca8c0RCRD&vgnextoid=90aaef4d7f71c010VgnVCM1000000b205a0aRCRD;A-5;AUTOVIA;T;10.7;;;;Km. 10,5;MADRID;MADRID;28024;CUATRO VIENTOS;LATINA;432348;4469705;40.37330137;-3.798200034;915 091 690 (centralita);917 106 847;museodelaire@ea.mde.es ;/contenido/entidadesYorganismos/Museos;Mueso
2091;Museo de América;;Horario:    De martes a sábado, de 9:30 a 15 horas.  Jueves, apertura continuada de 9:30 a 19 horas.  Domingos y festivos de 10 a 15 horas.    Cerrado:  todos los lunes del año, días 1 y 6 de enero, 1 y 15 de mayo, 24, 25 y 31 de diciembre.;;Metro: Moncloa (líneas 3, 6), Islas Filipinas (línea 7).  Autobús: 1, 2, 16, 44, 46, 61, 82, 113, 132, 133 y Circular.   Aparcamiento gratuito durante los fines de semana y festivos.;;1;http://www.madrid.es/sites/v/index.jsp?vgnextchannel=9e4c43db40317010VgnVCM100000dc0ca8c0RCRD&vgnextoid=c929ef4d7f71c010VgnVCM1000000b205a0aRCRD;REYES CATOLICOS;AVENIDA;V;6;;;;;MADRID;MADRID;28040;CIUDAD UNIVERSITARIA;MONCLOA-ARAVACA;438777;4476615;40.43792951;-3.721864941;915 439 437 / 915 492 641;915 446 742;museo.america@mecd.es;/contenido/entidadesYorganismos/Museos;Mueso
83922;Museo de Arte Contemporáneo de Madrid;;De martes a sábado:  mañanas de 10 a 14 horas  tardes de 17:30 a 21 horas     Domingos y festivos  de 10:30 a 14 horas    Horario de Verano del 15 de junio al 15 de septiembre.    De martes a sábado:  mañanas de 10 a 13:30  horas  tardes de 17:30 a 20:00 horas    Domingos y festivos de 10:30 a 13:30 horas     Cerrado   Todos los lunes, 1 y 6 de enero, 1 de mayo, 24, 25 y 31 de diciembre.  Las salas se desalojan 15 minutos antes del cierre.;;Metro:  Ventura Rodríguez, Plaza de España, San Bernardo, Noviciado.   Bus:  1, 2, 21, 44, 74, 133, C, M2   Parking:   Plaza de España;"&bull;  El edificio está casi enteramente adaptado para facilitar la accesibilidad de los visitantes.   &bull;  Dispone de ascensores y aseos adaptados.";1;http://www.madrid.es/sites/v/index.jsp?vgnextchannel=9e4c43db40317010VgnVCM100000dc0ca8c0RCRD&vgnextoid=84a55c2cdc41c010VgnVCM2000000c205a0aRCRD;CONDE DUQUE;CALLE;V;9;;;;;MADRID;MADRID;28015;CENTRO;CENTRO;439723;4475437;40.4273776;-3.710611689;915 885 928  /  915 885 861;;mmacmdifusion@madrid.es;/contenido/entidadesYorganismos/Museos;Mueso
2069;Museo de Artes y Tradiciones Populares. Centro Cultural La Corrala;El Museo se forma tras la donación de la colección de Guadalupe González Hontoria a la Universidad Autónoma de Madrid. Las piezas comprenden:   El ciclo vital humano y religiosidad popular  El ciclo festivo anual, instrumentos musicales, bailes y juegos de adultos  Tareas domésticas  Agricultura, ganadería, caza y pesca  Los oficios artesanales y transporte rural.;Permanece abierto al público de lunes a viernes con horario de 10 a 20 horas. Sábados de 10 a 14 horas.  Cerrado domingos, festivos y mes de agosto;Visitas guiadas previa cita en el teléfono del Museo o en  visitas.atp@uam.es;Metro: La Latina (línea 5)  Bus: 41, 60, 148 y Circular  Renfe: Embajadores /Atocha;;1;http://www.madrid.es/sites/v/index.jsp?vgnextchannel=9e4c43db40317010VgnVCM100000dc0ca8c0RCRD&vgnextoid=5c39ef4d7f71c010VgnVCM1000000b205a0aRCRD;CARLOS ARNICHES;CALLE;V;3;;;;;MADRID;MADRID;28005;EMBAJADORES;CENTRO;440008;4473582;40.40882397;-3.708330456;914 976 500;914 976 510;museoatp@uam.es;/contenido/entidadesYorganismos/Museos;Mueso
2092;Museo de Astronomía y Geodesia;El museo de Astronomía y Geodesia de la Universidad Complutense agrupa una importante colección de instrumentos de Astronomía, Geodesia y Topografía de los siglos XIX y XX.;Visita con cita previa;;Bus: 82, 132 , F, G, U.;;3;http://www.madrid.es/sites/v/index.jsp?vgnextchannel=9e4c43db40317010VgnVCM100000dc0ca8c0RCRD&vgnextoid=ee49ef4d7f71c010VgnVCM1000000b205a0aRCRD;CIENCIAS;PLAZA;V;3;;;;;MADRID;MADRID;28040;CIUDAD UNIVERSITARIA;MONCLOA-ARAVACA;438419;4477894;40.44942473;-3.72622149;913 944 615;;astronomia_geodesia@mat.ucm.es;/contenido/entidadesYorganismos/Museos;Mueso
5727435;Museo de Bomberos;;Abierto todos los días de 09'30 a 14 horas, excepto 25 de diciembre, 1 enero,  6 de enero y 1 de mayo.   Visitas Guiadas   Se pueden concertar en el teléfono: 914 786 572 (Museo)  Más información: 915 889 907 - 915 888 240;Exposición fotográfica  Un recorrido por toda su historia: grandes incendios, construcción de los primeros parques, bomberos fallecidos en acto de servicio...   Vehículos  Una amplia gama de los vehículos utilizados en los últimos 400 años: Las primeras bombas brazales, clásicos de los años veinte y vehículos adaptados de la II Guerra Mundial.   Herramientas y equipos  Diferentes escalas de gancho, extintores primitivos o las primeras lonas de salvamento nos dan una idea de cómo han trabajado los bomberos en los últimos siglos así como herramientas de distintas épocas que nos muestran el avance tecnológico en la lucha contra el fuego y salvamento.   Cascos  Amplia exposición en la que se muestra la evolución de los cascos en Madrid. Además se expone una colección internacional en la que se aprecia, en su diseño, la mezcla de protección, materiales y comodidad en los diferentes países del mundo.   Uniformes  De época, trajes de gala, así como varios modelos que fueron utilizados en sucesos destacados de la historia de Madrid. Completan esta colección varios trajes de aproximación al fuego y protección química especial entre otros.   Comunicaciones  Antiguamente los bomberos se comunicaban mediante toques de corneta. Esta exposición muestra las partituras con sus particulares comandas. Además, la exposición incluye la evolución de los equipos de comunicaciones.   Sanitario  Una cámara de recuperación respiratoria para los bomberos intoxicados por el humo en los fuegos es uno de los mayores atractivos de este área.;Metro : L1- Buenos Aires  Bus : 141 y 143;Abierto al público en 1982, reúne todos los instrumentos usados por los bomberos durante más de cuatro siglos.      Acceso para minusválidos        Entrada gratuita      Apropiado para niños                Visita para grupos con cita previa;1;http://www.madrid.es/sites/v/index.jsp?vgnextchannel=9e4c43db40317010VgnVCM100000dc0ca8c0RCRD&vgnextoid=9f0966a8bba49210VgnVCM2000000c205a0aRCRD;BOADA;CALLE;V;4;;;;;MADRID;MADRID;28038;NUMANCIA;PUENTE DE VALLECAS;444504;4471753;40.39453171;-3.653931321;"91 478 65 72 (Museo),                                                                                                                                           
                                                                                                                                               
";;jcbomberos@madrid.es;/contenido/entidadesYorganismos/Museos;Mueso
2090;Museo de Calcografía Nacional;Reúne un extraordinario conjunto de planchas grabadas por los más significados artistas españoles, hasta conformar una de las mayores y mejores colecciones de matrices calcográficas del mundo. Su principal tesoro son las planchas de cobre grabadas al aguafuerte por Francisco de Goya, obras cumbres de la historia universal del grabado.;Abierto con el mismo horario que la exposición temporal. En ausencia de exposiciones temporales, consultar en la taquilla del museo, telefónicamente o en la web.;Sala de exposiciones temporales, Gabinete de Francisco de Goya y biblioteca de referencia.;Metro: Sol (líneas 1, 2, 3), Sevilla (línea 2)  Bus: 3, 5, 9, 15, 20, 46, 51, 52, 53, 150, M1, M2  Cercanías: Sol;;1;http://www.madrid.es/sites/v/index.jsp?vgnextchannel=9e4c43db40317010VgnVCM100000dc0ca8c0RCRD&vgnextoid=7169ef4d7f71c010VgnVCM1000000b205a0aRCRD;ALCALA;CALLE;V;13;;;;;MADRID;MADRID;28014;SOL;CENTRO;440667;4474557;40.41764548;-3.700667045;915 240 864;915 240 977;calcografianacional.archivo@rabasf.org;/contenido/entidadesYorganismos/Museos;Mueso
2084;Museo de Cera;;De lunes a viernes de 10 a 14:30 y de 16:30 a 20:30 horas.  Sábados, domingos y festivos de 10 a 20:30 horas.  Las taquillas cierran media hora antes.    Horario especial festivos navidad y año nuevo:    24 Y 31 de Diciembre: 10 a 18:30 horas  25 de Diciembre y 1 de Enero: 16:30 a 20:30 horas   Los días 23,26,27,28,29 y 30 de diciembre, 2,3,y 4 de Diciembre. Con actores de animación interactuando con los visitantes.;El museo es accesible a excepción de la 'galería del crimen' (10% de la superficie total), ya que se accede por escaleras.;Metro: Colón (línea 4)  Bus: 5, 14, 21, 27, 45, 53, 15  Renfe: Recoletos;Se pueden realizar cuantas fotografías se deseen en el interior.;1;http://www.madrid.es/sites/v/index.jsp?vgnextchannel=9e4c43db40317010VgnVCM100000dc0ca8c0RCRD&vgnextoid=9689ef4d7f71c010VgnVCM1000000b205a0aRCRD;RECOLETOS;PASEO;V;41;;;;;MADRID;MADRID;28004;JUSTICIA;CENTRO;441347;4475094;40.42440378;-3.691436203;913 199 330;;info@museoceramadrid.com;/contenido/entidadesYorganismos/Museos;Mueso
2071;Museo de Escultura al Aire Libre de la Castellana;El Museo de Escultura al Aire Libre de La Castellana, está situado bajo el paso elevado que une las calles de Juan Bravo y Eduardo Dato, contiene una excelente colección de escultura abstracta española.;Entrada libre. Espacio urbano abierto  Abierto 24 horas al día los 365 días del año.;;Transporte público más próximo   Metro: Rubén Darío (línea 5)  Bus: 5, 14, 27, 45, 150;;0;http://www.madrid.es/sites/v/index.jsp?vgnextchannel=9e4c43db40317010VgnVCM100000dc0ca8c0RCRD&vgnextoid=eca9ef4d7f71c010VgnVCM1000000b205a0aRCRD;CASTELLANA;PASEO;V;40;;;;;MADRID;MADRID;28046;CASTELLANA;SALAMANCA;441678;4476070;40.4332194;-3.687612268;;;mmacmdifusion@madrid.es;/contenido/entidadesYorganismos/MonumentosEdificiosArtisticos;Mueso
2054;Museo de Historia de Madrid;Creado como Museo Municipal en 1929 y rebautizado como Museo de Historia de Madrid en 2007, tras una profunda remodelación, el año 2014 reabre sus puertas con un montaje moderno y una puesta al día de sus colecciones.;De martes a domingos de 10 a 20 horas.     Cerrado    Todos los lunes y los días 1 y 6 de enero, 1 de mayo,  24, 25 y 31 de diciembre.    El desalojo de las salas se hará diez minutos antes del cierre.;Biblioteca de investigación  Servicio de documentación  Guardarropa  Zona wifi;Metro:  Tribunal, Bilbao y Alonso Martínez.  Bus:  3, 21, 37, 40, 147 y 149.  Aparcamiento público:  Barceló.;Accesibilidad física:    Rampa de acceso a la entrada.  Ascensores.  Aseos adaptados.  Silla de ruedas.;1;http://www.madrid.es/sites/v/index.jsp?vgnextchannel=9e4c43db40317010VgnVCM100000dc0ca8c0RCRD&vgnextoid=8f3079262ef5d010VgnVCM1000000b205a0aRCRD;FUENCARRAL;CALLE;V;78;;;;;MADRID;MADRID;28004;JUSTICIA;CENTRO;440550;4475251;40.42577055;-3.700845661;917 011 863;;smuseosm@madrid.es;/contenido/entidadesYorganismos/MonumentosEdificiosArtisticos;Mueso
4545827;Museo de Historia de la Comunidad Judía de Madrid;;Visitas guiadas     De lunes a jueves de 16 a 19 horas.  Viernes, sábados y domingos y festivos religiosos cerrado.  Para realizar las  visitas tienen que solicitarlas previamente en el correo electrónico  visitas@cjmadrid.org , aportando nombre, apellidos y Documento Nacional de Identidad.;;Metro: Iglesia (línea 1)  Bus: 5, 12, 16, 37, 61, 149;;1;http://www.madrid.es/sites/v/index.jsp?vgnextchannel=9e4c43db40317010VgnVCM100000dc0ca8c0RCRD&vgnextoid=8f2a4a659ee71110VgnVCM1000000b205a0aRCRD;BALMES;CALLE;V;3;;;;;MADRID;MADRID;28010;TRAFALGAR;CHAMBERI;440738;4476521;40.43534317;-3.70001362;915 913 131 ;;visitas@cjmadrid.org;/contenido/entidadesYorganismos/Museos;Mueso
2095;Museo de Mineralogía;Presenta colecciones de minerales clasificados por su composición química, y vitrinas murales con ejemplares de exhibición procedentes de todo el mundo.;Martes, miércoles y jueves, de 12:30 a 14:30 horas.  Visitas guiadas o a otras horas, concertando previamente en el teléfono 913 974 132.;;Renfe: Cantoblanco Universidad;;0;http://www.madrid.es/sites/v/index.jsp?vgnextchannel=9e4c43db40317010VgnVCM100000dc0ca8c0RCRD&vgnextoid=255aef4d7f71c010VgnVCM1000000b205a0aRCRD;COLMENAR VIEJO;CARRETERA;KM.;19000;;;;Facultad de Ciencias (Departamento de Química Agrícola, Geología y Geoquímica: Módulo C-VI, planta 4).;MADRID;MADRID;28049;EL GOLOSO;FUENCARRAL-EL PARDO;0;0;;;914 974 132;;;/contenido/entidadesYorganismos/Museos;Mueso
2112;Museo de San Isidro. Los Orígenes de Madrid;Este espacio museográfico propone un viaje por la historia de la ciudad de Madrid desde la Prehistoria hasta el establecimiento de la Corte, a través de distintas salas como la de San Isidro, el Patio Renacentista, el Jardín Arqueobotánico o el Almacén Visitable.;De martes a domingo y festivos de 9:30 a 20 horas.   Verano , del 16 de junio al 15 de septiembre: de   martes a domingo de 9:30 a 19 horas.   Cerrado  todos los lunes, el 1 y 6 de enero, el 1 de mayo y los días 24, 25 y 31 de diciembre.;Sala de investigadores.  Biblioteca especializada en arqueología e historia madrileña.  Archivo documental.  Almacén visitable con más de 600 piezas arqueológicas.  Jardín arqueobotánico, con información documentada sobre las especies de la ciudad.   Investigadores: los fondos del Museo están a disposición de la comunidad científica y los investigadores podrán acceder tramitando su correspondiente solicitud. Visitas guiadas por voluntarios culturales.  Talleres didácticos para grupos escolares.  Zona wifi;Metro: Latina , Tirso de Molina Bus: 3 , 17 , 18 , 23 , 35 , 60 , 65 , 148;;2;http://www.madrid.es/sites/v/index.jsp?vgnextchannel=9e4c43db40317010VgnVCM100000dc0ca8c0RCRD&vgnextoid=7b7aef4d7f71c010VgnVCM1000000b205a0aRCRD;SAN ANDRES;PLAZA;V;1;;;;;MADRID;MADRID;28005;PALACIO;CENTRO;439691;4473738;40.412079;-3.710816103;913 667 415;;museosanisidro@madrid.es;/contenido/entidadesYorganismos/Museos;Mueso
85301;Museo de Sanidad e Higiene Pública;Con sede en el Instituto de Salud Carlos III, ocupa las antiguas dependencias del Laboratorio de Microbiología del Hospital del Rey. 300  m2  conservados tal cual su antiguo uso, con fondos de mobiliario, instrumental y bibliografía de los antiguos hospitales para enfermos infecciosos del complejo. Se resaltan hitos históricos relevantes en salud pública mediante láminas enmarcadas.;Sólo visitas de grupo con cita previa: de lunes a viernes, de 10 a 14 horas.  Cita previa por teléfono: 918 222 414  o a través del correo electrónico:  museodesanidad@isciii.es;;Metro: Chamartín (líneas 1, 10), Plaza de Castilla (1, 9, 10)  Bus: 67, 124, 134, 135, 147  Renfe: Chamartín;;0;http://www.madrid.es/sites/v/index.jsp?vgnextchannel=9e4c43db40317010VgnVCM100000dc0ca8c0RCRD&vgnextoid=3e755c2cdc41c010VgnVCM2000000c205a0aRCRD;MONFORTE DE LEMOS;AVENIDA;V;5;;;;;MADRID;MADRID;28029;LA PAZ;FUENCARRAL-EL PARDO;441617;4480968;40.47546598;-3.690060394;918 222 414  (Cita previa);;museodesanidad@iscii.es;/contenido/entidadesYorganismos/Museos;Mueso
4591873;Museo de la Biblioteca Nacional de España;El Museo de la Biblioteca Nacional de España, antiguo Museo del Libro, es responsable de la oferta educativa, formativa, cultural y de ocio de la institución y divulga las colecciones, funcionamiento e historia de la Biblioteca para todos los públicos.;"De martes a sábados: de 10 a 20 horas.   Domingos y festivos: de 10 a 14 horas.  Últimos pases 30 minutos antes del cierre  Día 5 de enero abierto de 10 a 18 horas.  Días 29 y 30 de marzo; 2 y 15 de mayo; 15 de agosto; 12 de octubre; 1 y 9 de noviembre; 6 y 8 de diciembre: de 10 a 14 horas.  Diás 31 de marzo, 13 de octubre y 10 de noviembre: abierto de 10 a 20 horas.  Días 1 y 6 de enero; 1 de mayo y 24, 25 y 31 de diciembre: cerrado.";;Metro: Colón, (línea 4), Retiro (Línea 2).  Bus: 1, 5, 9, 14, 19, 21, 27, 37, 45, 51, 53, 74, 150.  Cercanías Renfe: Recoletos (líneas C1, C2, C7, C8  y C10).;;1;http://www.madrid.es/sites/v/index.jsp?vgnextchannel=9e4c43db40317010VgnVCM100000dc0ca8c0RCRD&vgnextoid=05920d3b4c503110VgnVCM2000000c205a0aRCRD;RECOLETOS;PASEO;V;20;;;;;MADRID;MADRID;28001;RECOLETOS;SALAMANCA;441395;4474937;40.42300191;-3.690844234;915 168 967 / 915 807 759 de lunes a viernes de 9 a 14 horas.;;museo@bne.es;/contenido/entidadesYorganismos/Museos;Mueso
4566286;Museo de la Catedral de la Almudena;;De lunes a sábado de 10 a 14:30 horas.  Cerrado los domingos, fiestas de precepto y días de actos de culto especiales en la Catedral.;;Bus: 3, 148.  Metro: Ópera (Líneas 2, 5 y Ramal Ópera Príncipe Pío).;;1;http://www.madrid.es/sites/v/index.jsp?vgnextchannel=9e4c43db40317010VgnVCM100000dc0ca8c0RCRD&vgnextoid=82cb8d0e78d22110VgnVCM1000000b205a0aRCRD;BAILEN;CALLE;V;10;;;;Entrada por un costado de la entrada principal de la catedral;MADRID;MADRID;28013;PALACIO;CENTRO;439560;4474332;40.41553877;-3.713693115;915 592 874;;museo@catedraldelaalmudena.es;/contenido/entidadesYorganismos/Museos;Mueso
2073;Museo de la Farmacia Hispana;Entre sus fondos destacan las colecciones de botes cerámicos, morteros y cajas de madera policromadas, relacionados con la práctica docente, cuatro boticas históricas y tres instalaciones que recrean un laboratorio alquimista, una botica árabe y la botica del Hospital de San Juan de las Afueras (Toledo).;Consultar al pedir cita;;Metro: Ciudad Universitaria (línea 6)  Bus: 82 , 132 , I, G, U;Visitas previa petición de cita en el teléfono del Museo;3;http://www.madrid.es/sites/v/index.jsp?vgnextchannel=9e4c43db40317010VgnVCM100000dc0ca8c0RCRD&vgnextoid=58f9ef4d7f71c010VgnVCM1000000b205a0aRCRD;RAMON Y CAJAL;PLAZA;V;0;;;;Facultad de Farmacia;MADRID;MADRID;28040;CIUDAD UNIVERSITARIA;MONCLOA-ARAVACA;438415;4477352;40.44453288;-3.726216004;913 941 797;;museofar@ucm.es;/contenido/entidadesYorganismos/Museos;Mueso
2107;Museo de la Guardia Civil;El Museo se crea por Orden General del Cuerpo de 23 de junio de 1982 y se inaugura el día 12 de octubre de 1982.;Horario:  de lunes a viernes de 9 a 14 horas. Cerrado, sábados, domingos y festivos.;;Metro: Guzmán el Bueno (líneas 6, 7)  Bus: 2,  44, 45, C1, C2;;3;http://www.madrid.es/sites/v/index.jsp?vgnextchannel=9e4c43db40317010VgnVCM100000dc0ca8c0RCRD&vgnextoid=003aef4d7f71c010VgnVCM1000000b205a0aRCRD;GUZMAN EL BUENO;CALLE;V;110;;;;;MADRID;MADRID;28003;VALLEHERMOSO;CHAMBERI;439594;4477325;40.44438523;-3.712300119;915 146 000, extensiones 48495 (Oficina Museo), 48477 (Salas Museo), ;;dg-estuhistoricos-registro@guardiacivil.org;/contenido/entidadesYorganismos/Museos;Mueso
2114;Museo de la Real Academia de Bellas Artes de San Fernando;Construido inicialmente para palacio de Don Juan de Goyeneche, el edificio fue adquirido por la Academia de Bellas Artes en 1773 y reformado bajo la dirección de Fernando Chueca Goitia en 1973 y la fachada por Diego de Villanueva en 1774.;"Colección permanente:   De martes a domingos y festivos de 10 a 15 horas  Cerrado: todos los lunes y el mes de agosto   Exposiciones temporales: consultar el apartado específico de la exposición temporal.  Días cerrados: 1 y 6 de enero; 1 y 30 de mayo; 9 de noviembre; 24, 25 y 31 de diciembre.   En periodos vacacionales pueden sufrir cambios.";Sala de exposiciones - Accesible a personas con minusvalía (física).;Metro: Sol (líneas 1, 2, 3), Sevilla (línea 2)  Bus: 3, 5, 9, 15, 20, 46, 51, 52, 53, 150  Renfe Cercanías: Sol;Visitas guiadas (no grupos):  25 personas máximo.   Martes, jueves y viernes  no festivos  a las 11 horas, excepto Navidad, Semana Santa y agosto.    Visitas para grupos (8 a 14 personas) y privadas:  jueves no festivos a las 11:30 horas.   Gratuitas y guiadas a los centros escolares y asociaciones a cargo de voluntarios culturales del Museo.    Previa solicitud:    Visitas de grupo:  museo.visitas@rabasf.org   Visitas privadas a museo cerrado:   actos.culturales@rabasf.org    Cumplimentando formulario de petición de reservas en la web     Información para la visita:    Por seguridad está prohibido el acceso con mochilas, bolsos o carteras grandes, paraguas, comida, etc. que deberán depositarse en taquilla  No está permitido el uso de los teléfonos móviles  Una silla de ruedas y un ascensor están a disposición del visitante que los solicite  Se permiten tomas fotográficas con cámara o videocámara pequeña sin flash ni trípode   La Academia no tiene cafetería. La entrada con fecha del día es válida hasta 15 minutos antes del cierre;1;http://www.madrid.es/sites/v/index.jsp?vgnextchannel=9e4c43db40317010VgnVCM100000dc0ca8c0RCRD&vgnextoid=924aef4d7f71c010VgnVCM1000000b205a0aRCRD;ALCALA;CALLE;V;13;;;;;MADRID;MADRID;28014;SOL;CENTRO;440558;4474350;40.41765456;-3.700655352;"915 240 864 (Centralita)                                                    
";915 241 034;museo@rabasf.org;/contenido/entidadesYorganismos/MonumentosEdificiosArtisticos;Mueso
2066;Museo del Ferrocarril de Madrid;Edificio de caracter monumental. Construido como cabecera de la línea Madrid - Extremadura - Portugal en el año 1880 por E. Cachelievre.;Del 1 de enero al 31 de mayo y del 1 de octubre al 31 de diciembre:    Lunes a viernes, de 9:30 a 15 horas.  Sábado, domingo y festivos de 10 a 19 horas    Del 1 de junio al 30 de septiembre   Lunes a domingo, de 10 a 15 horas.   Cerrado: 25 de diciembre, 1 y 6 de enero.;Tienda  Teatro  Librería  Cafetería  Archivo y Biblioteca  Parque ferroviario  Salas de Tracción, de Modelismo Ferroviario, de Infraestructura y de Relojes    Actividades    Tren de jardín:  todos los domingos, de 11.30 a 14 horas (excepto julio y agosto).    Teatro familiar:  sábados, domingos y festivos, a las 13 horas (excepto julio y agosto)   Feria de coleccionismo 'La Estación' : primer sábado de cada mes (excepto agosto), de 10 a 19 horas. Junio y julio de 10 a 15 horas.   Mercadillo de Modelismo : primer domingo de cada mes, de 10 a 15 horas (excepto agosto).   Mercado de Motores : segundo sábado y domingo del mes, de 11 a 21 horas (excepto agosto). El Museo cierra en su actividad ordinaria y el acceso es gratuito.;Metro: Delicias (línea 3)  Bus: 8, 19, 45, 47, 59, 85, 86  Renfe: Delicias;;1;http://www.madrid.es/sites/v/index.jsp?vgnextchannel=9e4c43db40317010VgnVCM100000dc0ca8c0RCRD&vgnextoid=091c4291ae91f010VgnVCM2000000c205a0aRCRD;DELICIAS;PASEO;V;61;;;;;MADRID;MADRID;28045;DELICIAS;ARGANZUELA;441124;4472418;40.40028129;-3.693817192;"915 390 085                                                                                
";;;/contenido/entidadesYorganismos/MonumentosEdificiosArtisticos;Mueso
2058;Museo del Prado;Construido inicialmente como Museo de Ciencias Naturales, este edificio neoclásico fue transformado en pinacoteca de las Colecciones Reales en 1818 con colecciones de pintura, dibujos, grabados, monedas y medallas desde el Románico hasta el siglo  XIX .;De lunes a sábado de 10 a 20 horas  Domingos y festivos de 10 a 19 horas  Cerrado los días 1 de enero, 1 de mayo y 25 de diciembre  Horario reducido, de 10 a 14 horas, los días 6 de enero, 24 y 31 de diciembre  Horario gratuito, de lunes a sábado de 18 a 20 horas y domingos y festivos de 17 a 19 horas;Accesible a personas con discapacidad física  Audioguías temáticas y audioguía infantil  Itinerarios y visitas didácticas  Librería  Tienda  Cafetería  Restaurante  Guardarropa;Metro: Atocha (línea 1), Banco de España (línea 2), Retiro (línea 2)  Bus: 9, 10, 14, 19, 27, 34, 37, 45  Renfe: Atocha;Arquitecto : Juan de Villanueva (1785 - 1808)   Adecuación : Antonio López Aguado (1818 - 1831)   Ampliación : Rafael Moneo (2000 - 2007);1;http://www.madrid.es/sites/v/index.jsp?vgnextchannel=9e4c43db40317010VgnVCM100000dc0ca8c0RCRD&vgnextoid=060079262ef5d010VgnVCM1000000b205a0aRCRD;RUIZ DE ALARCON;CALLE;V;23;;;;;MADRID;MADRID;28014;LOS JERONIMOS;RETIRO;441346;4473892;40.41358458;-3.691325446;913 302 800;;;/contenido/entidadesYorganismos/Museos;Mueso
2086;Museo del Reloj Grassy;Arquitecto : Eladio Laredo Carranza (1916 - 1917).  Fundado por el relojero francés Grassy en 1955, este museo narra la historia de este aparato de medición. Sus fondos, colección privada, consta de una amplia y variada colección de diferentes nacionalidades y los más variados estilos.;Jueves a las 17:30 y viernes a las 11:45 horas (excepto festivos).  Las visitas se efectúan con cita previa en el teléfono 915 321 007;;Metro: Banco de España (línea 2), Gran Vía (Líneas 1 y 5).  Bus: 1, 2, 3, 5, 9, 15, 20, 46, 51, 52, 53, 74, 146, 150, M1, M2.;;0;http://www.madrid.es/sites/v/index.jsp?vgnextchannel=9e4c43db40317010VgnVCM100000dc0ca8c0RCRD&vgnextoid=daeaef4d7f71c010VgnVCM1000000b205a0aRCRD;GRAN VIA;CALLE;V;1;;;;;MADRID;MADRID;28013;CORTES;CENTRO;440779;4474514;40.41914771;-3.698065832;915 321 007;;;/contenido/entidadesYorganismos/Museos;Mueso
2059;Museo del Romanticismo;;Horario de invierno  (de noviembre a abril)  De martes a sábado: de 9:30 a 18:30. Domingos y festivos: de 10 a 15 horas   Horario de verano  (de mayo a octubre)  De martes a sábado: de 9:30 a 20:30. Domingos y festivos: de 10 a 15 horas   Cerrado:  Todos los lunes, 1 y 6 de enero, 1 de mayo, 24, 25 y 31 de diciembre.;Acceso para personas de movilidad reducida, Audioguías con audiodescripción, Signoguías, Magnificadores, Bucle magnético;Metro: Tribunal (líneas 1, 10), Alonso Martínez (líneas 4, 5, 10)  Bus: 3, 37  Renfe: Recoletos;Descripción monumental   Construido para casa palacio del Marqués de Montallana por el discípulo de Ventura Rodríguez, Manuel Martín Rodríguez, dentro de unas líneas clasicistas, tiene algunas leves reminiscencias del barroco, como las molduras en forma de orejeras en los balcones. Las estancias nobles se organizan en torno a dos patios cuadrados. Conserva un interesante jardín romántico.  En 1850 fue comprado por el Marqués de la Puebla de Maestre. Tras albergar la Comisaría Regia de Turismo. En 1924 se convirtió en Museo Romántico y desde entonces ha sido restaurado e intervenido en diversas ocasiones con motivo de su funcionamiento como museo.  Tras nueve años cerrado ha sido reformado y puesto a punto, en aplicación de un plan museológico consistente en su renovación, ampliando su ámbito expresivo desde lo meramente literario hasta lo histórico, político, artístico y decorativo, para dar una visión de conjunto de esta etapa de la vida española.  Muestra la ambientación de una casa romántica. Posee obras de los pintores más importantes del siglo  XIX  (Goya, Madrazo y otros) junto a esculturas, muebles, porcelanas, abanicos y todo tipo de complementos decorativos que nos recuerdan la forma de vida de una familia burguesa del siglo  XIX .;0;http://www.madrid.es/sites/v/index.jsp?vgnextchannel=9e4c43db40317010VgnVCM100000dc0ca8c0RCRD&vgnextoid=706cef4d7f71c010VgnVCM1000000b205a0aRCRD;SAN MATEO;CALLE;V;13;;;;;MADRID;MADRID;28004;JUSTICIA;CENTRO;440834;4475467;40.4258551;-3.698783543;914 481 045 / 914 480 163;914 456 940;informacion.romanticismo@mecd.es;/contenido/entidadesYorganismos/Museos;Mueso
6337393;Museo del Seguro. Fundación Mapfre;Ubicado en el edificio de Fundación MAPFRE exhibe una amplia colección de piezas relacionadas con la historia de la actividad aseguradora desde el siglo  XVIII  hasta nuestros días. Ofrece visitas guiadas y gratuitas para grupos.;De lunes a viernes previa petición de hora.;;Metro: Colón (línea 4)  Bus: 5, 14, 21, 27, 37, 45, 53, 150  Renfe: Recoletos (Líneas C1, C2, C7, C8, C10);;3;http://www.madrid.es/sites/v/index.jsp?vgnextchannel=9e4c43db40317010VgnVCM100000dc0ca8c0RCRD&vgnextoid=479b95f8c72d5310VgnVCM2000000c205a0aRCRD;BARBARA DE BRAGANZA;CALLE;V;14;;;;;MADRID;MADRID;28004;JUSTICIA;CENTRO;441273;4474967;40.42326356;-3.692285059;"916 025 221 (para reservas)                                      
";;;/contenido/entidadesYorganismos/Museos;Mueso
2115;Museo del Traje. Centro de Investigación del Patrimonio Etnológico (CIPE);Edificio de carácter monumental, construido por Jaime López de Asiaín en 1969. Su objetivo básico es promover el conocimiento de la evolución histórica de la indumentaria y de los testimonios del patrimonio etnológico representativos de las culturas de los pueblos de España.;De martes a sábado de 9:30 a 19 horas. Domingos y festivos de 10 a 15 horas.  Verano (julio y agosto): los jueves se amplia el horario de 9: 30 a 22:30 horas.  Cerrado: todos los lunes, 1 y 6 de enero, 1 y 15 de mayo, 9 de noviembre, 24, 25 y 31 de diciembre.;Visitas guiadas para grupos: consultar en la web del museo.  Más información e inscripciones en el teléfono  915 504 708  (de lunes a viernes de 10 a 15 horas) o por email en  difusion.reservas.mt@mecd.es;Metro: Ciudad Universitaria (línea 6)  Bus: 46, 82, 83, 132, 133, 160, 161, 162, G, U;;1;http://www.madrid.es/sites/v/index.jsp?vgnextchannel=9e4c43db40317010VgnVCM100000dc0ca8c0RCRD&vgnextoid=053c4291ae91f010VgnVCM2000000c205a0aRCRD;JUAN DE HERRERA;AVENIDA;V;2;;;;;MADRID;MADRID;28040;CIUDAD UNIVERSITARIA;MONCLOA-ARAVACA;438382;4477019;40.43965782;-3.727837856;915 504 700 ;;;/contenido/entidadesYorganismos/Museos;Mueso
2061;Palacio Real de El Pardo;Recinto en el que se conserva el Palacio, construido sobre el castillo del siglo  XV , la Casita del Príncipe, del siglo  XVIII  y la Quinta del Duque de Arco (Palacete que fue Casa de Labor y sus tierras). Desde 1983 ha sido adecuado para residencia de Jefes de Estado extranjeros en visita oficial.;Horario    De octubre a marzo: todos los días de 10 a 18 horas   De abril a septiembre: todos los días de 10 a 20 horas    Cierre taquillas y acceso a Palacio una hora antes;;Bus: 601 (Madrid - Colonia Mingorrubio);Días de cierre 2018    1 de enero: cerrado en jornada completa  6 de enero: cerrado en jornada completa  8 de abril: cierre a partir de las 15 horas  Del 9 al 19 de abril, ambos inclusive: cerrado en jornada completa  Del 27 de abril al 4 de mayo, ambos inclusive: cerrado en jornada completa  1 de mayo: cerrado en jornada completa  Del 24 al 27 de septiembre de 2018, permanecerá cerrado en jornada completa  24 de diciembre: cerrado en jornada completa  25 de diciembre: cerrado en jornada completa  31 de diciembre: cerrado en jornada completa  Además de los cierres ya previstos, puede haber cierres adicionales motivados también por la celebración de actos oficiales    Servicio de reserva y venta de entradas    Teléfono de venta y reserva: 902 044 454   Página web;1;http://www.madrid.es/sites/v/index.jsp?vgnextchannel=9e4c43db40317010VgnVCM100000dc0ca8c0RCRD&vgnextoid=9f9def4d7f71c010VgnVCM1000000b205a0aRCRD;MANUEL ALONSO;CALLE;V;8;;;;;MADRID;MADRID;28048;EL PARDO;FUENCARRAL-EL PARDO;434247;4485823;40.52052234;-3.776239061;914 548 700 (Información general);;info@patrimonionacional.es;/contenido/entidadesYorganismos/MonumentosEdificiosArtisticos;Mueso
2062;Palacio Real de Madrid;Construido sobre el solar del antiguo Alcázar tras un incendio en 1734. Proyectado por Juvara en 1735 y construido por Sachet de 1738 a 1764 bajo las influencias del clasicismo barroco. A partir de 1770, Sabatini añadió el ala sudeste y realizó la gran escalera. Es de destacar el gran patio que articula el edificio y la fachada principal que aloja el balcón y Escudo Real.;Horario    De octubre a marzo: de 10 a 18 horas  De abril a septiembre: de 10 a 20 horas  Cierre taquillas y acceso a Palacio una hora antes;Relevo solemne de la Guardia en el Palacio Real de Madrid   La Guardia Real realiza este relevo una vez al mes. El acto tiene una duración aproximada de 50 minutos, comienza a las 12 horas de la mañana los primeros miércoles de cada mes, exceptuando los de los meses de enero, agosto y septiembre, siempre y cuando los actos oficiales lo permitan. La entrada es libre y gratuita por la Puerta de Santiago, que da acceso a la Plaza de la Armería desde la calle Bailén. Como colofón al acto, la Unidad de Música suele interpretar un concierto en la lonja de la Puerta del Príncipe (calle Bailén).   Relevo de la Guardia en la Puerta del Príncipe del Palacio Real de Madrid   El acto se lleva a cabo todos los miércoles y sábados del mes, desde las 11 hasta las 14 horas, exceptuando del 17 de junio al 15 de septiembre que será desde las 10 hasta las 12 horas, siempre y cuando los actos oficiales o la climatología lo permitan.;Metro: Ópera (líneas 2, 5 y Ramal Ópera Norte)  Bus: 3, 25, 39, 148  Cercanías: Príncipe Pío;"Días de cierre para 2018    Octubre de 2018.     Día 6 cerrado hasta las 14 horas. C.R.V.: cerrado duración del Acto;Día 10 Salones Oficiales: cerrado todo el día; Real Armería y Real Cocina: abierto en su horario habitual, con tarifa de apertura parcial y específica, respectivamente. C.R.V.: abierto en su horario habitual;   Día 11: Salones Oficiales: cerrado todo el día; Real Armería y Real Cocina: abierto en su horario habitual, con tarifa de apertura parcial y específica, respectivamente. C.R.V.: abierto en su horario habitual;   Día 12:  cerrado en jornada completa; (una vez finalizado el Acto, posibilidad de apertura de la Real Armería y del C.R.V.). Pendiente de confirmación.    Día 23: Salones Oficiales: cerrado todo el día; Real Armería y Real Cocina: abierto en su horario habitual, con tarifa de apertura parcial y específica, respectivamente. C.R.V.: abierto en su horario habitual;    Día 24: cerrado en jornada completa; C.R.V.: cerrado duración del Acto;   24 de diciembre: cerrado a partir de las 15 horas  25 de diciembre: cerrado en jornada completa  31 de diciembre: cerrado a partir de las 15 horas   Además de los cierres ya previstos, puede haber cierres adicionales motivados también por la celebración de actos oficiales.";1;http://www.madrid.es/sites/v/index.jsp?vgnextchannel=9e4c43db40317010VgnVCM100000dc0ca8c0RCRD&vgnextoid=47ddef4d7f71c010VgnVCM1000000b205a0aRCRD;BAILEN;CALLE;V;0;;;;;MADRID;MADRID;28013;PALACIO;CENTRO;439540;4474703;40.42075213;-3.712699107;914 548 700 (Información general);;info@patrimonionacional.es;/contenido/entidadesYorganismos/MonumentosEdificiosArtisticos;Mueso
2063;Palacio de Liria;Construído por Ventura Rodríguez entre 1762 y 1780 para el tercer Duque de Berwick y de Liria. De estilo barroco clásico. Destaca su fachada con columnas jónicas y pilastras que descansan sobre un basamento almohadillado.;Las visitas:  viernes a las 10, 11 y 12 horas . Cada turno estará formado por un máximo de 15 personas.;;Metro: Ventura Rodríguez (línea 3)  Bus: 1, 2, 44, 74, 133, C;Para realizar dichas visitas deberán solicitarlo por escrito y enviarlo a través de cualquiera de las siguientes opciones:   Rellenando un formulario en :  http://www.fundacioncasadealba.com/visitas-al-palacio-de-liria-de-madrid.php   Enviando un e-mail a visitas@fundacioncasadealba.com, indicando nombre, teléfono y número de personas.  Enviando un fax al número +0034 915 410 377, indicando nombre, teléfono y número de personas.  Enviando una carta a la siguiente dirección: Fundación Casa de Alba. C/ Princesa 20. 28008 Madrid  Llamando al siguiente número de teléfono: +0034 915 481 550    Horario:  Cada año, el palacio de Liria permanece cerrado al público desde mediados de junio hasta el primer viernes de octubre, y desde mediados de diciembre a mediados de enero, debido a las tareas de mantenimiento y conservación del mismo.;1;http://www.madrid.es/sites/v/index.jsp?vgnextchannel=9e4c43db40317010VgnVCM100000dc0ca8c0RCRD&vgnextoid=22bdef4d7f71c010VgnVCM1000000b205a0aRCRD;PRINCESA;CALLE;V;20;;;;;MADRID;MADRID;28008;UNIVERSIDAD;CENTRO;439663;4475582;40.42680682;-3.712597973;915 475 302 / 915 481 550;915 410 377;info@fundacioncasadealba.com;/contenido/entidadesYorganismos/MonumentosEdificiosArtisticos;Mueso
2079;Panteón de Hombres Ilustres;La construcción de este edificio responde a dos de las constantes de fines de siglo: la arquitectura historicista y la escultura funeraria. En él reposan trece personajes ilustres de la historia política y militar española.;De martes a sábado de 10 a 14 y de 16 a 18:30 horas  Domingos y festivos de 10 a 15 horas. Lunes cerrado  Cerrado todos los lunes del año;;Metro: Atocha (línea 1)  Bus: 10, 14, 24, 32, 37, 54, 57, 141  Renfe: Atocha;Cierres por acto oficial o festividad en el municipio:    1 de enero: Cerrado en jornada completa  6 de enero: Cerrado en jornada completa    Días de horario reducido o apertura parcial    31 de diciembre: Abierto de 10:00 a 15:00 horas (último acceso a las 14:30);0;http://www.madrid.es/sites/v/index.jsp?vgnextchannel=9e4c43db40317010VgnVCM100000dc0ca8c0RCRD&vgnextoid=361cef4d7f71c010VgnVCM1000000b205a0aRCRD;JULIAN GAYARRE;CALLE;V;3;;;;;MADRID;MADRID;28014;PACIFICO;RETIRO;442121;4473278;40.40622618;-3.683413042;914 548 700 (Información general);;info@patrimonionacional.es;/contenido/entidadesYorganismos/MonumentosEdificiosArtisticos;Mueso
3362;Parroquia Santa Cruz;;;;Metro: Sol (líneas 1, 2, 3), Tirso de Molina (línea 1)  Bus: 50. 6, 26, 32, 65, 18, 23, 17, M1  Renfe: Sol;;3;http://www.madrid.es/sites/v/index.jsp?vgnextchannel=9e4c43db40317010VgnVCM100000dc0ca8c0RCRD&vgnextoid=40e0b069a541f010VgnVCM1000000b205a0aRCRD;ATOCHA;CALLE;V;6;;;;;MADRID;MADRID;28012;SOL;CENTRO;440165;4474015;40.41460856;-3.705255882;913 691 239;;parroquiadesantacruz@hotmail.com / santacruz@archimadrid.es;/contenido/entidadesYorganismos/MonumentosEdificiosArtisticos;Mueso
2213;Planetario de Madrid;"Inaugurado el 29 de septiembre de 1986, es un centro dependiente del Área de Cultura y Deportes del Ayuntamiento de Madrid. Durante los años 2016/2017 fue sometido a una profunda renovación tanto tecnológica como de las instalaciones y edificio, posible en virtud de un acuerdo de colaboración entre el Ayuntamiento de Madrid y la Obra Social &ldquo;la Caixa&rdquo; &ndash; que incluye dotación de contenidos, renovación de exposiciones y la realización de actividades varias en el campo de la divulgación científica.  Siempre con el fin de contribuir a la difusión de la astronomía y de la ciencia en general, tanto entre escolares como entre el público de cualquier edad y condición, posee una variada oferta de   proyecciones  audiovisuales,  exposiciones  y  actividades  (talleres, cursos, conferencias, observaciones públicas...)  Las proyecciones que se ofrecen en el Planetario de Madrid se renuevan periódicamente, y tienen una duración aproximada de 30 minutos.  Existen dos programaciones básicas diferentes: una activa durante el verano y época de vacaciones escolares, y otra durante el curso escolar. Durante el curso escolar, las proyecciones de las mañanas de los días lectivos se reservan a escolares.";Horario del centro . De martes a viernes, de 9:30 a 13:45 horas (reservadas a escolares) y de 17 a 19:45 horas. Fin de semana y festivo, de 11 a 13:45 horas y de 17 a 20:45 horas.   Horario de verano (ver aviso).     Cerrado:  Todos los  lunes  del año. El día  1,  la  tarde  del  5  y la  mañana  del  6  de  enero . El   día  1  de  mayo . Días  24, 25  y  31  de  diciembre.;Sala de Proyección. Planta Calle. Para acceder a ella es necesario adquirir una entrada.    Cuatro áreas expositivas de acceso gratuito, distribuidas en dos plantas:    Sala de Astrónomos. Planta Baja.  Vestíbulo de la Planta Baja.  Vestíbulo de la Planta Calle.  Zona Audiovisual con Pantalla de Retroproyección. Planta Calle.       Sala de Video. Planta Baja. En donde se desarrollan los talleres ofertados.;Metro: Méndez Álvaro (línea 6)  Bus: 148, 156;;1;http://www.madrid.es/sites/v/index.jsp?vgnextchannel=9e4c43db40317010VgnVCM100000dc0ca8c0RCRD&vgnextoid=c9c5b069a541f010VgnVCM1000000b205a0aRCRD;PLANETARIO;AVENIDA;V;16;;;;;MADRID;MADRID;28045;LEGAZPI;ARGANZUELA;441868;4471523;40.39228;-3.684956957;"914 673 461 (reserva grupos)                                                                                                                                                                                                                                                                                                                                                                                                                                               
914 673 898 (contestador automático de información)";;buzon@planetmad.es;/contenido/entidadesYorganismos/Planetarios;Mueso
3359;Real Basílica San Francisco el Grande;Conjunto conventual que sustituyó al monasterio franciscano medieval, construido por Francisco de las Cabezas entre 1761 y 1768, que fue relevado por Antonio Polo y que concluye Francisco Sabatini en 1784 donde se exponen colecciones de pinturas de los siglos  XVII  al  XIX.;Museo:     De martes a viernes de 10:30 a 12:30 y de 16 a 18 horas  Sábados de 10:30 a 12:30 y de 16 a 18 horas (si no se ofician actos religiosos).  Julio, agosto y septiembre: de martes a domingo de 10:30 a 12:30 y de 17 a 19 horas.;;Metro: La Latina (línea 5) , Puerta de Toledo (línea 5)  Bus:  3, 17, 18, 23, 31, 35, 36, 41, 50, 60, 65, 148, 749, C1, C2;;3;http://www.madrid.es/sites/v/index.jsp?vgnextchannel=9e4c43db40317010VgnVCM100000dc0ca8c0RCRD&vgnextoid=ef8d0713fb71c010VgnVCM1000000b205a0aRCRD;SAN BUENAVENTURA;CALLE;V;1;;;;;MADRID;MADRID;28005;PALACIO;CENTRO;439377;4473603;40.41084005;-3.714503846;913 653 800 ;;;/contenido/entidadesYorganismos/MonumentosEdificiosArtisticos;Mueso
2087;Real Fábrica de Tapices;;De lunes a viernes de 10 a 14 horas. Todo visitas guiadas (La última visita comienza a las 13 horas), es conveniente reservar por teléfono o por email.  Cerrado: sábados, domingos, festivos, Semana Santa y agosto.;Aforo 25 personas;Metro: Menéndez Pelayo (línea 1)  Bus: 10, 14, 26, 32, C;La entrada principal no es accesible para personas con movilidad reducida, pero si avisan con tiempo se les asiste para que puedan acceder con sillas de ruedas o andarines por la calle Fuenterrabía número 2.;3;http://www.madrid.es/sites/v/index.jsp?vgnextchannel=9e4c43db40317010VgnVCM100000dc0ca8c0RCRD&vgnextoid=53cbff632081c010VgnVCM1000000b205a0aRCRD;FUENTERRABIA;CALLE;V;2;;;;;MADRID;MADRID;28014;PACIFICO;RETIRO;442087;4473054;40.40608733;-3.68251597;914 340 550;;informacion@realfabricadetapices.com;/contenido/entidadesYorganismos/MonumentosEdificiosArtisticos;Mueso
4707297;Real Monasterio de Santa Isabel;El Real Monasterio de Santa Isabel está situado en Madrid, dentro de la ciudad histórica, en una gran manzana, próxima a Atocha.  Santa Isabel agrupa dos fundaciones, un colegio de niñas, establecido por Felipe  II , y un convento de clausura de monjas agustinas recoletas, fundado por la esposa de Felipe  III , doña Margarita de Austria.  La arquitectura de la iglesia se debe a Gómez de Mora, de mediados del siglo  XVIII . En la clausura se conservan numerosas obras pictóricas de los siglos  XVII  y  XVIII .;El acceso al templo sólo es posible en horario de culto.;;Metro: Atocha (línea 1)  Bus: 6, 19, 26, 27, 32, 34, 45, 59, 85, 86, C1, E1  Renfe: Atocha;;0;http://www.madrid.es/sites/v/index.jsp?vgnextchannel=9e4c43db40317010VgnVCM100000dc0ca8c0RCRD&vgnextoid=545b544a249c6110VgnVCM1000000b205a0aRCRD;SANTA ISABEL;CALLE;V;48;;;;;MADRID;MADRID;28012;EMBAJADORES;CENTRO;440655;4473736;40.41213027;-3.699454794;914 548 700 (Información general);;info@patrimonionacional.es;/contenido/entidadesYorganismos/MonumentosEdificiosArtisticos;Mueso
3349;Real Monasterio de la Encarnación;Edificio construído por Juan Gómez de Mora de 1611 a 1616 como monasterio anejo al Alcázar Real, modelo de lo que se ha dado en llamar barroco madrileño. Cuenta con la reliquia de San Pantaleón.;De martes a sábado: de 10 a 14 horas y de 16 a 18:30 horas  Domingos y festivos: de 10 a 15 horas. Tardes cerrado  Cierre taquillas y acceso 45 minutos antes  Cerrado todos los lunes del año;;Metro:  Ópera (líneas 2, 5 y Ramal Ópera Príncipe Pío), Plaza de España (líneas 3, 10)  Bus:  1, 2, 3, 25, 39, 44, 46, 74, 75, 133, 138, 147, 148, C1, C2;;0;http://www.madrid.es/sites/v/index.jsp?vgnextchannel=9e4c43db40317010VgnVCM100000dc0ca8c0RCRD&vgnextoid=72ad0713fb71c010VgnVCM1000000b205a0aRCRD;ENCARNACION;PLAZA;V;1;;;;;MADRID;MADRID;28013;PALACIO;CENTRO;439634;4474582;40.41967801;-3.711567963;914 548 700 (Información general);;info@patrimonionacional.es;/contenido/entidadesYorganismos/MonumentosEdificiosArtisticos;Mueso
20605;Templo de Debod;Templo egipcio dedicado a Amón de Debod y a Isis, construido entre 185  a. de C.  y el siglo  I  de la Era. Fue donado por Egipto a España en 1968, en agradecimiento por la ayuda en el salvamento de los templos de Abu Simbel.;De martes a domingos y festivos: de 10 a 20 horas.   Cerrado los lunes y los días 1 y 6 de enero, 1 de mayo, 24, 25 y 31 de diciembre.   Último pase de visita 15 minutos antes del cierre.  Este horario y la apertura de salas pueden sufrir modificaciones, por favor, confírmelo en el teléfono de información del museo.;Actividades didácticas: talleres para grupos escolares, talleres de profesores, talleres para familias.  Obtención de información sobre sus fondos y colecciones con fines de investigación, enseñanza o difusión.   Se pueden realizar fotografías o grabaciones de vídeo libremente en el exterior o en el interior del templo, siempre y cuando no se utilicen flash o trípode y su fin no sea comercial.  Para la obtención de reproducciones de fotografías del archivo del templo de Debod con fines editoriales, de investigación, difusión o comerciales el interesado deberá cumplimentar la solicitud de Reproducciones Fotográficas y enviarla por correo electrónico al Servicio de Documentación del templo de Debod.  La realización de reportajes fotográficos y grabaciones profesionales en el recinto del templo de Debod (estanque delantero, plataformas y edificio) sólo será autorizada cuando los fines para los que se solicita sean la divulgación y difusión cultural del monumento o de las actividades museísticas que en él se desarrollen. Cualquier otra finalidad, gratuita o comercial, será desestimada.;"Metro:  Plaza de España (líneas 3 y 10) y Ventura Rodríguez (línea 3)   Bus:  1, 2, 3, 25, 39, 44, 46, 74, 75, 133, 138, 148, C1 y C2   Renfe:  Príncipe Pío    Bus turístico:  Ruta 1. PARADA 10 - Templo de Debod   Otras formas de acceso:    Aparcamiento de coches: dentro del Área de Estacionamiento Regulado de la ciudad de Madrid.   BiciMAD (Servicio público de bicicletas de la ciudad de Madrid): Estación en calle Evaristo San Miguel s/n. (entre P&ordm;.  Pintor Rosales y calle Ferraz)";"El templo de Debod no cuenta en la actualidad con accesos adaptados a personas con movilidad reducida y la circulación en su interior es igualmente difícil.  El templo es un monumento histórico de una antig&uuml;edad de 2.200 años. Su estructura interna, que constituye el espacio de actual de exposición, está formada por distintas salas de dimensiones reducidas, con vanos estrechos y numerosas barreras, que responden a los fines y necesidades de los cultos religiosos que en él tuvieron lugar, pero que imposibilitan la circulación con sillas de ruedas convencionales.   La legislación sobre accesibilidad vigente en nuestra Comunidad (Ley 8/1993 de 22 de Junio de Promoción de la Accesibilidad y Supresión de Barreras Arquitectónicas), en su disposición adicional 7&ordf;, exime de su aplicación en los inmuebles declarados Bien de Interés Cultural o en aquellos edificios de valor histórico-artístico. No obstante, se está trabajando en hacer accesibles las plataformas en las que se levanta el templo y sus dos portales.";0;http://www.madrid.es/sites/v/index.jsp?vgnextchannel=9e4c43db40317010VgnVCM100000dc0ca8c0RCRD&vgnextoid=13b432df1d51c010VgnVCM2000000c205a0aRCRD;FERRAZ;CALLE;V;1;;;;;MADRID;MADRID;28008;CASA DE CAMPO;MONCLOA-ARAVACA;439218;4475093;40.42425097;-3.716531856;913 667 415 (Museo de San Isidro / Templo de Debod);;templodebod@madrid.es;/contenido/entidadesYorganismos/MonumentosEdificiosArtisticos;Mueso
7685664;The Robot Museum (Museo del Robot);El Museo del Robot  acerca de forma directa y real el mundo de los robots de entretenimiento a cualquier tipo de público.;Martes a viernes: 13, 17 y 20 horas  Sábados: 16:15, 17:15, 18:15, 19:15 y 20:15 horas  Lunes y domingos cerrado   Reservas online:  http://www.therobotmuseum.eu/reservar-online/;Exposición permanente  Visitas guiadas;"Metro: San Bernardo (líneas 2, 4), Quevedo (líneas 2), Arg&uuml;elles (líneas 3, 4, 6), Bilbao (líneas 1, 4)  Bus: 3, 21, 127, M2";;3;http://www.madrid.es/sites/v/index.jsp?vgnextchannel=9e4c43db40317010VgnVCM100000dc0ca8c0RCRD&vgnextoid=e0b7b8dc8f719410VgnVCM1000000b205a0aRCRD;ALBERTO AGUILERA;CALLE;V;1;BAJA;;;;MADRID;MADRID;28015;UNIVERSIDAD;CENTRO;440041;4475669;40.42949061;-3.706873182;914 478 808;;;/contenido/entidadesYorganismos/Museos;Mueso
7071384;Yacimiento paleontológico. Estación de Metro Carpetana;;Visitas todos los días durante la apertura de la estación, de 6 a 1:30 horas (excepto los accesos con horario especial).;;;Yacimiento paleontológico en la estación de Carpetana    Durante las obras de remodelación de la estación de Carpetana se descubrieron restos paleontológicos con valiosos hallazgos del mioceno lo que ha hecho posible una reconstrucción de los paleoambientes en dos yacimientos verticales.   El primero de los espacios, cuenta con un panel en vinilo con imágenes que representan el paleoambiente existente hace más de 15 millones de años con restos mayoritariamente correspondientes a mastodontes de la especie Gonphotherium aungustidens. Además, en esta misma zona expositiva, se ha incluido una reconstrucción de un ciervo denominado Heteroprox con los ambientes y especies vegetales existentes entonces en Carpetana, ya que se han podido conocer gracias a los fósiles de polen y animales recuperados en la excavación.   El segundo espacio recrea el paleoambiente de hace aproximadamente 14 millones de años, y se encuentran representados algunas faunas halladas en las excavaciones como el oso - perro, el oso - lobo, un felino situado en la parte superior de un árbol, una tortuga gigante, rinocerontes y un jabalí.;1;http://www.madrid.es/sites/v/index.jsp?vgnextchannel=9e4c43db40317010VgnVCM100000dc0ca8c0RCRD&vgnextoid=05fbb57fd3c70410VgnVCM1000000b205a0aRCRD;VIA CARPETANA;CALLE;V;328;;;;;MADRID;MADRID;28047;ALUCHE;LATINA;436952;4471478;40.39150793;-3.742883929;902 444 403 (Información);;;/contenido/entidadesYorganismos/Museos;Mueso
13947;Banco de España;El Banco de España es el banco central nacional y el supervisor del sistema bancario español. Su actividad está regulada por la Ley de Autonomía del Banco de España.;De lunes a viernes: 8.30 a 14.00 h   Sábados, domingos y festivos: cerrado;Algunos servicios se encuentran ubicados en:   C/  Alcalá, 522  28027 Madrid  Servicios al público:   Operaciones de canje de pesetas por euros.  Recogida de billetes y monedas falsos.  Canje de billetes deteriorados.  Suscripción de deuda pública.  Solicitud de información de la Central de Información de Riesgos (CIR).  Presentación, ante el Departamento de Conducta de Mercado y Reclamaciones, de quejas y consultas relativas a los servicios bancarios que prestan las entidades de crédito.;Metro: Banco de España (línea 2)  Bus: 1, 2, 9, 10, 15, 20, 34, 51, 52, 53, 74, 146, 202, 203;;3;http://www.madrid.es/sites/v/index.jsp?vgnextchannel=9e4c43db40317010VgnVCM100000dc0ca8c0RCRD&vgnextoid=487d995a8bf5d010VgnVCM2000000c205a0aRCRD;ALCALA;CALLE;V;48;;;;;MADRID;MADRID;28014;CORTES;CENTRO;441054;4474478;40.41883392;-3.694821075;913 385 000 (centralita);;;/contenido/entidadesYorganismos/MonumentosEdificiosArtisticos;Monumento
3371;Basílica Pontificia de San Miguel;;;;Metro: Sol (líneas 1, 2 y 3), Tirso de Molina (línea 1), La Latina (línea 5)  Renfe: Sol (líneas 3 y 4)  Bus: 3, 17, 18, 23, 31, 35, 50, 65, 148;;3;http://www.madrid.es/sites/v/index.jsp?vgnextchannel=9e4c43db40317010VgnVCM100000dc0ca8c0RCRD&vgnextoid=9c383d232e91f010VgnVCM1000000b205a0aRCRD;SAN JUSTO;CALLE;V;4;;;;;MADRID;MADRID;28005;PALACIO;CENTRO;439790;4473973;40.41420316;-3.709671591;915 484 011;;;/contenido/entidadesYorganismos/MonumentosEdificiosArtisticos;Monumento
1744;Biblioteca Nacional de España;Fundada por Felipe V en 1712 como Biblioteca Pública de Palacio. En 1836 dejó de ser propiedad de la Corona y pasó a depender del Ministerio de la Gobernación y recibió por primera vez el nombre de Biblioteca Nacional y en 1896 se abrió al público.;Consultar pestaña ' Más información '.;;Metro: Colón, (línea 4), Retiro (Línea 2).  Bus: 1, 5, 9, 14, 19, 21, 27, 37, 45, 51, 53, 74, 150.  Cercanías Renfe: Recoletos (líneas C1, C2, C7, C8  y C10).;Horarios    Salas de lectura y servicios    De lunes a viernes, de 9 a 21 horas, excepto:  Salas Goya, Cervantes y Barbieri, de 9 a 20 horas.  Oficina de reprografía, de 9 a 19 horas.   Fotocopias al público, de 9 a 20 horas.  Préstamo interbibliotecario, de 9 a 14:30 horas.      Sábados, de 9 a 14 horas, excepto:  Sala Barbieri, cerrada.  Oficina de reprografía, cerrada.  Fotocopias al público de 9 a 13 horas.      Registro general y cartería    De lunes a jueves de 9 a 14:30 y de 15:30 a 17:30 horas.   Viernes de 9 a 15 horas.    Días de cierre en 2018 :   1 y 2 de enero.  5 de enero, abierto de 9 a 18 horas.  6 de enero.  29, 30 y 31 de marzo.  13, 14 y 15 de abril.  1 y 2 de mayo.  15 de mayo.  15 de agosto.  12 de octubre.  13 de octubre, abierto de 9 a 14 horas.  1 y 9 de noviembre.  10 de noviembre, abierto de 9 a 14 horas.  6, 8, 24, 25 y 31 de diciembre.;1;http://www.madrid.es/sites/v/index.jsp?vgnextchannel=9e4c43db40317010VgnVCM100000dc0ca8c0RCRD&vgnextoid=2b8d995a8bf5d010VgnVCM2000000c205a0aRCRD;RECOLETOS;PASEO;V;20;;;;;MADRID;MADRID;28001;RECOLETOS;SALAMANCA;441395;4474937;40.42300191;-3.690844234;"915 807 823 / 05 (Información) 915 807 800 (Centralita) 915 807 894 (Información sobre Exposiciones) 915 169 867 (Información sobre el Museo y actividades infantiles) 915 807 755 (Registro General y Cartería)                                                                                                
";;acceso@bne.es;/contenido/entidadesYorganismos/MonumentosEdificiosArtisticos;Monumento
14211;Bolsa de Madrid;Es el principal mercado de valores de España. Tiene su sede en el Palacio de la Bolsa de Madrid.   Visitas guiadas al Palacio de la Bolsa   Todos los días laborables, en horario de mañana, la Bolsa de Madrid abre sus puertas al público para que puedan recorrer el Palacio de la Bolsa. Todas las visitas son guiadas por personal de la Bolsa de Madrid, con objeto de poder aclarar las preguntas del público, ofreciendo así una visita dinámica y participativa.  La visita tiene una duración aproximada de 60 minutos.   Visitas individuales    Todos los Jueves a las 12 horas.  Reservas:  visitas@grupobme.es     Visitas de grupos    Centros de Bachiller (colegios, Institutos,  etc )  Otros grupos: profesionales, universidades, centros de formación profesional, asociaciones,  etc   Horario: Desde las 10 horas de lunes a viernes  Grupos de 30 personas como máximo  Edad mínima: 16 años;;;Metro: Banco de España (línea 2)  Bus: 1, 2, 5, 9, 10, 15, 20, 34;Descripción monumental:  diseñado por Enrique Repulles y Vargas en 1884-93. Edificio representativo de estilo neoclásico, en el que, aprovechando un solar irregular, se organiza perfectamente el complejo programa. Interesante sala de operaciones semicircular cubierta por una bóveda de hierro y cristal.;3;http://www.madrid.es/sites/v/index.jsp?vgnextchannel=9e4c43db40317010VgnVCM100000dc0ca8c0RCRD&vgnextoid=0a9d81eb5f51c010VgnVCM2000000c205a0aRCRD;LEALTAD;PLAZA;V;1;;;;Palacio de la Bolsa;MADRID;MADRID;28014;LOS JERONIMOS;RETIRO;441276;4474259;40.41688576;-3.692184323;917 095 000 / 915 891 184 (Protector del inversor);;infobolsamadrid@grupobme.es;/contenido/entidadesYorganismos/MonumentosEdificiosArtisticos;Monumento
1956;Casa de América;Antiguo Palacio de Linares, diseñado por Carlos Colubí en 1872.  De estilo rococó, destaca la escalera de mármol de Manuel Aníbal Álvarez y toda la decoración interior.;"Punto de información:    Lunes a viernes de 9 a 15 y de 16 a 20:30 horas.    Exposiciones (Salas Frida Khalo y Diego Rivera):    Lunes a viernes de 11 a 19:30 horas, sábados de 11 a 15 horas. Domingos cerrado.    Restaurante:    De 13:30 a 16 y de 20:30 a 0 horas. Cerrado domingos todo el día; lunes y martes noche en otoño e invierno.";Visitas guiadas:    Sábados y domingos, a las 11, 12 y 13 horas. Durante el mes de agosto no hay visitas.  Venta de entradas anticipadas en el Punto de información de Casa de América hasta media hora antes del cierre.    Exposiciones  (acceso por Marqués del Duero 2).   Restaurante  (acceso por Paseo Recoletos, 2).   Sala de cine.;Metro: Banco de España (línea 2)  Bus: 1, 2, 5, 9, 10, 14, 15, 20, 27, 34, 37, 45, 51, 52, 53, 74, 146, 150, 202.  Cercanías Renfe: Recoletos (líneas C1, C2, C7, C8, C10 y Regional).;;3;http://www.madrid.es/sites/v/index.jsp?vgnextchannel=9e4c43db40317010VgnVCM100000dc0ca8c0RCRD&vgnextoid=10f979262ef5d010VgnVCM1000000b205a0aRCRD;CIBELES;PLAZA;V;4;;;;;MADRID;MADRID;28014;RECOLETOS;SALAMANCA;441270;4474578;40.41975905;-3.692284496;915 954 800 (información) ;;;/contenido/entidadesYorganismos/Consorcios;Monumento
20363;Casa de Cisneros;Es uno de los pocos palacios renacentistas del siglo XVI conservados en Madrid, aunque con muchas modificaciones.;;;Metro: Sol (líneas 1, 2, 3), Ópera (líneas R, 2, 5)  Bus: 3, 5, 20, 25, 33, 39, 50, 51, 52, 53, 150;Descripción monumental   Casa-palacio mandada construir por Don Benito Jiménez de Cisneros, sobrino del Cardenal Cisneros, en 1537. Posiblemente fue encargada al alarife de la Villa, Miguel de Hita, que utilizó el solar de su antigua casa y el resto de los solares de la manzana que había adquirido, como consta en un documento de la época.   Forma parte del conjunto de la Plaza de la Villa. Después de la Guerra Civil Felipe Trigo hizo otra reforma interior. Destacan la escalera con azulejos de Talavera y el Salón de los Tapices.   Bibliografía : Arquitectura de Madrid.- Madrid: Fundación COAM, 2003  Más información en la  página web de MonumentaMadrid;0;http://www.madrid.es/sites/v/index.jsp?vgnextchannel=9e4c43db40317010VgnVCM100000dc0ca8c0RCRD&vgnextoid=023de35bba51c010VgnVCM2000000c205a0aRCRD;VILLA;PLAZA;V;4;;;;C/V CALLE CORDON 1, C/V ROLLO 1, C/V SACRAMENTO 2;MADRID;MADRID;28005;PALACIO;CENTRO;439830;4474259;40.41490075;-3.710503984;;;;/contenido/entidadesYorganismos/MonumentosEdificiosArtisticos;Monumento
20375;Casa de La Panadería;Iniciada por Diego Sillero en 1590 para el gremio del pan, será acabada y transformada en 1617 por Gómez de Mora al integrarla en el conjunto de la Plaza Mayor. La planta baja era completamente libre permitiendo el paso entre la calle Mayor y la Plaza. A finales del siglo  XVIII   Juan de Villanueva la restauró tras el incendio de la plaza en 1672. Es de destacar el balcón y Escudo Real de la fachada, así como sus pinturas.;;;Metro: Sol (líneas 1, 2, 3).  Bus: 3, 50.  Renfe: Sol (líneas C3, C4).;;1;http://www.madrid.es/sites/v/index.jsp?vgnextchannel=9e4c43db40317010VgnVCM100000dc0ca8c0RCRD&vgnextoid=944de35bba51c010VgnVCM2000000c205a0aRCRD;MAYOR;PLAZA;V;27;;;;;MADRID;MADRID;28012;SOL;CENTRO;439983;4474154;40.41583855;-3.707425708;;;;/contenido/entidadesYorganismos/MonumentosEdificiosArtisticos;Monumento
71807;Casa de La Villa. Ayuntamiento de Madrid;;;;Metro: Sol (líneas 1, 2, 3), Ópera (líneas R, 2, 5)  Bus: 3, 5, 20, 25, 33, 39, 50, 51, 52, 53, 150;"Descripción monumental    El Ayuntamiento madrileño careció de inmueble propio hasta finalizar el siglo XVI, celebrando sus sesiones en la antigua parroquia de San Salvador, situada en la calle Mayor esquina calle Señores de Luzón.   En 1599 se compraron varias casas en la manzana 182, donde se instaló provisionalmente, y que se derribaron en 1620 para construir el actual edificio. Entonces el Consejo pidió licencia al rey para hacer la Casa del Ayuntamiento. En 1629 se aprobó el proyecto de Juan Gómez de Mora, empezando las obras años más tarde.  El edificio estuvo planteado con doble función: acoger los servicios municipales y la cárcel de la Villa. El resultado fue un edificio exento con planta compuesta en torno a un patio cuadrado, dejando el vestíbulo y salones principales en las fachadas principales y el resto de las dependencias en las secundarias.  Las fachadas en ladrillo, granito y pizarra presentan distintos tratamientos por su diferente función y situación urbana, siguiendo la línea de la arquitectura madrileña del siglo XVII impuesta por Gómez de Mora. La fachada a la plaza de la Villa tiene una distribución simétrica entre torres angulares rematadas con chapitel.  La fachada a la calle Mayor, reformada por Juan de Villanueva siguiendo el diseño de Mateo G&uuml;ill, mantiene las torres angulares y varía el segundo cuerpo, introduciendo en él una  loggia  de orden dórico como gran mirador sobre la calle, que acentúa los juegos de luz y sombra.  A lo largo de los siglos XIX y XX se realizaron ampliaciones y reformas interiores para dar cabida a los nuevos servicios del Ayuntamiento.  En la actualidad la sede del Ayuntamiento de Madrid se encuentra en el Palacio de Cibeles.   Autores    Juan Gómez de Mora: 1629 (P)  Juan Gómez de Mora, José de Villarreal, Bartolomé Hurtado, José del Olmo, Manuel del Olmo, Cristóbal de Aguilera y Teodoro Ardemans: 1644-1696 (O)  Reforma fachada  c/  Mayor: Mateo G&uuml;ill y Juan de Villanueva: 1785-1789 (O)  Ampliación: Juan José Sánchez Pescador: 1857-1859 (O)  Primera restauración: Lucio Oñoro Domínguez: 1969-1975 (O)  Segunda restauración: Joaquín Roldán Pascual: patio de cristales: 1984-1985 (O), salón de plenos: 1985 (O), saletas diversas: 1986 (O) y capilla: 1991 (Co)    Más información en  la  página de Monumentamadrid";0;http://www.madrid.es/sites/v/index.jsp?vgnextchannel=9e4c43db40317010VgnVCM100000dc0ca8c0RCRD&vgnextoid=483f68540e41c010VgnVCM2000000c205a0aRCRD;VILLA;PLAZA;V;5;;;;;MADRID;MADRID;28005;PALACIO;CENTRO;439820;4474291;40.4151883;-3.710624875;;;;/contenido/entidadesYorganismos/MonumentosEdificiosArtisticos;Monumento
20390;Casa de Velázquez;Centro de creación artística y de investigación situado en un palacete de estilo neoclásico de 1920.;;Desarrollo de actividades creadoras e investigaciones relacionadas con las artes, las lenguas, las literaturas y las sociedades de países ibéricos, iberoamericanos y del Magreb.;Bus: 83 , 133, 162  Metro: Ciudad Universitaria (línea 6);Descripción monumental:  el edificio es un palacete de estilo neoclásico inaugurado en 1928, por encargo del gobierno francés a los arquitectos Chifflot y Lefevre, en un terreno concedido por el Rey Alfonso XIII. Desde su fundación la institución acoge a jóvenes investigadores y artistas emergentes.;1;http://www.madrid.es/sites/v/index.jsp?vgnextchannel=9e4c43db40317010VgnVCM100000dc0ca8c0RCRD&vgnextoid=a48de35bba51c010VgnVCM2000000c205a0aRCRD;PAUL GUINARD;CALLE;V;3;;;;;MADRID;MADRID;28040;CIUDAD UNIVERSITARIA;MONCLOA-ARAVACA;438201;4477170;40.44101364;-3.729986683;914 551 580;915 497 250;;/contenido/entidadesYorganismos/MonumentosEdificiosArtisticos;Monumento
2064;Casón del Buen Retiro;Edificio que forma parte del Museo Nacional del Prado, donde pueden consultarse fondos de la Biblioteca, del Archivo y del Servicio de Documentación de la colección del Museo y de otras fuentes relativas a la historia del arte.;Mañanas    De lunes a jueves, de 9 a 15 horas (Servicio de libros y otros materiales hasta las 14:30 horas)  Viernes, de 9 a 14:30 horas (Servicio de libros y otros materiales hasta las 14 h)    Tardes    Lunes y miércoles, de 15 a 18 horas (Servicio de libros y otros materiales hasta las 17:30 horas)    Horario de verano     Desde el 16 de junio al 15 de septiembre, de lunes a viernes, de 9 a 14:30 horas;;Metro: Atocha (Línea 1)  Bus: 19, 10, 14, 27, 34, 37, 45  Renfe: Atocha;Descripción monumental   El Casón o Salón de Baile es el único volumen que permanece del antiguo Palacio del buen Retiro, ejecutado en 1637 con un proyecto de Alonso Carbonel. Aún se conserva la bóveda de cañon con lunetas, pintada al fresco por Lucas Jordán en 1692 con la Alegoría del Toisón de Oro. Su fachada principal, a poniente, arrasada la primitiva en 1886 por un ciclón, es de Velázquez Bosco. La última rehabilitación ha sido realizada por Jaime Torruell.;1;http://www.madrid.es/sites/v/index.jsp?vgnextchannel=9e4c43db40317010VgnVCM100000dc0ca8c0RCRD&vgnextoid=f0443d0b5e71c010VgnVCM1000000b205a0aRCRD;ALFONSO XII;CALLE;V;28;;;;;MADRID;MADRID;28014;LOS JERONIMOS;RETIRO;441635;4474285;40.41526375;-3.689232812;913 304 016 / 913 302 821;;biblioteca@museodelprado.es;/contenido/entidadesYorganismos/MonumentosEdificiosArtisticos;Monumento
5682031;Castillo de la Alameda;El Castillo de la Alameda o de Barajas se trata de uno de los escasos vestigios de la arquitectura militar del pasado siglo  XV  y uno de los pocos castillos que ha sobrevivido al paso del tiempo. Bajo él y su entorno, existen restos de asentamientos antiguos desde la Edad del Bronce hasta la Época Romana. En el edificio se realizan talleres para escolares y actividades en verano.;Abierto solo en fin de semana (sábado y domingo) y festivos (lunes festivos incluidos)   Del 1 de abril al 15 de junio de 10 a 21 horas.  Del 16 de junio al 15 de septiembre de 10 a 20 horas.  Del 15 al 30 de septiembre de 10 a 21 horas.  De octubre a marzo de 10 a 18 horas.   Cerrado: 1 y 6 de enero, 1 de mayo, 24, 25 y 31 de diciembre.;;Metro:  Alameda de Osuna y El Capricho (línea 5)   Bus:  101, 105, 112, 114, 115 y 151;Accesibilidad    Rampas de acceso.  Aseos adaptados para personas con movilidad reducida.  Información en Braille para invidentes.;1;http://www.madrid.es/sites/v/index.jsp?vgnextchannel=9e4c43db40317010VgnVCM100000dc0ca8c0RCRD&vgnextoid=fe43c4be8e688210VgnVCM1000000b205a0aRCRD;ANTONIO SANCHA;CALLE;V;1;;;;;MADRID;MADRID;28042;ALAMEDA DE OSUNA;BARAJAS;449698;4478802;40.45835461;-3.593290382;"913 667 415                                                                         
";;castilloalameda@madrid.es;/contenido/entidadesYorganismos/MonumentosEdificiosArtisticos;Monumento
3361;Catedral Santa María la Real de la Almudena;Su construcción comienza a finales del siglo XIX por el Marqués de Cubas, sobre el primer recinto amurallado del Madrid musulmán, y finaliza en el año 1993.;;;Metro: Ópera (líneas 2, 5, Ramal), Sol (Línea 1, 2, 3), Príncipe Pío (línea 6, 10, Ramal), Tirso de Molina (línea 1), Latina (línea 5)  Bus: 3, 25, 31, 39, 50 65, 148;;3;http://www.madrid.es/sites/v/index.jsp?vgnextchannel=9e4c43db40317010VgnVCM100000dc0ca8c0RCRD&vgnextoid=15647b503a71c010VgnVCM1000000b205a0aRCRD;BAILEN;CALLE;V;10;;;;;MADRID;MADRID;28013;PALACIO;CENTRO;439452;4474125;40.41554792;-3.713669639;915 422 200;;;/contenido/entidadesYorganismos/MonumentosEdificiosArtisticos;Monumento
2000;Centro de Estudios Políticos y Constitucionales;;;;Metro: Santo Domingo (línea 2), Plaza de España (línea 3), Ópera (línea 2, 5)  Bus: 3,, 25, 39, 46, 75, 138, 148, C1, C2;;3;http://www.madrid.es/sites/v/index.jsp?vgnextchannel=9e4c43db40317010VgnVCM100000dc0ca8c0RCRD&vgnextoid=8c5d1e79ee71c010VgnVCM1000000b205a0aRCRD;"MARINA ESPA&Ntilde;OLA";PLAZA;V;9;;;;;MADRID;MADRID;28013;PALACIO;CENTRO;439669;4474896;40.42063654;-3.712450347;915 401 950;914 228 992;cepc@cepc.es;/contenido/entidadesYorganismos/MonumentosEdificiosArtisticos;Monumento
103331;Centro Social y Cultural La Casa Encendida;Edificio de carácter monumental. De estilo neomudéjar, fue diseñado por el arquitecto Fernando Arbós e inaugurado en el año 1913. Cuenta con más de 6.000 metros cuadrados de instalaciones divididas en 4 plantas y una azotea.;De martes a domingo de 10 a 22 horas (todos los días del año, excepto festividades nacionales y de la Comunidad de Madrid)  Exposiciones: de 10 a 21:45 horas;Biblioteca  (Consulta catálogo  http://koha.montemadrid.es/ )   Biblioteca (Hemeroteca, Mediateca y Sala de ofimática) : de martes a domingos de 10 a 21:15 horas. Del 1 al 15 agosto, mediateca cerrada   Biblioteca joven:  de martes a viernes, de 10 a 20:30 horas, sábados y domingos de 10 a 13:30 horas   Bebeteca:  sábados y domingos de 10 a 13:30 horas     Ecotienda solidaria:    De martes a viernes de 14 a 21 horas, sábados y domingos de 11 a 15 y de 17 a 22 horas.  Cerrado del 7 al 22 agosto.   Verano: martes a viernes de 14 a 21 horas. Sábados y domingos 12 a 15 horas, y de 17 a 22 horas.     Cafetería:  De martes a domingo de 10 a 20:30 horas;Metro: Embajadores (línea 3), Lavapies (línea 3), Atocha (línea 1), Palos de la Frontera (línea 3)  Bus: 27, 34, 36, 41, 119, C1, C2  Renfe: Embajadores (C5), Atocha ( C1, C2, C3, C4, C5, C7, C8, C10);Tarifas 2018:    Exposiciones, Encuentros y Salidas: entrada libre  Audiovisuales y En Familia: 3 euros  Conciertos y escénicas: 5 euros  Cursos, talleres y campamentos: consultar cada actividad   Visitas guiadas y atención en sala: sábados y domingos de 12 a 14 horas y de 17 a 20 horas  Sin inscripción previa (gratuita);1;http://www.madrid.es/sites/v/index.jsp?vgnextchannel=9e4c43db40317010VgnVCM100000dc0ca8c0RCRD&vgnextoid=c27f8899fc81c010VgnVCM1000000b205a0aRCRD;VALENCIA;RONDA;V;2;;;;;MADRID;MADRID;28012;EMBAJADORES;CENTRO;440622;4473051;40.40595711;-3.699779794;"902 430 322                                                                 
";;lacasaencendida@montemadrid.es;/contenido/entidadesYorganismos/MonumentosEdificiosArtisticos;Monumento
2045;Círculo de Bellas Artes;;Salas de exposiciones:  martes a domingo de 11 a 14 y de 17 a 21 horas. Lunes cerrado.   Azotea:  de lunes a viernes de 9 a 22:30 horas, sábados, domingos y festivos de 11 a 22:30 horas (horario sujeto a cambios).   Taquilla (cine y espectáculos):  miércoles a domingo de 16 a 22 horas. (Horario sujeto a cambios).   Cafetería 'La Pecera':  De 8 a 1 horas, (viernes, sábado y domingo hasta las 3 horas).;Terraza - azotea visitable.  Cafetería.;Metro: Banco de España (línea 2).  Bus: 1, 2, 3, 5, 9, 14, 15, 20, 27, 45, 46, , 51, 52, 53, 74, 146, 147, 150.  Bicimad: Estación 20a (calle Alcalá 49), estación 28 (calle Alcalá 27).;Descripción monumental    Arquitecto : Antonio Palacios (1919 - 1926). Este edificio de imagen urbana, monumental y ecléctica, gracias a su volumetría y al tratamiento de las fachadas, se remata con una torre a modo de faro cultural y una Minerva en bronce esculpida por Juan Luis Vassallo. Los altorrelieves fueron realizados por José Capuz, Juan Adsuara y la colaboración de Ángel García Díaz.;3;http://www.madrid.es/sites/v/index.jsp?vgnextchannel=9e4c43db40317010VgnVCM100000dc0ca8c0RCRD&vgnextoid=8fdf1e79ee71c010VgnVCM1000000b205a0aRCRD;ALCALÁ;CALLE;V;42;;;;;MADRID;MADRID;28014;CORTES;CENTRO;440903;4474433;40.41842684;-3.696596762;"913 605 400 (Información general) / 913 892 426 (taquilla)                              
";;info@circulobellasartes.com;/contenido/entidadesYorganismos/Consorcios;Monumento
1916;Conde Duque;Conde Duque es un espacio cultural vinculado a la memoria y a la la difusión de Madrid.  Entre sus fines se encuentran: la difusión de la historia de Madrid, el intercambio de conocimientos históricos con la sociedad, la conservación de  los fondos históricos y artísticos del Ayuntamiento y la producción y exhibición de manifestaciones artísticas relacionadas con el mundo de la escena y de la música.;Exposiciones (entrada gratuita)    De martes a sábado de 10 a 14 y de 17:30 a 21 horas.  Domingos y festivos de 10:30 a 14 horas.;Salas de Exposiciones:  espacios expositivos con más de mil quinientos metros cuadrados, caracterizada por sus muros de ladrillo y por los espacios abovedados.   Auditorio Conde Duque:  1300 metros cuadrados, renovados en el 2011.   Teatro Conde Duque : espacio escénico moderno y versátil, con una escena de 12 por 17 metros de superficie y un peine de 5,99 metros de altura. Cuenta, además, con dos grandes salas de ensayo adyacentes.    Salon de Actos: u na gran sala de doble altura, totalmente forrada de madera, que está preparada para la realización de conferencias, presentaciones, congresos y seminarios. Ocupa las plantas primera y segunda de la zona del edificio que se sitúa encima del vestíbulo general desde el que tiene acceso. Dotado de medios de audición y gran pantalla de proyección, dispone de una capacidad de 293 asientos.     Zona wifi .;Metro: Ventura Rodríguez (línea 3), San Bernardo (línea 2 y 4) y Noviciado (línea 2).  Bus: 1, 2, 44, 74, 133, 202, 749, Minibús M-2;Teatro, Auditorio     Venta de entradas:   www.entradas.com   y taquilla del recinto  Contacto: 917 220 573 (de lunes a viernes de 10 a 14:30 horas y de 16 a 17 horas)  Correo electrónico:  actividades@condeduquemadrid.es     Salón de actos, Salas de ensayo y Eventos    Contacto: 917 220 573 (de lunes a viernes de 10 a 14:30 horas y de 16 a 17 horas)  Correo electrónico:  actividades@condeduquemadrid.es     Exposiciones: entrada gratuita    Contacto: 914 800 401  Correo electrónico:  cdinfoexposiciones@madrid.es;1;http://www.madrid.es/sites/v/index.jsp?vgnextchannel=9e4c43db40317010VgnVCM100000dc0ca8c0RCRD&vgnextoid=64463d0b5e71c010VgnVCM1000000b205a0aRCRD;CONDE DUQUE;CALLE;V;11;;;;;MADRID;MADRID;28015;UNIVERSIDAD;CENTRO;439759;4475508;40.42802889;-3.710182354;;;;/contenido/entidadesYorganismos/MonumentosEdificiosArtisticos;Monumento
20;Congreso de los Diputados;El Congreso de los Diputados está configurado por un complejo de cinco edificios con una superficie de cerca de setenta mil metros cuadrados.;;;Metro: Sevilla (línea 2), Banco de España (línea 2)  Bus: 5, 9, 10, 14, 15, 20, 27, 34, 37, 45, 51, 52, 53,150;Descripción monumental   El edificio fue construído por Pascual Colomer entre 1843 y 1850. Destaca su planta adaptada al edificio anterior y la conjugación de salas de diferente superficie, entre ellas el Salón de Sesiones, que es semicircular, cerrado por la tribuna de la presidencia. La fachada principal está compuesta por un potente pórtico clásico de orden corintio con frontón triangular. Los leones de bronce de la entrada y el relieve del frontón fueron realizados por Ponciano Ponzano. También destacan las pinturas interiores de Luis Ribera y Vicente Camarón.;1;http://www.madrid.es/sites/v/index.jsp?vgnextchannel=9e4c43db40317010VgnVCM100000dc0ca8c0RCRD&vgnextoid=365f29ea9281c010VgnVCM1000000b205a0aRCRD;CORTES;PLAZA;V;1;;;;;MADRID;MADRID;28014;CORTES;CENTRO;440970;4474401;40.41626174;-3.697081268;913 906 000;914 298 707;informacion@congreso.es;/contenido/entidadesYorganismos/MonumentosEdificiosArtisticos;Monumento
14218;Consejo de Estado;Es el supremo órgano consultivo del Gobierno. Actualmente se rige por la  Ley Orgánica 3/1980, de 22 de abril, y su Reglamento es de 18 de julio del mismo año.  (Modificados por Ley Orgánica 3/2004 de 28 de diciembre) y (Real Decreto 449/2005 de 22 de abril).   No forma parte de la Administración activa ni está integrado en ninguno de los Departamentos ministeriales y, aunque la Constitución de 1978 lo califique literalmente de órgano consultivo del Gobierno, tiene en realidad el carácter de órgano del Estado (Sentencia del Tribunal Constitucional 56/1990, de 29 de marzo).;;Archivo y Biblioteca:    Teléfonos: 915 166 356 / 915 166 357  Fax: 915 166 364  Correo electróncio:  archivo.biblioteca@consejo-estado.es     Asuntos en tramitación:    Teléfonos: 915 166 240/ 915 166 241  Fax: 915 166 244  Correo electrónico:    tramitaciones@consejo-estado.es     Solicitud de copia de dictámenes:    Por correo electrónico:  consultas@consejo-estado.es   Por correo ordinario dirigido a: Área de Gestión y Servicios Generales Consejo de Estado  C/ Mayor 79 28013 Madrid;Metro: Ópera (líneas 2 y 5)  Bus: 3, 31, 50, 65, 148;;0;http://www.madrid.es/sites/v/index.jsp?vgnextchannel=9e4c43db40317010VgnVCM100000dc0ca8c0RCRD&vgnextoid=ff4ed4985261c010VgnVCM1000000b205a0aRCRD;MAYOR;CALLE;V;79;;;;;MADRID;MADRID;28013;PALACIO;CENTRO;439623;4474268;40.41496681;-3.712944514;915 166 262;915 166 250 (Área de Gestión y Servicios Generales);consultas@consejo-estado.es;/contenido/entidadesYorganismos/MonumentosEdificiosArtisticos;Monumento
3354;Convento de las Comendadoras de Santiago;El templo fue construido entre 1667 y 1679 por Manuel del Olmo y José del Olmo. El convento data del siglo  XVIII   y es obra de Francisco de Sabatini. Es destacable la iglesia de planta cruciforme con gran cúpula central y cuatro exedras semicirculares, así como la sacristía de planta elíptica construida entre 1745 y 1754 por Francisco Moradillo.;;;Metro: San Bernardo (líneas 2, 4), Ventura Rodríguez (línea 3)  Bus: 1, 2, 21, 44, 74, 133, 147, C;Más información en la  página web de Monumenta Madrid;0;http://www.madrid.es/sites/v/index.jsp?vgnextchannel=9e4c43db40317010VgnVCM100000dc0ca8c0RCRD&vgnextoid=ee6b13db5b71c010VgnVCM1000000b205a0aRCRD;COMENDADORAS;PLAZA;V;10;;;;;MADRID;MADRID;28015;UNIVERSIDAD;CENTRO;439973;4475645;40.42739682;-3.708949668;;;;/contenido/entidadesYorganismos/MonumentosEdificiosArtisticos;Monumento
20432;Edificio Metrópolis;Arquitectos : Jules y Reymond Fevrier y Luis Esteve (1906 - 1910)  Edificio de carácter monumental de estilo clasicista - francés de fin de siglo, aporta una buena solución de esquina para el arranque de la Gran Vía en la rotonda de columnas corintias de orden gigante que sostienen un tercer piso profuso en grupos escultóricos de Saint Marceux, Landousky, Lambert y Benlliure.   La Compañía Metrópolis sustituyó en 1975 el grupo escultórico de la Unión y el Fénix que coronaba la cúpula por una victoria alada de Federico Coullaut Valera.;;;Metro: Sevilla (línea 2), Banco de España (línea 2)  Bus: 1, 2, 5, 9, 15, 20, 51, 52, 53, 74, 146, 150, 202;;0;http://www.madrid.es/sites/v/index.jsp?vgnextchannel=9e4c43db40317010VgnVCM100000dc0ca8c0RCRD&vgnextoid=6c3c7d448b51c010VgnVCM2000000c205a0aRCRD;ALCALA;CALLE;V;39;;;;;MADRID;MADRID;28014;CORTES;CENTRO;440930;4474668;40.41866417;-3.697577555;;;;/contenido/entidadesYorganismos/MonumentosEdificiosArtisticos;Monumento
6469186;Ermita de San Antonio de la Florida (Museo);Ermita dedicada a San Antonio de Padua y pequeño museo. Las pinturas murales que la decoran son de Francisco de Goya. Alberga los restos mortales del artista desde 1919. Para preservar sus pinturas, en 1929 se trasladó el culto a una ermita gemela construida a su lado, dejando el edificio original como museo.;De martes a domingos de 9:30 a 20 horas.   Cerrado:   lunes (incluidos festivos), 1 y 6 de enero, 1 de mayo, 24, 25 y 31 de diciembre.   Último pase de visita:  20 minutos antes del cierre (el desalojo de las salas comenzará 10 minutos antes)  Este horario y la apertura de salas pueden sufrir modificaciones.;Tienda, en la que se pueden adquirir las guías y publicaciones sobre la ermita editadas por el Museo y otros organismos públicos, así como catálogos y publicaciones de instituciones culturales del Ayuntamiento de Madrid.;Metro: Príncipe Pío (líneas 5, 10 y ramal Ópera - Príncipe Pío)  Bus: 41, 46 y 75 (Intercambiador Príncipe Pío)  Renfe: Príncipe Pío;Accesibilidad:  - Rampa de acceso al edificio  - Aseos no adaptados a personas con movilidad reducida;2;http://www.madrid.es/sites/v/index.jsp?vgnextchannel=9e4c43db40317010VgnVCM100000dc0ca8c0RCRD&vgnextoid=75950204770e7310VgnVCM2000000c205a0aRCRD;SAN ANTONIO DE LA FLORIDA;GLORIETA;V;5;;;;;MADRID;MADRID;28008;CASA DE CAMPO;MONCLOA-ARAVACA;438439;4475212;40.42525668;-3.725725718;915 420 722;;sanantonio@madrid.es;/contenido/entidadesYorganismos/MonumentosEdificiosArtisticos;Monumento
6079820;Ermita de San Isidro;;Ermita:  sábados de 11 a 13 horas (celebración de la Eucaristía a las 12 horas).   Fuente del Santo:  sólo permanece abierta desde la semana anterior a la fiesta de San Isidro hasta la semana posterior.   Oficio en rito hispano mozárabe:  los días 2 de enero a las 18 horas (comienzo del año Caput anni) y 11 de mayo a las 18,30 horas (aniversario de la dedicación).;;Metro: Marqués de Vadillo (línea 5)   Bus: 17, 25, 50;Descripción monumental:  construida en 1528, sufre una completa transformación en 1725.;3;http://www.madrid.es/sites/v/index.jsp?vgnextchannel=9e4c43db40317010VgnVCM100000dc0ca8c0RCRD&vgnextoid=913cfa8389c10310VgnVCM1000000b205a0aRCRD;QUINCE DE MAYO;PASEO;V;62;;;;;MADRID;MADRID;28019;SAN ISIDRO;CARABANCHEL;437909;4472356;40.39949832;-3.731682746;913 650 841;;;/contenido/entidadesYorganismos/MonumentosEdificiosArtisticos;Monumento
35254;Ermita de Santa María la Antigua;;;;Bus: 34, 108;;3;http://www.madrid.es/sites/v/index.jsp?vgnextchannel=9e4c43db40317010VgnVCM100000dc0ca8c0RCRD&vgnextoid=f19e059cb751c010VgnVCM2000000c205a0aRCRD;"MONSE&Ntilde;OR OSCAR ROMERO";CALLE;V;92;;;;;MADRID;MADRID;28047;VISTA ALEGRE;CARABANCHEL;436125;4470483;40.38249063;-3.752515935;914 628 536 (Parroquia de San Sebastián Mártir);;;/contenido/entidadesYorganismos/MonumentosEdificiosArtisticos;Monumento
3357;Ermita Virgen del Puerto;;;;Metro: Príncipe Pio (líneas 6 y 10)  Bus: 25, 31, 33, 36, 39, 41, 50, 62, 65, 138, C2   Renfe: Príncipe Pío (líneas 1, 7 y 10);Descripción monumental:  Construido por Pedro Ribera en 1.718.  Se encuadra en un proyecto urbanístico propuesto por el propio arquitecto para toda la ribera del Manzanares.  De planta octogonal con exedras, lleva cubierta de pizarra.;3;http://www.madrid.es/sites/v/index.jsp?vgnextchannel=9e4c43db40317010VgnVCM100000dc0ca8c0RCRD&vgnextoid=fd7755004e91f010VgnVCM2000000c205a0aRCRD;VIRGEN DEL PUERTO;PASEO;V;4;;;;;MADRID;MADRID;28005;PALACIO;CENTRO;438818;4474132;40.41556462;-3.721142611;648 841 991 / 637 388 244;;;/contenido/entidadesYorganismos/MonumentosEdificiosArtisticos;Monumento
13151;Estación ferroviaria Madrid Puerta de Atocha;Edificio con carácter monumental construído en 1889 por Alberto del Palacio para la Compañía Madrid - Zaragoza - Alicante, en sustitución de la de los años 50;Horario de la estación:  diario, de 05 a 01 horas.  Venta inmediata de billetes: diario, de 06:15 a 22:15 horas.  Venta anticipada de billetes: diario, de 07 a 20 horas.  Máquinas autoventa multiproducto: diario, de 05 a 01 horas.  Horario consignas: diario, de 5:30 a 22:20 horas;Adaptada a personas sordas y con discapacidad auditiva.    Servicios adaptados  : atención a viajeros con discapacidad - aseos para personas con discapacidad - Vestíbulo zona comercial - Sillas de ruedas - Ascensores adaptados  - Andenes adaptados;Metro: Atocha Renfe (línea 1)  Bus: 10, 19, 24, 47, 55, 57, 85, 102, C1, C2  Renfe: Atocha;Teléfonos de interés:    Renfe (información, reserva, venta, cambio y anulación de billetes): 912 320 320.  Información Estaciones ADIF: 912 432 343.  Atención a viajeros con discapacidad: 912 140 505.;1;http://www.madrid.es/sites/v/index.jsp?vgnextchannel=9e4c43db40317010VgnVCM100000dc0ca8c0RCRD&vgnextoid=28518a856b51c010VgnVCM1000000b205a0aRCRD;EMPERADOR CARLOS V;PLAZA;V;0;;;;;MADRID;MADRID;28012;CORTES;CENTRO;441230;4473448;40.40956762;-3.692651481;Ver pestaña Más Información;;;/contenido/entidadesYorganismos/MonumentosEdificiosArtisticos;Monumento
162905;Fundación BBVA. Palacio del Marqués de Salamanca;;;;;;0;http://www.madrid.es/sites/v/index.jsp?vgnextchannel=9e4c43db40317010VgnVCM100000dc0ca8c0RCRD&vgnextoid=c43a8f90a581c010VgnVCM1000000b205a0aRCRD;RECOLETOS;PASEO;V;10;;;;;MADRID;MADRID;28001;RECOLETOS;SALAMANCA;441482;4474972;40.42144182;-3.691099393;91 537 69 64 (Fundación BBVA);;;/contenido/entidadesYorganismos/MonumentosEdificiosArtisticos;Monumento
5703491;Galería de Cristal del Palacio de Cibeles;"Una gran bóveda acristalada, de geometría irregular y forma orgánica, cobija  2.800  m&sup2;    de este lugar de representación, celebración y encuentro para los ciudadanos y las ciudadanas, bajo el cielo de Madrid. Eleva a 30 metros de altura su transparente levedad (500 toneladas). Está construida con casi 2.000 cristales triangulares, todos diferentes entre sí, formados por 2.966 barras y 1.034 nudos unidos uno a uno.  Tras haber sufrido diversas alteraciones, este espacio, que nace al cubrir el antiguo pasaje Ruiz de Alarcón, antes ocupado por vehículos de reparto de correo, restaurado y rehabilitado, constituye un elemento esencial de la sede del Ayuntamiento de Madrid.";De lunes a domingo de 10 a 20 horas, siempre que no haya actividad en el espacio.;;Metro: Banco de España (línea 2)  Bus: 1, 2, 5, 9, 10, 15, 20, 27, 34, 45, 51, 52, 53, 74, 146, 150  Renfe: Recoletos;Importe:  entrada gratuita (acceso por pórtico de la calle Alcalá o calle Montalbán).     Más información:  este  lugar formó parte del entorno del Palacio Real del Buen Retiro en el siglo  XVII , y en el  XIX  albergó un jardín de recreo. Se incorporó definitivamente como pasaje y patio de descarga del Palacio de Comunicaciones (1904-1919), proyectado por los arquitectos Palacios y Otamendi.;1;http://www.madrid.es/sites/v/index.jsp?vgnextchannel=9e4c43db40317010VgnVCM100000dc0ca8c0RCRD&vgnextoid=1f65ef881edd8210VgnVCM2000000c205a0aRCRD;MONTALBAN;CALLE;V;1;;;;;MADRID;MADRID;28014;LOS JERONIMOS;RETIRO;441281;4474416;40.41829144;-3.692139793;;;eventos@madrid-destino.com;/contenido/entidadesYorganismos/MonumentosEdificiosArtisticos;Monumento
3356;Iglesia Catedral de las Fuerzas Armadas;;;;Metro: Ópera (Líneas , Ramal , 2 , 5), Tirso de Molina (línea 1), La Latina (línea 5)  Bus: 3 , 17 , 31, 41 , 50 , 62, 65, 148;;3;http://www.madrid.es/sites/v/index.jsp?vgnextchannel=9e4c43db40317010VgnVCM100000dc0ca8c0RCRD&vgnextoid=23e03d232e91f010VgnVCM1000000b205a0aRCRD;SACRAMENTO;CALLE;V;11;;;;;MADRID;MADRID;28005;PALACIO;CENTRO;439571;4474051;40.41488995;-3.712260078;915 473 624;;;/contenido/entidadesYorganismos/MonumentosEdificiosArtisticos;Monumento
3363;Iglesia Corpus Christi (Jerónimas Recoletas);;;;Metro: Ópera (Lineas Ramal , 2 , 5), La Latina (Línea, 5), Tirso de Molina (línea 1)  Bus: 3, 17, 18, 23, 31, 35, 50, 65;;3;http://www.madrid.es/sites/v/index.jsp?vgnextchannel=9e4c43db40317010VgnVCM100000dc0ca8c0RCRD&vgnextoid=e5f03d232e91f010VgnVCM1000000b205a0aRCRD;CONDE DE MIRANDA;PLAZA;V;3;;;;;MADRID;MADRID;28005;PALACIO;CENTRO;439778;4474041;40.41481487;-3.709819457;915 480 319;;iglesiadelcorpuschristi@archimadrid.es;/contenido/entidadesYorganismos/MonumentosEdificiosArtisticos;Monumento
3355;Iglesia de las Calatravas (Concepción Real de Calatrava);;;;Metro: Sevilla (línea 2), Banco de España (línea 2), Sol (líneas 1, 2, 3), Gran Vía (líneas 1, 5)  Bus: 1, 2, 3, 9, 46, 52, 53, 74, 146, 150;;3;http://www.madrid.es/sites/v/index.jsp?vgnextchannel=9e4c43db40317010VgnVCM100000dc0ca8c0RCRD&vgnextoid=e8013d232e91f010VgnVCM1000000b205a0aRCRD;ALCALA;CALLE;V;25;;;;;MADRID;MADRID;28014;CORTES;CENTRO;440702;4474410;40.41819633;-3.698963614;915 218 035;;;/contenido/entidadesYorganismos/MonumentosEdificiosArtisticos;Monumento
60150;Iglesia Madres Redentoristas;;;;Bus: 34 , 35 , 47 , 121 , 131 , 139;;3;http://www.madrid.es/sites/v/index.jsp?vgnextchannel=9e4c43db40317010VgnVCM100000dc0ca8c0RCRD&vgnextoid=28613d232e91f010VgnVCM1000000b205a0aRCRD;MADRE CELESTE;CALLE;V;1;;;;;MADRID;MADRID;28044;BUENAVISTA;CARABANCHEL;435956;4469662;40.37319953;-3.755699004;915 086 800;;;/contenido/entidadesYorganismos/MonumentosEdificiosArtisticos;Monumento
3365;Iglesia San Antonio de los Alemanes;;;;Metro: Callao (líneas 3, 5), Gran Vía (líneas 1, 5), Noviciado (línea 2), Santo Domingo (línea 2), Chueca (línea 5)  Bus: 1, 2, 3, 46, 74, 146, 147, 202, M2;Descripción monumental:   Proyectada por Pedro Sánchez, año 1624  y Francisco Seseña, año 1624 - 1633.  Fachada, por Juan Gómez de Mora, año 1624 - 1630.  Fundación de Felipe III, 1606.  Magnífico ejemplo del Barroco madrileño con interesantes elementos arquitectónicos y frescos en paredes y cúpula que forman una unidad de espacio irreal.  La gran cúpula oval, decorada con arquitecturas fingidas y escenas de la Apoteosis de San Francisco de Paula, de Francisco Ricci y Carreño de Miranda,refuerza esta impresión.  Lucas Jordán, sin pauta de continuidad, decora los muros curvos con escenas de la vida del San Antonio.  El retablo mayor, de mediados del siglo XVIII, es obra del arquitecto Miguel Fernández con el escultor Francisco Gutiérrez. Obra compleja, fue replanteada por Juan Gómez de Mora quien redibujó la fachada. Muestra un edificio anexo en ladrillo y planta triangular para la Hermandad del Refugio y Piedad de Madrid, fundada en 1615 con su tradicional 'ronda del pan y huevo'.  Dicho edificio data de la década de 1880, quizá por Ruiz de Salces quien proyectó la reforma de la fachada buscando la armonía total.;3;http://www.madrid.es/sites/v/index.jsp?vgnextchannel=9e4c43db40317010VgnVCM100000dc0ca8c0RCRD&vgnextoid=614013db5b71c010VgnVCM1000000b205a0aRCRD;PUEBLA;CALLE;V;20;;;;;MADRID;MADRID;28004;UNIVERSIDAD;CENTRO;440312;4474867;40.42229433;-3.70360332;915 223 774;;;/contenido/entidadesYorganismos/MonumentosEdificiosArtisticos;Monumento
3368;Iglesia San Ildefonso (Monasterio de las Trinitarias Descalzas);;;El monumento conmemorativo alberga los restos hallados en la cripta del convento. Con la colocación de los restos de Miguel de Cervantes en la nave de la actual iglesia del siglo  XVIII   se cumple la voluntad testamentaria del autor de 'El Quijote'. Miguel de Cervantes, que fue enterrado en la primitiva iglesia el 23 de abril de 1616, expresó en su última voluntad descansar allí en agradecimiento a los Trinitarios que le liberaron de los cinco años y medio de cautiverio en Argel, en manos de los piratas berberiscos.;Metro: Antón Martín (Línea 1)  Bus: 10, 14, 27, 34, 37, 45;;3;http://www.madrid.es/sites/v/index.jsp?vgnextchannel=9e4c43db40317010VgnVCM100000dc0ca8c0RCRD&vgnextoid=4c1013db5b71c010VgnVCM1000000b205a0aRCRD;LOPE DE VEGA;CALLE;V;18;;;;;MADRID;MADRID;28014;CORTES;CENTRO;440807;4473907;40.41367254;-3.697679228;914 295 671;;;/contenido/entidadesYorganismos/MonumentosEdificiosArtisticos;Monumento
3346;Iglesia San Pedro el Viejo;;;;Metro: La Latina (Línea 5) Tirso de Molina (Línea 1)  Bus: 3, 17, 31, 50, 65, 148;;3;http://www.madrid.es/sites/v/index.jsp?vgnextchannel=9e4c43db40317010VgnVCM100000dc0ca8c0RCRD&vgnextoid=f35013db5b71c010VgnVCM1000000b205a0aRCRD;NUNCIO;CALLE;V;14;;;;;MADRID;MADRID;28005;PALACIO;CENTRO;439762;4473863;40.41320112;-3.710002867;913 651 284;;;/contenido/entidadesYorganismos/MonumentosEdificiosArtisticos;Monumento
4280;Instituto Cervantes;El antiguo Banco Español del Río de la Plata eligió para su construcción el solar en el que estuvo situado el palacio de Casa Irujo y seleccionó a dos arquitectos de la época, Palacios y Otamendi. Para algunos autores es su mejor edificio, dentro de ese característico estilo grandioso y monumental que incorpora los órdenes clásicos con vigor, rotundidad y correcta modulación y los conjuga con la innovación de las superficies lisas de grandes vanos acristalados. En el chaflán, un grupo de cariátides preside la entrada. Ese mismo argumento de monumentalidad fue el que se utilizó para conceder la licencia constructiva, pues el exceso de altura (25 metros en vez de los 18 permitidos) retrasó el permiso para iniciar las obras. La gran carga simbólica del edificio se subrayaba en el patio central de operaciones, que abarcaba la altura de todas las plantas y se remataba con una magnífica cúpula vidriera. En torno a él se abrían perimetralmente las distintas dependencias bancarias, conjugando asimismo modernidad y monumentalidad en los elementos constructivos. Ese grandioso espacio central se perdió con la reforma y ampliación de la década de 1940, en la que se añadió un nuevo edificio por la calle del Barquillo y se cambió por completo el interior. La fachada de esta ampliación aspira a repetir el esquema de Palacios y Otamendi sin mimetizarlo.;Registro:    Laborales de 8,30 a 14,30 horas.    Biblioteca:    Lunes a viernes de 9 a 15 horas.  Cerrada del 26 de marzo al 2 de abril, del 24 de diciembre al 4 de enero y durante el mes de agosto.;;Metro: Banco de España (línea 2).  Bus: 5, 9, 51, 52, 53, 146,150,1, 2, 74, 15, 20, 203, 46, M2.  Bicimad: Estación 20 (calle Alcalá 49).;El Instituto Cervantes es la institución pública creada por España en 1991 para promover universalmente la enseñanza, el estudio y el uso del español y contribuir a la difusión de las culturas hispánicas en el exterior. Está presente en 87 centros distribuidos en 44 países por los cinco continentes.;3;http://www.madrid.es/sites/v/index.jsp?vgnextchannel=9e4c43db40317010VgnVCM100000dc0ca8c0RCRD&vgnextoid=e6c50a47f441f010VgnVCM2000000c205a0aRCRD;ALCALA;CALLE;V;49;;;;Biblioteca, entrada por Calle Barquillo 6;MADRID;MADRID;28014;JUSTICIA;CENTRO;441121;4474731;40.41924526;-3.695332165;914 367 600;914 367 691;informa@cervantes.es;/contenido/entidadesYorganismos/MonumentosEdificiosArtisticos;Monumento
6619;Istituto Italiano di Cultura de Madrid;Descripción monumental:  el Palacio de Abrantes inicia su construcción en 1652, aunque las reformas más importantes se acometen en el siglo  XIX  por Aníbal Alvárez Bouquel. Su estilo sigue criterios italianizantes, reflejados en los detalles neorrenacentistas del exterior, semejando los palacios italianos del siglo  XVI.;Invierno: de lunes a viernes de 9 a 18 horas  Verano: de 9 a 14 horas;Actividades culturales  Cursos de italiano;Metro: Opera (líneas 2 y 5)  Bus: 3, 31, 50, 65, 148;Objetivo : promover y difundir la lengua y la cultura italianas en España a través de la organización de actividades culturales para favorecer la circulación de las ideas, de las artes y de las ciencias.;3;http://www.madrid.es/sites/v/index.jsp?vgnextchannel=9e4c43db40317010VgnVCM100000dc0ca8c0RCRD&vgnextoid=6c4e42be9971c010VgnVCM1000000b205a0aRCRD;MAYOR;CALLE;V;86;;;;;MADRID;MADRID;28013;PALACIO;CENTRO;439527;4474090;40.41523808;-3.712782363;"915 475 205 (Centralita)                 
";915 422 213;iicmadrid@esteri.it;/contenido/entidadesYorganismos/MonumentosEdificiosArtisticos;Monumento
94391;Jardines del Campo del Moro;Jardín declarado Histórico Artístico en 1931. Los jardines salvan un pronunciado desnivel que comunica el Palacio Real con las riberas del Río Manzanares.  Este parque se incluye entre las visitas recomendadas a turistas que visitan la ciudad, según la  web oficial de turismo de Madrid .  El parque es accesible a personas con movilidad reducida en las partes principales del mismo.;Horario de invierno (octubre a marzo): todos los días de 10 a 18 horas  Horario de verano (abril a septiembre): todos los días 10 a 20 horas;Los Jardines del Moro dependen de Patrimonio Nacional, para más información puede acceder a través del enlace adjunto:    Palacio Real;Metro: Ópera (líneas 2, 5, ramal), Principe Pío (líneas 6, 10, ramal)  Bus: 25, 33, 39, 41, 46, 62, 75, 138, 148, C  Renfe: Príncipe Pío;Descripción monumental   En el trazado inicial, sus paseos principales se realizaron durante el reinado de Isabel  II  y fueron proyectados en 1844 por el arquitecto mayor de Palacio, Narciso Pascual y Colomer, siguiendo un diseño formalista con ejes y paseos regulares. Durante esta etapa se instalaron las fuentes de los Tritones, procedente del Jardín de la Isla en Aranjuez, y la Fuente de las Conchas, trasladada desde el Palacio del Infante don Luis en Boadilla del Monte.  Debido al deterioro sufrido tras la revolución de 1868, se inició un nuevo proyecto de jardín durante la Regencia de María Cristina de de Habsburgo en 1890, dirigidas las obras por el jardinero Ramón Oliva según las corrientes paisajista y romántica acorde al gusto de la época: trazados de paseos curvilíneos con suaves pendientes y una gran plantación de árboles y arbustos. Se instalaron pabellones de recreo, bancos y columpios. Destacan el Chalet de la Reina, de estilo Alpino, el Chalet de Corcho y la Casa del Jardinero, así como la decoración de rocalla en la gruta que comunicaba con los Jardines de la Casa de Campo, cuyo diseño original es del arquitecto Juan de Villanueva.  Durante la guerra Civil sufrió importantes daños lo que obligó a una nueva campaña de acondicionamiento y realización de nuevas plantaciones conformando su diseño actual. Se crearon nuevas infraestructuras que permitían la visita del público y se instaló el Museo de Carruajes en las proximidades, actualmente destinado a otros usos.   Especies predominantes:  Destacan los ejemplares de arbolado muy longevos, incluido en el Catálogo de Árboles ejemplares de la Comunidad de Madrid. Uno de los de mejor porte es el gran ejemplar de Pinus halepensis que podremos observar en el Paseo de Damas, con más de 30 metros de altura.;1;http://www.madrid.es/sites/v/index.jsp?vgnextchannel=9e4c43db40317010VgnVCM100000dc0ca8c0RCRD&vgnextoid=bb3a34c0e2c5f010VgnVCM2000000c205a0aRCRD;VIRGEN DEL PUERTO;PASEO;S/N;0;;;;En las proximidades de la Glorieta de San Vicente;MADRID;MADRID;28005;PALACIO;CENTRO;438920;4474511;40.41898631;-3.719976837;"914 548 800 (Información de Palacio Real)               
";;info@patrimonionacional.es;/contenido/entidadesYorganismos/MonumentosEdificiosArtisticos;Monumento
5853414;Ministerio de Hacienda. Sede calle Alcalá;Edificio declarado bien de interés cultural, con categoría de monumento.  Construido por Francisco Sabatini en 1769 para Real Casa de Aduanas. Es uno de los primeros edificios neoclásicos de Madrid. Destaca su fachada romana y escalera que forma el núcleo del edificio, lugar de intersección de toda la circulación dentro de la organización de los tres patios.;;;Metro: Sol (líneas 1, 2, 3), Sevilla (línea 5)  Bus: 15, 20, 5, 150, 51, 51, 52, 53, M1, 3  Renfe: Sol  BICIMAD: Estación 1 a y b (Plaza Puerta del Sol, 1);;3;http://www.madrid.es/sites/v/index.jsp?vgnextchannel=9e4c43db40317010VgnVCM100000dc0ca8c0RCRD&vgnextoid=2828cbfc0ab0c210VgnVCM1000000b205a0aRCRD;ALCALA;CALLE;V;9;;;;;MADRID;MADRID;28014;SOL;CENTRO;440515;4474333;40.41748934;-3.701160482;915 958 000;;;/contenido/entidadesYorganismos/MonumentosEdificiosArtisticos;Monumento
4;Ministerio de Justicia;Edificio construido por el arquitecto Evaristo del Castillo para la Marquesa de Sonora en 1797, sobre el solar donde se encontraba la casa de Don Bernardo Grimaldo, destruida en un incendio en 1789. En 1851 pasa a ser propiedad del Estado y entre 1942 y 1947 es transformado por Javier Barroso, que le da el estilo nacionalista - herreriano, introduciendo las torres con sus chapiteles y revistiendo éstas con piedra.;;;Metro: Noviciado (línea 2), Plaza de España (líneas 3, 10)  Bus: M2, 3, 147  BICIMAD: Estación 16 (calle San Bernardo, 22);;3;http://www.madrid.es/sites/v/index.jsp?vgnextchannel=9e4c43db40317010VgnVCM100000dc0ca8c0RCRD&vgnextoid=98fb29ea9281c010VgnVCM1000000b205a0aRCRD;SAN BERNARDO;CALLE;V;45;;;;;MADRID;MADRID;28015;UNIVERSIDAD;CENTRO;439981;4475074;40.42412619;-3.707536104;918 372 295 / 902 007 214;;;/contenido/entidadesYorganismos/MonumentosEdificiosArtisticos;Monumento
3364;Monasterio de Benedictinas;;;;Metro: Noviciado (línea 2), Gran Vía (línea 1, 5), Callao (línea 3, 5), Tribunal (línea 1, 10)  Bus: 1, 2, 3, 44, 46, 74, 75, 133, 146, 148, M2, 147, 148;;3;http://www.madrid.es/sites/v/index.jsp?vgnextchannel=9e4c43db40317010VgnVCM100000dc0ca8c0RCRD&vgnextoid=b90013db5b71c010VgnVCM1000000b205a0aRCRD;SAN ROQUE;CALLE;V;9;;;;;MADRID;MADRID;28004;UNIVERSIDAD;CENTRO;440236;4474926;40.42282037;-3.70450469;915 317 999;;;/contenido/entidadesYorganismos/MonumentosEdificiosArtisticos;Monumento
3348;Monasterio de las Descalzas Reales;Convento fundado por la Princesa Juana de Austria, transformando un antiguo palacio de su madre Isabel de Portugal.;Sólo con visita guiada  .     De martes a sábado de 10 a 14 horas y de 16 a 18:30 horas  Domingos y festivos, de 10 a 15 horas. Cerrado los lunes  Cierre taquillas y acceso al Monasterio una hora antes;;Metro: Callao (líneas 3, 5) , Santo Domingo (línea 2) , Sol (líneas 1, 2, 3) Gran Vía (líneas 1, 5)  Bus: 1, 2, 3, 5, 15, 20, 25, 39, 40, 44, 46, 50, 51, 52, 53, 74, 75, 133, 146, 147, 148, 149, 150, 202;Aperturas extraordinarias para 2018    2 de mayo abierto hasta las 15:00  15 de mayo abierto hasta las 15:00  15 de agosto abierto hasta las 15:00  12 de octubre abierto hasta las 15:00  1 de noviembre abierto hasta las 15:00  9 de noviembre abierto hasta las 15:00  6 de diciembre abierto hasta las 15:00  8 de diciembre abierto hasta las 15:00    Días de cierre para 2018    1 de enero: cerrado en jornada completa  6 de enero: cerrado en jornada completa  28 de marzo: cerrado en jornada completa  29 de marzo: cerrado en jornada completa  30 de marzo: cerrado en jornada completa  31 de marzo: cerrado en jornada completa  1 de mayo: cerrado en jornada completa  24 de diciembre: cerrado en jornada completa  25 de diciembre: cerrado en jornada completa  31 de diciembre: cerrado en jornada completa   Además de los cierres ya previstos, puede haber cierres adicionales motivados también por la celebración de actos oficiales;3;http://www.madrid.es/sites/v/index.jsp?vgnextchannel=9e4c43db40317010VgnVCM100000dc0ca8c0RCRD&vgnextoid=12e113db5b71c010VgnVCM1000000b205a0aRCRD;DESCALZAS;PLAZA;V;3;;;;;MADRID;MADRID;28013;SOL;CENTRO;440087;4474418;40.41823336;-3.706213135;"914 548 700                                                             
";;;/contenido/entidadesYorganismos/MonumentosEdificiosArtisticos;Monumento
4539061;Monumento Homenaje a las Víctimas del 11 de marzo;;De martes a domingos, de 11 a 14 horas y de 17 a 19 horas. Lunes Cerrado.;Acceso para personas discapacitadas;;;0;http://www.madrid.es/sites/v/index.jsp?vgnextchannel=9e4c43db40317010VgnVCM100000dc0ca8c0RCRD&vgnextoid=7ae4134fcbf41110VgnVCM1000000b205a0aRCRD;Emperador Carlos V;GLORIETA;V;;;;;semiesquina ALFONSO XII. Entrada por la Estación de Renfe de Atocha;MADRID;MADRID;28014;LOS JERONIMOS;RETIRO;441623;4473450;40.4077408;-3.689297487;;;;/contenido/entidadesYorganismos/MonumentosEdificiosArtisticos;Monumento
2071;Museo de Escultura al Aire Libre de la Castellana;El Museo de Escultura al Aire Libre de La Castellana, está situado bajo el paso elevado que une las calles de Juan Bravo y Eduardo Dato, contiene una excelente colección de escultura abstracta española.;Entrada libre. Espacio urbano abierto  Abierto 24 horas al día los 365 días del año.;;Transporte público más próximo   Metro: Rubén Darío (línea 5)  Bus: 5, 14, 27, 45, 150;;0;http://www.madrid.es/sites/v/index.jsp?vgnextchannel=9e4c43db40317010VgnVCM100000dc0ca8c0RCRD&vgnextoid=eca9ef4d7f71c010VgnVCM1000000b205a0aRCRD;CASTELLANA;PASEO;V;40;;;;;MADRID;MADRID;28046;CASTELLANA;SALAMANCA;441678;4476070;40.4332194;-3.687612268;;;mmacmdifusion@madrid.es;/contenido/entidadesYorganismos/MonumentosEdificiosArtisticos;Monumento
2054;Museo de Historia de Madrid;Creado como Museo Municipal en 1929 y rebautizado como Museo de Historia de Madrid en 2007, tras una profunda remodelación, el año 2014 reabre sus puertas con un montaje moderno y una puesta al día de sus colecciones.;De martes a domingos de 10 a 20 horas.     Cerrado    Todos los lunes y los días 1 y 6 de enero, 1 de mayo,  24, 25 y 31 de diciembre.    El desalojo de las salas se hará diez minutos antes del cierre.;Biblioteca de investigación  Servicio de documentación  Guardarropa  Zona wifi;Metro:  Tribunal, Bilbao y Alonso Martínez.  Bus:  3, 21, 37, 40, 147 y 149.  Aparcamiento público:  Barceló.;Accesibilidad física:    Rampa de acceso a la entrada.  Ascensores.  Aseos adaptados.  Silla de ruedas.;1;http://www.madrid.es/sites/v/index.jsp?vgnextchannel=9e4c43db40317010VgnVCM100000dc0ca8c0RCRD&vgnextoid=8f3079262ef5d010VgnVCM1000000b205a0aRCRD;FUENCARRAL;CALLE;V;78;;;;;MADRID;MADRID;28004;JUSTICIA;CENTRO;440550;4475251;40.42577055;-3.700845661;917 011 863;;smuseosm@madrid.es;/contenido/entidadesYorganismos/MonumentosEdificiosArtisticos;Monumento
2114;Museo de la Real Academia de Bellas Artes de San Fernando;Construido inicialmente para palacio de Don Juan de Goyeneche, el edificio fue adquirido por la Academia de Bellas Artes en 1773 y reformado bajo la dirección de Fernando Chueca Goitia en 1973 y la fachada por Diego de Villanueva en 1774.;"Colección permanente:   De martes a domingos y festivos de 10 a 15 horas  Cerrado: todos los lunes y el mes de agosto   Exposiciones temporales: consultar el apartado específico de la exposición temporal.  Días cerrados: 1 y 6 de enero; 1 y 30 de mayo; 9 de noviembre; 24, 25 y 31 de diciembre.   En periodos vacacionales pueden sufrir cambios.";Sala de exposiciones - Accesible a personas con minusvalía (física).;Metro: Sol (líneas 1, 2, 3), Sevilla (línea 2)  Bus: 3, 5, 9, 15, 20, 46, 51, 52, 53, 150  Renfe Cercanías: Sol;Visitas guiadas (no grupos):  25 personas máximo.   Martes, jueves y viernes  no festivos  a las 11 horas, excepto Navidad, Semana Santa y agosto.    Visitas para grupos (8 a 14 personas) y privadas:  jueves no festivos a las 11:30 horas.   Gratuitas y guiadas a los centros escolares y asociaciones a cargo de voluntarios culturales del Museo.    Previa solicitud:    Visitas de grupo:  museo.visitas@rabasf.org   Visitas privadas a museo cerrado:   actos.culturales@rabasf.org    Cumplimentando formulario de petición de reservas en la web     Información para la visita:    Por seguridad está prohibido el acceso con mochilas, bolsos o carteras grandes, paraguas, comida, etc. que deberán depositarse en taquilla  No está permitido el uso de los teléfonos móviles  Una silla de ruedas y un ascensor están a disposición del visitante que los solicite  Se permiten tomas fotográficas con cámara o videocámara pequeña sin flash ni trípode   La Academia no tiene cafetería. La entrada con fecha del día es válida hasta 15 minutos antes del cierre;1;http://www.madrid.es/sites/v/index.jsp?vgnextchannel=9e4c43db40317010VgnVCM100000dc0ca8c0RCRD&vgnextoid=924aef4d7f71c010VgnVCM1000000b205a0aRCRD;ALCALA;CALLE;V;13;;;;;MADRID;MADRID;28014;SOL;CENTRO;440558;4474350;40.41765456;-3.700655352;"915 240 864 (Centralita)                                                    
";915 241 034;museo@rabasf.org;/contenido/entidadesYorganismos/MonumentosEdificiosArtisticos;Monumento
2066;Museo del Ferrocarril de Madrid;Edificio de caracter monumental. Construido como cabecera de la línea Madrid - Extremadura - Portugal en el año 1880 por E. Cachelievre.;Del 1 de enero al 31 de mayo y del 1 de octubre al 31 de diciembre:    Lunes a viernes, de 9:30 a 15 horas.  Sábado, domingo y festivos de 10 a 19 horas    Del 1 de junio al 30 de septiembre   Lunes a domingo, de 10 a 15 horas.   Cerrado: 25 de diciembre, 1 y 6 de enero.;Tienda  Teatro  Librería  Cafetería  Archivo y Biblioteca  Parque ferroviario  Salas de Tracción, de Modelismo Ferroviario, de Infraestructura y de Relojes    Actividades    Tren de jardín:  todos los domingos, de 11.30 a 14 horas (excepto julio y agosto).    Teatro familiar:  sábados, domingos y festivos, a las 13 horas (excepto julio y agosto)   Feria de coleccionismo 'La Estación' : primer sábado de cada mes (excepto agosto), de 10 a 19 horas. Junio y julio de 10 a 15 horas.   Mercadillo de Modelismo : primer domingo de cada mes, de 10 a 15 horas (excepto agosto).   Mercado de Motores : segundo sábado y domingo del mes, de 11 a 21 horas (excepto agosto). El Museo cierra en su actividad ordinaria y el acceso es gratuito.;Metro: Delicias (línea 3)  Bus: 8, 19, 45, 47, 59, 85, 86  Renfe: Delicias;;1;http://www.madrid.es/sites/v/index.jsp?vgnextchannel=9e4c43db40317010VgnVCM100000dc0ca8c0RCRD&vgnextoid=091c4291ae91f010VgnVCM2000000c205a0aRCRD;DELICIAS;PASEO;V;61;;;;;MADRID;MADRID;28045;DELICIAS;ARGANZUELA;441124;4472418;40.40028129;-3.693817192;"915 390 085                                                                                
";;;/contenido/entidadesYorganismos/MonumentosEdificiosArtisticos;Monumento
2053;Museo Lázaro Galdiano;;"Martes a sábados de 10 a 16:30 horas.  Domingos de 10 a 15 horas.  Cerrado todos los lunes, y 6 de enero; 29 y 30 de marzo; 1 y 2 de mayo; 15 de agosto; 1 de noviembre y 24, 25 y 31 de diciembre de 2018.  Grupos y visitas guiadas consultar.";;Metro: Gregorio Marañón (línea 7 y 10).  Bus: 7, 9, 12, 14, 16, 19, 27, 40, 61, 145, 150.;;1;http://www.madrid.es/sites/v/index.jsp?vgnextchannel=9e4c43db40317010VgnVCM100000dc0ca8c0RCRD&vgnextoid=7d1aef4d7f71c010VgnVCM1000000b205a0aRCRD;SERRANO;CALLE;V;122;;;;;MADRID;MADRID;28006;CASTELLANA;SALAMANCA;441802;4476460;40.43675033;-3.686198013;915 616 084;915 617 793;;/contenido/entidadesYorganismos/MonumentosEdificiosArtisticos;Monumento
2055;Museo Nacional de Artes Decorativas;Inaugurado en 1912, su sede es un típico palacete madrileño del último tercio del siglo XIX. El museo posee muebles, cerámicas, vidrios, joyas, tejidos, arte oriental, y hasta 30 000 objetos distintos que a lo largo de la historia han servido para embellecer las casas, palacios y los monumentos de distintas culturas.  El museo posee muestras como el Jarrón de Sevres regalo de Napoleón III, la Cocina Valenciana del siglo XVIII compuesta por más de 1500 azulejos de Manises, la Mesa de plata del siglo XVI o la colección de alfombras españolas de los siglos XV al XVII.;Colección permanente:    Martes a sábados de 9:30 a 15 horas.  Domingo y festivos: de 10 a 15 horas.  Jueves tarde de 17 a 20 horas.   Cerrado:   todos los lunes del año, 1 y 6 de enero, 1 y 15 de mayo, 24, 25 y 31 de diciembre.;;Metro: Retiro (línea 2).  Bus: 1, 2, 9, 10, 14, 15, 19, 20, 27,  28, 34, 37, 45 51, 52, 74, 146, 203.  Cercanías Renfe: Recoletos (líneas C1, C2, C7, C8 Y C10).;El Museo dispone de una rampa de acceso al edificio en la C/ Montalbán. Para su uso, es necesario avisar con antelación al personal del Museo. El acceso a las diferentes plantas, puede realizarse mediante ascensor. Debido a las dimensiones del mismo, es necesario emplear en él las sillas de ruedas que el Museo pone a su disposición, previa solicitud.;2;http://www.madrid.es/sites/v/index.jsp?vgnextchannel=9e4c43db40317010VgnVCM100000dc0ca8c0RCRD&vgnextoid=287079262ef5d010VgnVCM1000000b205a0aRCRD;MONTALBAN;CALLE;V;12;;;;;MADRID;MADRID;28014;LOS JERONIMOS;RETIRO;441483;4474369;40.41789128;-3.689754685;915 326 499 / 915 326 845 / 910 505 755 (Reserva actividades infantiles) / 910 505 768 (Biblioteca) 910 505 763 (Atención a investigadores);915 232 086;mnad@mecd.es;/contenido/entidadesYorganismos/MonumentosEdificiosArtisticos;Monumento
2056;Museo Nacional de Ciencias Naturales;El Museo nacional de Ciencias Naturales (MNCN-CSIC) se fundó en 1771, lo que lo convierte en uno de los museos de historia natural más antiguos del mundo. Con exposiciones permanentes como Biodiversidad, Minerales, Fósiles y Evolución Humana o Fauna del Parque Nacional de la Sierra de Guadarrama, entre otras, este museo pretende acercar las ciencias naturales al público.  Ubicado en el antiguo Palacio de la Industria y de las Artes del Paseo de la Castellana de Madrid. Es un centro de investigación del Consejo Superior de Investigaciones Científicas (CSIC), que custodia colecciones científicas de incalculable valor.;De martes a viernes de 10 a 17 horas.  Sábados, domingos y festivos de 10 a 20 horas.  Sábados, domingos y festivos de agosto de 10 a 15 horas.       Cerrado : todos los lunes no festivos, 1 y 6 de enero, 1 de mayo y 25 de diciembre.;Biblioteca de Zoología, Entomología, Econología, Evolución, Geología y Paleontología, Archivo, publicaciones, consulta y asesoramiento científico y técnico, exposiciones permanentes y temporales, actividades culturales, talleres, cursos, sala de proyecciones, librería especializada.;Metro: Gregorio Marañón (líneas 7, 10)  Bus: 7, 12, 14, 27, 40, 45, 147, 150;;1;http://www.madrid.es/sites/v/index.jsp?vgnextchannel=9e4c43db40317010VgnVCM100000dc0ca8c0RCRD&vgnextoid=8edbef4d7f71c010VgnVCM1000000b205a0aRCRD;JOSE GUTIERREZ ABASCAL;CALLE;V;2;;;;;MADRID;MADRID;28006;EL VISO;CHAMARTIN;441463;4476870;40.44042008;-3.690220716;914 111 328 (centralita);915 645 078;;/contenido/entidadesYorganismos/MonumentosEdificiosArtisticos;Monumento
2099;Museo Nacional Thyssen-Bornemisza;El Palacio donde se ubica la colección fue el antiguo palacio del duque de Villahermosa. Edificación neoclásica. Posteriormente se adapta como entidad bancaria perdiento sus espacios interiores. Más tarde, pasó a formar parte de los edificios del Museo del Prado. Desde principios de los 90 alberga la Colección Thyssen. El museo ofrece un recorrido por la historia de la pintura europea desde sus inicios en el siglo  XIII , hasta finales del siglo  XX.;Colecciones permanentes:   lunes de 12 a 16 horas (acceso gratuito gracias al patrocinio de MasterCard). Martes a domingos de 10 a 19 horas.    Exposiciones temporales : consultar horario específico en Museo.  Último acceso 1 hora antes del cierre. El desalojo de todas las salas tendrá lugar 5 minutos antes del cierre.   Avisos y aperturas extraordinarias:  los días 1 de enero, 1 de mayo y 25 de diciembre el Museo permanecerá cerrado. El 24 y el 31 de diciembre el horario de apertura del Museo será de 10 a 15 horas.;Accesible a personas con discapacidad (física y sensorial)   Folleto y señalización en braille para invidentes  Librería  Tienda  Cafetería  Restaurante  Guardarropa  Servicio de venta anticipada en las taquillas  Servicio de Audio Guía;Metro: Banco de España (línea 2).  Bus: 1, 2, 5, 9, 10, 14, 15, 20, 27, 34, 37, 41, 51, 52, 53, 74, 146 y 150.  Cercanías Renfe: Recoletos.;Arquitecto: Antonio López Aguado (1805 - 1806)  Adecuación: Rafael Moneo (1989 - 1992)  Ampliación: BOPBAA (1999 - 2004);1;http://www.madrid.es/sites/v/index.jsp?vgnextchannel=9e4c43db40317010VgnVCM100000dc0ca8c0RCRD&vgnextoid=0b8079262ef5d010VgnVCM1000000b205a0aRCRD;PRADO;PASEO;V;8;;;;;MADRID;MADRID;28014;CORTES;CENTRO;441058;4474164;40.41600554;-3.694744831;"917 911 370                                                                                                                                                                                                                        
";;cav@museothyssen.org;/contenido/entidadesYorganismos/MonumentosEdificiosArtisticos;Monumento
20484;Palacio de Buenavista. Cuartel General del Ejército de Tierra;El actual Cuartel General del Ejército está formado por un conjunto de edificios entre los cuales destaca por su importancia y tamaño el palacio de Buenavista. Fue construido por el duodécimo duque de Alba, que compró en 1769 una finca situada en el lugar conocido como Altillo de Buenavista, que había tenido varios propietarios, entre ellos la Corona.  En 1847 se amplía con un nuevo cuerpo que se destina a Ministerio de la Guerra. El grupo escultórico de la fachada es obra de Aniceto Marías.;Relevo de la Guardia: último viernes de cada mes, a las 11 horas en la fachada de la calle de Alcalá.;;Metro: Banco de España (línea 2)  Bus: 1, 2, 5, 9, 10, 14, 15, 20, 27, 34, 37, 45, 51, 52, 53, 74, 146, 150, 203  BICIMAD: Estación 86 (Paseo del Prado, 1);Toda la información en la  página web  de Monumentamadrid;3;http://www.madrid.es/sites/v/index.jsp?vgnextchannel=9e4c43db40317010VgnVCM100000dc0ca8c0RCRD&vgnextoid=e9c292355c51c010VgnVCM2000000c205a0aRCRD;CIBELES;PLAZA;V;3;;;;;MADRID;MADRID;28014;JUSTICIA;CENTRO;441152;4474568;40.41966063;-3.693674408;917 802 200;;;/contenido/entidadesYorganismos/MonumentosEdificiosArtisticos;Monumento
13815;Palacio de Cibeles;;;Sede de la Alcaldía de Madrid  CentroCentro   Galería de Cristal  Mirador Madrid  Cafetería Colección Cibeles (planta 2)  Restaurante Palacio de Cibeles (planta 6)  Tienda-Librería (planta 2) (cerrada provisionalmente);Metro: Banco de España (línea 2)  Bus: 1 , 2 , 5 , 9 , 10 , 15 , 20 , 27 , 34 , 45 , 51 , 52 , 53 , 74 , 146 , 150  Renfe: Recoletos;;1;http://www.madrid.es/sites/v/index.jsp?vgnextchannel=9e4c43db40317010VgnVCM100000dc0ca8c0RCRD&vgnextoid=535e5a0f8161c010VgnVCM1000000b205a0aRCRD;CIBELES;PLAZA;V;1;;;;;MADRID;MADRID;28014;LOS JERONIMOS;RETIRO;441277;4474496;40.41901177;-3.692206112;;;;/contenido/entidadesYorganismos/MonumentosEdificiosArtisticos;Monumento
2063;Palacio de Liria;Construído por Ventura Rodríguez entre 1762 y 1780 para el tercer Duque de Berwick y de Liria. De estilo barroco clásico. Destaca su fachada con columnas jónicas y pilastras que descansan sobre un basamento almohadillado.;Las visitas:  viernes a las 10, 11 y 12 horas . Cada turno estará formado por un máximo de 15 personas.;;Metro: Ventura Rodríguez (línea 3)  Bus: 1, 2, 44, 74, 133, C;Para realizar dichas visitas deberán solicitarlo por escrito y enviarlo a través de cualquiera de las siguientes opciones:   Rellenando un formulario en :  http://www.fundacioncasadealba.com/visitas-al-palacio-de-liria-de-madrid.php   Enviando un e-mail a visitas@fundacioncasadealba.com, indicando nombre, teléfono y número de personas.  Enviando un fax al número +0034 915 410 377, indicando nombre, teléfono y número de personas.  Enviando una carta a la siguiente dirección: Fundación Casa de Alba. C/ Princesa 20. 28008 Madrid  Llamando al siguiente número de teléfono: +0034 915 481 550    Horario:  Cada año, el palacio de Liria permanece cerrado al público desde mediados de junio hasta el primer viernes de octubre, y desde mediados de diciembre a mediados de enero, debido a las tareas de mantenimiento y conservación del mismo.;1;http://www.madrid.es/sites/v/index.jsp?vgnextchannel=9e4c43db40317010VgnVCM100000dc0ca8c0RCRD&vgnextoid=22bdef4d7f71c010VgnVCM1000000b205a0aRCRD;PRINCESA;CALLE;V;20;;;;;MADRID;MADRID;28008;UNIVERSIDAD;CENTRO;439663;4475582;40.42680682;-3.712597973;915 475 302 / 915 481 550;915 410 377;info@fundacioncasadealba.com;/contenido/entidadesYorganismos/MonumentosEdificiosArtisticos;Monumento
114984;Palacio de Santoña;Es una construcción del siglo  XVI , reformada posteriormente en el siglo  XVIII   por el arquitecto Pedro de Ribera, y en el siglo  XIX  por Antonio Ruiz de Salces.;;;Metro: Antón Martín (línea 1)  Bus: 6, 26, 32, 50, 65;;0;http://www.madrid.es/sites/v/index.jsp?vgnextchannel=9e4c43db40317010VgnVCM100000dc0ca8c0RCRD&vgnextoid=3790007f8441f010VgnVCM1000000b205a0aRCRD;HUERTAS;CALLE;V;13;;;;;MADRID;MADRID;28012;CORTES;CENTRO;440677;4474150;40.41397974;-3.700511155;;;;/contenido/entidadesYorganismos/MonumentosEdificiosArtisticos;Monumento
2061;Palacio Real de El Pardo;Recinto en el que se conserva el Palacio, construido sobre el castillo del siglo  XV , la Casita del Príncipe, del siglo  XVIII  y la Quinta del Duque de Arco (Palacete que fue Casa de Labor y sus tierras). Desde 1983 ha sido adecuado para residencia de Jefes de Estado extranjeros en visita oficial.;Horario    De octubre a marzo: todos los días de 10 a 18 horas   De abril a septiembre: todos los días de 10 a 20 horas    Cierre taquillas y acceso a Palacio una hora antes;;Bus: 601 (Madrid - Colonia Mingorrubio);Días de cierre 2018    1 de enero: cerrado en jornada completa  6 de enero: cerrado en jornada completa  8 de abril: cierre a partir de las 15 horas  Del 9 al 19 de abril, ambos inclusive: cerrado en jornada completa  Del 27 de abril al 4 de mayo, ambos inclusive: cerrado en jornada completa  1 de mayo: cerrado en jornada completa  Del 24 al 27 de septiembre de 2018, permanecerá cerrado en jornada completa  24 de diciembre: cerrado en jornada completa  25 de diciembre: cerrado en jornada completa  31 de diciembre: cerrado en jornada completa  Además de los cierres ya previstos, puede haber cierres adicionales motivados también por la celebración de actos oficiales    Servicio de reserva y venta de entradas    Teléfono de venta y reserva: 902 044 454   Página web;1;http://www.madrid.es/sites/v/index.jsp?vgnextchannel=9e4c43db40317010VgnVCM100000dc0ca8c0RCRD&vgnextoid=9f9def4d7f71c010VgnVCM1000000b205a0aRCRD;MANUEL ALONSO;CALLE;V;8;;;;;MADRID;MADRID;28048;EL PARDO;FUENCARRAL-EL PARDO;434247;4485823;40.52052234;-3.776239061;914 548 700 (Información general);;info@patrimonionacional.es;/contenido/entidadesYorganismos/MonumentosEdificiosArtisticos;Monumento
2062;Palacio Real de Madrid;Construido sobre el solar del antiguo Alcázar tras un incendio en 1734. Proyectado por Juvara en 1735 y construido por Sachet de 1738 a 1764 bajo las influencias del clasicismo barroco. A partir de 1770, Sabatini añadió el ala sudeste y realizó la gran escalera. Es de destacar el gran patio que articula el edificio y la fachada principal que aloja el balcón y Escudo Real.;Horario    De octubre a marzo: de 10 a 18 horas  De abril a septiembre: de 10 a 20 horas  Cierre taquillas y acceso a Palacio una hora antes;Relevo solemne de la Guardia en el Palacio Real de Madrid   La Guardia Real realiza este relevo una vez al mes. El acto tiene una duración aproximada de 50 minutos, comienza a las 12 horas de la mañana los primeros miércoles de cada mes, exceptuando los de los meses de enero, agosto y septiembre, siempre y cuando los actos oficiales lo permitan. La entrada es libre y gratuita por la Puerta de Santiago, que da acceso a la Plaza de la Armería desde la calle Bailén. Como colofón al acto, la Unidad de Música suele interpretar un concierto en la lonja de la Puerta del Príncipe (calle Bailén).   Relevo de la Guardia en la Puerta del Príncipe del Palacio Real de Madrid   El acto se lleva a cabo todos los miércoles y sábados del mes, desde las 11 hasta las 14 horas, exceptuando del 17 de junio al 15 de septiembre que será desde las 10 hasta las 12 horas, siempre y cuando los actos oficiales o la climatología lo permitan.;Metro: Ópera (líneas 2, 5 y Ramal Ópera Norte)  Bus: 3, 25, 39, 148  Cercanías: Príncipe Pío;"Días de cierre para 2018    Octubre de 2018.     Día 6 cerrado hasta las 14 horas. C.R.V.: cerrado duración del Acto;Día 10 Salones Oficiales: cerrado todo el día; Real Armería y Real Cocina: abierto en su horario habitual, con tarifa de apertura parcial y específica, respectivamente. C.R.V.: abierto en su horario habitual;   Día 11: Salones Oficiales: cerrado todo el día; Real Armería y Real Cocina: abierto en su horario habitual, con tarifa de apertura parcial y específica, respectivamente. C.R.V.: abierto en su horario habitual;   Día 12:  cerrado en jornada completa; (una vez finalizado el Acto, posibilidad de apertura de la Real Armería y del C.R.V.). Pendiente de confirmación.    Día 23: Salones Oficiales: cerrado todo el día; Real Armería y Real Cocina: abierto en su horario habitual, con tarifa de apertura parcial y específica, respectivamente. C.R.V.: abierto en su horario habitual;    Día 24: cerrado en jornada completa; C.R.V.: cerrado duración del Acto;   24 de diciembre: cerrado a partir de las 15 horas  25 de diciembre: cerrado en jornada completa  31 de diciembre: cerrado a partir de las 15 horas   Además de los cierres ya previstos, puede haber cierres adicionales motivados también por la celebración de actos oficiales.";1;http://www.madrid.es/sites/v/index.jsp?vgnextchannel=9e4c43db40317010VgnVCM100000dc0ca8c0RCRD&vgnextoid=47ddef4d7f71c010VgnVCM1000000b205a0aRCRD;BAILEN;CALLE;V;0;;;;;MADRID;MADRID;28013;PALACIO;CENTRO;439540;4474703;40.42075213;-3.712699107;914 548 700 (Información general);;info@patrimonionacional.es;/contenido/entidadesYorganismos/MonumentosEdificiosArtisticos;Monumento
2079;Panteón de Hombres Ilustres;La construcción de este edificio responde a dos de las constantes de fines de siglo: la arquitectura historicista y la escultura funeraria. En él reposan trece personajes ilustres de la historia política y militar española.;De martes a sábado de 10 a 14 y de 16 a 18:30 horas  Domingos y festivos de 10 a 15 horas. Lunes cerrado  Cerrado todos los lunes del año;;Metro: Atocha (línea 1)  Bus: 10, 14, 24, 32, 37, 54, 57, 141  Renfe: Atocha;Cierres por acto oficial o festividad en el municipio:    1 de enero: Cerrado en jornada completa  6 de enero: Cerrado en jornada completa    Días de horario reducido o apertura parcial    31 de diciembre: Abierto de 10:00 a 15:00 horas (último acceso a las 14:30);0;http://www.madrid.es/sites/v/index.jsp?vgnextchannel=9e4c43db40317010VgnVCM100000dc0ca8c0RCRD&vgnextoid=361cef4d7f71c010VgnVCM1000000b205a0aRCRD;JULIAN GAYARRE;CALLE;V;3;;;;;MADRID;MADRID;28014;PACIFICO;RETIRO;442121;4473278;40.40622618;-3.683413042;914 548 700 (Información general);;info@patrimonionacional.es;/contenido/entidadesYorganismos/MonumentosEdificiosArtisticos;Monumento
3351;Parroquia Nuestra Señora del Buen Consejo y San Isidro;;;;Metro: La Latina (línea 5), Tirso de Molina (línea 1)  Bus: 17, 18, 23, 31, 35, 50, 65;;3;http://www.madrid.es/sites/v/index.jsp?vgnextchannel=9e4c43db40317010VgnVCM100000dc0ca8c0RCRD&vgnextoid=88a513db5b71c010VgnVCM1000000b205a0aRCRD;TOLEDO;CALLE;V;37;;;;;MADRID;MADRID;28005;EMBAJADORES;CENTRO;439984;4473834;40.41296492;-3.707383827;913 692 037;;;/contenido/entidadesYorganismos/MonumentosEdificiosArtisticos;Monumento
3374;Parroquia San Fermín de los Navarros;;;;Metro:  Rubén Darío (Línea 5)  Bus: 5, 7, 14, 16, 27, 40, 45, 147, 150;;3;http://www.madrid.es/sites/v/index.jsp?vgnextchannel=9e4c43db40317010VgnVCM100000dc0ca8c0RCRD&vgnextoid=26390713fb71c010VgnVCM1000000b205a0aRCRD;EDUARDO DATO;PASEO;V;10;;;;;MADRID;MADRID;28010;ALMAGRO;CHAMBERI;441257;4476021;40.43275736;-3.692571049;913 197 148;;;/contenido/entidadesYorganismos/MonumentosEdificiosArtisticos;Monumento
3352;Parroquia San Ginés;;;;Metro: Opera (líneas 2, 5, Ramal)  Bus:  3, 39  Renfe: Sol;;3;http://www.madrid.es/sites/v/index.jsp?vgnextchannel=9e4c43db40317010VgnVCM100000dc0ca8c0RCRD&vgnextoid=520a0713fb71c010VgnVCM1000000b205a0aRCRD;ARENAL;CALLE;V;13;;;;;MADRID;MADRID;28013;SOL;CENTRO;440017;4474313;40.41728243;-3.707028285;913 664 875;;;/contenido/entidadesYorganismos/MonumentosEdificiosArtisticos;Monumento
3370;Parroquia San José;;;;Metro: Banco de España (línea 2) , Sevilla (línea 2), Gran Vía (Iíneas 1, 5)  Bus: 3, 5, 9, 46, 51, 52, 53, 146, 150;Descripción monumental.  Convento de Carmelitas Descalzas trazado por Pedro de Ribera entre los años 1730 y 1742.;3;http://www.madrid.es/sites/v/index.jsp?vgnextchannel=9e4c43db40317010VgnVCM100000dc0ca8c0RCRD&vgnextoid=e41a0713fb71c010VgnVCM1000000b205a0aRCRD;ALCALA;CALLE;V;43;;;;;MADRID;MADRID;28014;JUSTICIA;CENTRO;441006;4474710;40.41904792;-3.696685679;915 226 784;;;/contenido/entidadesYorganismos/MonumentosEdificiosArtisticos;Monumento
3375;Parroquia San Manuel y San Benito;;;;Metro: Retiro (línea 2), Príncipe de Vergara (líneas 2, 9)  Bus: 2, 20, 28;;3;http://www.madrid.es/sites/v/index.jsp?vgnextchannel=9e4c43db40317010VgnVCM100000dc0ca8c0RCRD&vgnextoid=b17a0713fb71c010VgnVCM1000000b205a0aRCRD;ALCALA;CALLE;V;83;;;;;MADRID;MADRID;28009;RECOLETOS;SALAMANCA;441801;4474684;40.42074218;-3.686047115;914 357 682;;;/contenido/entidadesYorganismos/MonumentosEdificiosArtisticos;Monumento
3372;Parroquia San Marcos;;;;Bus: 138, 1, 2, 44, C1, 133, 74   Metro: Plaza de España (líneas 3, 10), Noviciado (línea 2);;3;http://www.madrid.es/sites/v/index.jsp?vgnextchannel=9e4c43db40317010VgnVCM100000dc0ca8c0RCRD&vgnextoid=448a0713fb71c010VgnVCM1000000b205a0aRCRD;SAN LEONARDO;CALLE;V;10;;;;;MADRID;MADRID;28015;UNIVERSIDAD;CENTRO;439674;4475146;40.4247616;-3.711161786;915 471 079 ;;;/contenido/entidadesYorganismos/MonumentosEdificiosArtisticos;Monumento
3369;Parroquia San Millán y San Cayetano;;;;Metro: Latina (línea 5), Lavapiés (línea 3)  Bus: M1  Renfe: Embajadores;;3;http://www.madrid.es/sites/v/index.jsp?vgnextchannel=9e4c43db40317010VgnVCM100000dc0ca8c0RCRD&vgnextoid=d69a0713fb71c010VgnVCM1000000b205a0aRCRD;EMBAJADORES;CALLE;NUM;15;;;;;MADRID;MADRID;28012;EMBAJADORES;CENTRO;440116;4473445;40.40946112;-3.705791429;915 270 790;;;/contenido/entidadesYorganismos/MonumentosEdificiosArtisticos;Monumento
63393;Parroquia San Nicolás de Bari de los Servitas;;;Parroquia personal de habla italiana;Metro: Opera (líneas 2, 5, ramal)  Bus: 3, 148;;3;http://www.madrid.es/sites/v/index.jsp?vgnextchannel=9e4c43db40317010VgnVCM100000dc0ca8c0RCRD&vgnextoid=7838f0bde551c010VgnVCM2000000c205a0aRCRD;SAN NICOLAS;PLAZA;V;6;;;;;MADRID;MADRID;28013;PALACIO;CENTRO;439605;4474152;40.41579326;-3.711868853;915 594 064;;;/contenido/entidadesYorganismos/MonumentosEdificiosArtisticos;Monumento
3358;Parroquia Santa Bárbara;;;;Metro: Alonso Martínez (líneas 4, 5, 10)  Bus: 3, 5, 14, 21, 27, 37, 45, 53, 150  Renfe: Recoletos;;3;http://www.madrid.es/sites/v/index.jsp?vgnextchannel=9e4c43db40317010VgnVCM100000dc0ca8c0RCRD&vgnextoid=6effb069a541f010VgnVCM1000000b205a0aRCRD;"GENERAL CASTA&Ntilde;OS";CALLE;V;2;;;;;MADRID;MADRID;28004;JUSTICIA;CENTRO;441121;4475082;40.42428879;-3.694087388;913 194 811;;;/contenido/entidadesYorganismos/MonumentosEdificiosArtisticos;Monumento
3362;Parroquia Santa Cruz;;;;Metro: Sol (líneas 1, 2, 3), Tirso de Molina (línea 1)  Bus: 50. 6, 26, 32, 65, 18, 23, 17, M1  Renfe: Sol;;3;http://www.madrid.es/sites/v/index.jsp?vgnextchannel=9e4c43db40317010VgnVCM100000dc0ca8c0RCRD&vgnextoid=40e0b069a541f010VgnVCM1000000b205a0aRCRD;ATOCHA;CALLE;V;6;;;;;MADRID;MADRID;28012;SOL;CENTRO;440165;4474015;40.41460856;-3.705255882;913 691 239;;parroquiadesantacruz@hotmail.com / santacruz@archimadrid.es;/contenido/entidadesYorganismos/MonumentosEdificiosArtisticos;Monumento
3373;Parroquia Santiago y San Juan Bautista;;;;Metro: Ópera (línea 2, 5, Ramal)  Bus: 3, 25, 39, 148;;3;http://www.madrid.es/sites/v/index.jsp?vgnextchannel=9e4c43db40317010VgnVCM100000dc0ca8c0RCRD&vgnextoid=e235b069a541f010VgnVCM1000000b205a0aRCRD;SANTIAGO;PLAZA;V;24;;;;;MADRID;MADRID;28013;PALACIO;CENTRO;439693;4474231;40.41652032;-3.710839267;915 480 824;;;/contenido/entidadesYorganismos/MonumentosEdificiosArtisticos;Monumento
20557;Plaza de Oriente;Diseñada por González Velázquez. Se empieza a construir en 1816, tomándose como eje el Teatro Real enfrentado al Palacio Real. Su trazado definitivo se realiza en 1850 por Narciso Pascual Colomer. Entre 1994 y 1997 se llevó a cabo la remodelación que integra en un conjunto peatonal el Palacio Real y el Teatro de la Opera, siguiendo el proyecto de los arquitectos Miguel Oriol e Ibarra y Miguel Botella Ruiz-Castillo. Los jardines situados frente al Palacio Real. En el centro de la plaza se encuentra la estatua ecuestre de Felipe IV, obra fundida por Pietro Tacca según cálculos de Galileo Galilei.;;;Metro: Ópera (líneas 2, 5, R)  Bus: 3, 25, 33, 39, 148;;0;http://www.madrid.es/sites/v/index.jsp?vgnextchannel=9e4c43db40317010VgnVCM100000dc0ca8c0RCRD&vgnextoid=773492355c51c010VgnVCM2000000c205a0aRCRD;ORIENTE;PLAZA;S/N;0;;;;;MADRID;MADRID;28013;PALACIO;CENTRO;0;0;;;;;;/contenido/entidadesYorganismos/MonumentosEdificiosArtisticos;Monumento
20563;Plaza Mayor;Lugar emblemático de Madrid con origen en la antigua Plaza del Arrabal, extramuros del recinto medieval y foco comercial del primitivo Madrid. Tuvo forma irregular debido a su crecimiento espontáneo,  y fue objeto de varios proyectos de regularización. Al ser elegida Madrid como capital, se vio la necesidad de crear una auténtica Plaza Mayor y Felipe  II   se lo encargó a Juan de Herrera. En el siglo  XIX   se colocó la estatua de Felipe  III  a cuyo reinado pertenece la construcción de la plaza.  Este año se celebra el  IV Centenario de su construcción.;;Todos los domingos de 9 a 14 horas se celebra un mercadillo filatélico (sellos);Metro: Sol (líneas 1, 2, 3), Tirso de Molina (línea 1)  Bus: 3, 17, 18, 23, 31;Más información en la  página web de Monumenta Madrid  y  https://plazamayormadrid4c.es;0;http://www.madrid.es/sites/v/index.jsp?vgnextchannel=9e4c43db40317010VgnVCM100000dc0ca8c0RCRD&vgnextoid=0a4492355c51c010VgnVCM2000000c205a0aRCRD;MAYOR;PLAZA;V;0;;;;;MADRID;MADRID;28012;SOL;CENTRO;440156;4474266;40.41498736;-3.706662448;;;;/contenido/entidadesYorganismos/MonumentosEdificiosArtisticos;Monumento
2430;Plaza Monumental de Toros de las Ventas;De estilo neomudéjar se terminó de construir en el año 1931. Basada en un proyecto de José Espelius, quien murió antes de la conclusión de las obras, fue terminada por Manuel Muñoz Monasterio. El terreno se presenta en talud, salvado desde la Avenida de los Toreros mediante escalinatas que interrumpen el trazado ajardinado.;La plaza de toros de Las Ventas está abierta  todos los días de 10 a 17:30 horas, para realización de visitas guiadas .   Los días de corrida se cierra 4 horas antes del inicio del espectáculo, que se celebran:   Todos los domingos desde finales de marzo hasta principios de octubre.  Durante la Feria de San Isidro en mayo y junio.  Durante la Feria de Otoño en septiembre-octubre.  Días de cierre: 25 de diciembre y 1 de enero. El 24 de diciembre se abre hasta las 14:00 horas. Los días 31 de diciembre, 5 y 6 de enero se abre en horario normal de 10 a 17:30 horas.;;Metro: Ventas (líneas 2, 5)  Bus: 12, 21, 38, 53, 74, 106, 110, 146, 210.;;1;http://www.madrid.es/sites/v/index.jsp?vgnextchannel=9e4c43db40317010VgnVCM100000dc0ca8c0RCRD&vgnextoid=5d7d0713fb71c010VgnVCM1000000b205a0aRCRD;ALCALA;CALLE;V;237;;;;;MADRID;MADRID;28028;GUINDALERA;SALAMANCA;443885;4476078;40.43158011;-3.662872869;913 562 200 ;;comunicacion@plazauno.es;/contenido/entidadesYorganismos/MonumentosEdificiosArtisticos;Monumento
7714918;Puerta del Sol;Toma su nombre de un postigo de la antigua muralla medieval que estaba decorado con un Sol y que se derribó en el siglo XVII, el lugar conservó el nombre. En origen fue un punto exterior de la ciudad, aunque debido al crecimiento de Madrid y a su  situación fue convirtiéndose poco a poco en el centro de la capital. En 1857 ,el Ministerio de Fomento  convoca un concurso quedando aprobada la reforma de Lucio del Valle, Juan Rivera y José Morer, que conservaba la alineación de la antigua Casa de Correos en uno de los lados, mientras que el otro adoptaba una forma semicircular.;;;Metro: Sol (líneas 1, 2, 3)  Bus: 15, 20, 51, 52, 53;;0;http://www.madrid.es/sites/v/index.jsp?vgnextchannel=9e4c43db40317010VgnVCM100000dc0ca8c0RCRD&vgnextoid=af0ae1abeee79410VgnVCM2000000c205a0aRCRD;PUERTA DEL SOL;PLAZA;V;1;;;;;MADRID;MADRID;28013;SOL;CENTRO;440530;4474474;40.41688798;-3.702274003;;;;/contenido/entidadesYorganismos/MonumentosEdificiosArtisticos;Monumento
2124;Real Academia de Ciencias Morales y Políticas;;;;Metro: Sol (líneas 1, 2, 3), Ópera (líneas 2, 5)  Bus: 3, 31, 50, 65  Renfe: Sol  BICIMAD: Estación 9 (Plaza San Miguel, 9);Más información en la  página web de Monumenta Madrid;3;http://www.madrid.es/sites/v/index.jsp?vgnextchannel=9e4c43db40317010VgnVCM100000dc0ca8c0RCRD&vgnextoid=f35bff632081c010VgnVCM1000000b205a0aRCRD;DE LA VILLA;PLAZA;V;2;;;;;MADRID;MADRID;28005;PALACIO;CENTRO;439745;4474079;40.41515473;-3.710223775;915 481 330 / 917 581 505 (Biblioteca);;secretaria@racmyp.es;/contenido/entidadesYorganismos/MonumentosEdificiosArtisticos;Monumento
2128;Real Academia de Jurisprudencia y Legislación;;De  lunes a jueves   9:30 a 14 y de 17 a 20 horas. Viernes de 9:30 a 14 horas.;;Metro: Banco de España (línea 2)  Bus: 1, 2, 5, 9, 10, 14, 15, 20, 27, 34, 37, 45, 46, 51, 52, 53, 74, 146, 150, M2  BICIMAD: Estación 29 (calle Marqués de Cubas, 25);;3;http://www.madrid.es/sites/v/index.jsp?vgnextchannel=9e4c43db40317010VgnVCM100000dc0ca8c0RCRD&vgnextoid=866bff632081c010VgnVCM1000000b205a0aRCRD;MARQUÉS DE CUBAS;CALLE;V;13;;;;;MADRID;MADRID;28014;CORTES;CENTRO;440996;4474329;40.41749648;-3.695502754;915 222 069;915 234  021;secretaria@rajyl.es;/contenido/entidadesYorganismos/MonumentosEdificiosArtisticos;Monumento
2127;Real Academia de la Historia;;De 8:30 a 15:30 horas.;;Metro: Antón Martín (línea 1)  Bus: M1, 6, 26, 32  BICIMAD: Estación 41 (calle Atocha, 54);;3;http://www.madrid.es/sites/v/index.jsp?vgnextchannel=9e4c43db40317010VgnVCM100000dc0ca8c0RCRD&vgnextoid=197bff632081c010VgnVCM1000000b205a0aRCRD;DE LEÓN;CALLE;V;21;;;;;MADRID;MADRID;28014;CORTES;CENTRO;440695;4473885;40.41346631;-3.699008959;914 290 611 ;913 694 636;;/contenido/entidadesYorganismos/MonumentosEdificiosArtisticos;Monumento
2126;Real Academia Nacional de Farmacia;;De lunes a jueves (no festivos) de 9:30 a 14:30 y de 15:30 a 21:30 horas.;;Metro: Chueca (línea 5), Tribunal (líneas 1 y 10)  Bus: 3  BICIMAD: Estación 6 (calle Hortaleza, 63);;3;http://www.madrid.es/sites/v/index.jsp?vgnextchannel=9e4c43db40317010VgnVCM100000dc0ca8c0RCRD&vgnextoid=3e9bff632081c010VgnVCM1000000b205a0aRCRD;FARMACIA;CALLE;V;9;;;;TAMBIÉN NÚMERO 11;MADRID;MADRID;28004;JUSTICIA;CENTRO;440645;4475051;40.42396663;-3.699707057;915 310 307  / 915 223 147;915 310 306;;/contenido/entidadesYorganismos/MonumentosEdificiosArtisticos;Monumento
3359;Real Basílica San Francisco el Grande;Conjunto conventual que sustituyó al monasterio franciscano medieval, construido por Francisco de las Cabezas entre 1761 y 1768, que fue relevado por Antonio Polo y que concluye Francisco Sabatini en 1784 donde se exponen colecciones de pinturas de los siglos  XVII  al  XIX.;Museo:     De martes a viernes de 10:30 a 12:30 y de 16 a 18 horas  Sábados de 10:30 a 12:30 y de 16 a 18 horas (si no se ofician actos religiosos).  Julio, agosto y septiembre: de martes a domingo de 10:30 a 12:30 y de 17 a 19 horas.;;Metro: La Latina (línea 5) , Puerta de Toledo (línea 5)  Bus:  3, 17, 18, 23, 31, 35, 36, 41, 50, 60, 65, 148, 749, C1, C2;;3;http://www.madrid.es/sites/v/index.jsp?vgnextchannel=9e4c43db40317010VgnVCM100000dc0ca8c0RCRD&vgnextoid=ef8d0713fb71c010VgnVCM1000000b205a0aRCRD;SAN BUENAVENTURA;CALLE;V;1;;;;;MADRID;MADRID;28005;PALACIO;CENTRO;439377;4473603;40.41084005;-3.714503846;913 653 800 ;;;/contenido/entidadesYorganismos/MonumentosEdificiosArtisticos;Monumento
6070;Real Colegio Santa Isabel - La Asunción;;;Horario ampliado - Comedor;Metro: Atocha , Antón Martín   Bus: 6 , 19 , 26 , 27 , 32 , 34 , 37 , 41 , 45 , 119 , C   Renfe: Atocha;"ENSEÑANZA: Educación Infantil (segundo ciclo) - Primaria - ESO - BACHILLERATO (Humanidades y C. Sociales - Ciencias y Tecnología) - Enseñanza biling&uuml;e";0;http://www.madrid.es/sites/v/index.jsp?vgnextchannel=9e4c43db40317010VgnVCM100000dc0ca8c0RCRD&vgnextoid=b2b9f3216571c010VgnVCM1000000b205a0aRCRD;SANTA ISABEL;CALLE;V;46;;;;;MADRID;MADRID;28012;EMBAJADORES;CENTRO;441006;4473664;40.40962512;-3.696576714;915 273 183 - 915 273 181;915 289 845;;/contenido/entidadesYorganismos/MonumentosEdificiosArtisticos;Monumento
2087;Real Fábrica de Tapices;;De lunes a viernes de 10 a 14 horas. Todo visitas guiadas (La última visita comienza a las 13 horas), es conveniente reservar por teléfono o por email.  Cerrado: sábados, domingos, festivos, Semana Santa y agosto.;Aforo 25 personas;Metro: Menéndez Pelayo (línea 1)  Bus: 10, 14, 26, 32, C;La entrada principal no es accesible para personas con movilidad reducida, pero si avisan con tiempo se les asiste para que puedan acceder con sillas de ruedas o andarines por la calle Fuenterrabía número 2.;3;http://www.madrid.es/sites/v/index.jsp?vgnextchannel=9e4c43db40317010VgnVCM100000dc0ca8c0RCRD&vgnextoid=53cbff632081c010VgnVCM1000000b205a0aRCRD;FUENTERRABIA;CALLE;V;2;;;;;MADRID;MADRID;28014;PACIFICO;RETIRO;442087;4473054;40.40608733;-3.68251597;914 340 550;;informacion@realfabricadetapices.com;/contenido/entidadesYorganismos/MonumentosEdificiosArtisticos;Monumento
6113673;Real Jardín Botánico;Centro de investigación del  CSIC  que alberga cuatro terrazas con plantas de América, Europa y el Pacífico, así como una colección de bonsáis.;El Jardín está abierto al público todos los días del año, excepto los días de Navidad y Año Nuevo.   Enero y febrero: de 10 a 18 horas  Marzo: de 10 a 19 horas  Abril: de 10 a 20 horas  De mayo a agosto de 10 a 21 horas  Septiembre: de 10 a 20 horas  Octubre: de 10 a 19 horas  Noviembre y diciembre: de 10 a 18 horas;;Metro: Atocha (línea 1)  Bus: 10, 14, 19, 24, 26, 27, 32, 34, 45, 57, 140, Circular  RENFE: Atocha;;0;http://www.madrid.es/sites/v/index.jsp?vgnextchannel=9e4c43db40317010VgnVCM100000dc0ca8c0RCRD&vgnextoid=e9234477786b0310VgnVCM2000000c205a0aRCRD;MURILLO;PLAZA;V;2;;;;;MADRID;MADRID;28014;LOS JERONIMOS;RETIRO;441395;4473967;40.41238215;-3.692032098;;;;/contenido/entidadesYorganismos/MonumentosEdificiosArtisticos;Monumento
3349;Real Monasterio de la Encarnación;Edificio construído por Juan Gómez de Mora de 1611 a 1616 como monasterio anejo al Alcázar Real, modelo de lo que se ha dado en llamar barroco madrileño. Cuenta con la reliquia de San Pantaleón.;De martes a sábado: de 10 a 14 horas y de 16 a 18:30 horas  Domingos y festivos: de 10 a 15 horas. Tardes cerrado  Cierre taquillas y acceso 45 minutos antes  Cerrado todos los lunes del año;;Metro:  Ópera (líneas 2, 5 y Ramal Ópera Príncipe Pío), Plaza de España (líneas 3, 10)  Bus:  1, 2, 3, 25, 39, 44, 46, 74, 75, 133, 138, 147, 148, C1, C2;;0;http://www.madrid.es/sites/v/index.jsp?vgnextchannel=9e4c43db40317010VgnVCM100000dc0ca8c0RCRD&vgnextoid=72ad0713fb71c010VgnVCM1000000b205a0aRCRD;ENCARNACION;PLAZA;V;1;;;;;MADRID;MADRID;28013;PALACIO;CENTRO;439634;4474582;40.41967801;-3.711567963;914 548 700 (Información general);;info@patrimonionacional.es;/contenido/entidadesYorganismos/MonumentosEdificiosArtisticos;Monumento
4707297;Real Monasterio de Santa Isabel;El Real Monasterio de Santa Isabel está situado en Madrid, dentro de la ciudad histórica, en una gran manzana, próxima a Atocha.  Santa Isabel agrupa dos fundaciones, un colegio de niñas, establecido por Felipe  II , y un convento de clausura de monjas agustinas recoletas, fundado por la esposa de Felipe  III , doña Margarita de Austria.  La arquitectura de la iglesia se debe a Gómez de Mora, de mediados del siglo  XVIII . En la clausura se conservan numerosas obras pictóricas de los siglos  XVII  y  XVIII .;El acceso al templo sólo es posible en horario de culto.;;Metro: Atocha (línea 1)  Bus: 6, 19, 26, 27, 32, 34, 45, 59, 85, 86, C1, E1  Renfe: Atocha;;0;http://www.madrid.es/sites/v/index.jsp?vgnextchannel=9e4c43db40317010VgnVCM100000dc0ca8c0RCRD&vgnextoid=545b544a249c6110VgnVCM1000000b205a0aRCRD;SANTA ISABEL;CALLE;V;48;;;;;MADRID;MADRID;28012;EMBAJADORES;CENTRO;440655;4473736;40.41213027;-3.699454794;914 548 700 (Información general);;info@patrimonionacional.es;/contenido/entidadesYorganismos/MonumentosEdificiosArtisticos;Monumento
3360;Real Oratorio del Caballero de Gracia;"Construído por Juan de Villanueva entre 1786 y 1795 de planta basilical y en un sentir muy cercano al de las iglesias venecianas de Palladio. La fachada es de Custodio Moreno.  Entre 1976 y 1981 el arquitecto Fernando Chueca Goitia emprendió un proyecto de restauración  con polémicos resultados. Los trabajos se interrumpieron durante largos años; convocándose finalmente un concurso de arquitectura que fue ganado en 1987 por Javier Feduchi Benlliure.";;;Metro: Sevilla (línea 2)  Bus: 3, 46, M2, 1, 2, 74, 146;;3;http://www.madrid.es/sites/v/index.jsp?vgnextchannel=9e4c43db40317010VgnVCM100000dc0ca8c0RCRD&vgnextoid=ef153d232e91f010VgnVCM1000000b205a0aRCRD;CABALLERO DE GRACIA;CALLE;V;5;;;;;MADRID;MADRID;28013;SOL;CENTRO;440660;4474767;40.41953676;-3.700769178;915 326 937 ;;info@caballerodegracia.org / info.caballerodegracia@archimadrid.es;/contenido/entidadesYorganismos/MonumentosEdificiosArtisticos;Monumento
2135;Sala de Exposiciones Canal de Isabel II;Singular espacio expositivo ubicado en un antiguo depósito de agua, construido entre 1907 y 1911 por el ingeniero Diego Martín Montalvo y el arquitecto Ramón de Aguinaga, de estilo ecléctico con una estructura exterior de ladrillo en planta circular, restaurado y acondicionado como sala de exposiciones en 1986 por los arquitectos Javier Alau y Antonio Lopera.  Las exposiciones temporales que se realizan en este espacio están destinadas exclusivamente a la creación fotográfica y audiovisual contemporánea. La sala acoge tanto a artistas clásicos internacionales como a representantes de la joven fotografía española e internacional y se ha consolidado como un espacio emblemático en la difusión de las últimas tendencias.;"De martes a sábados de 11 a 20:30 horas. Domingos y festivos de 11 a 14 horas.   Cerrado: lunes, 24, 25 y 31 de diciembre; 1 y 6 de enero; 1 de mayo. Horario especial: jueves Santo, viernes Santo; 2 y 15 de mayo de 11 a 20:30 horas.   Consultar horario específico de cada exposición.";Exposiciones de fotografía.;Metro: Ríos Rosas (línea 1), Alonso Cano (línea 7)  Bus: 3, 5, 12, 37, 45, 149;;2;http://www.madrid.es/sites/v/index.jsp?vgnextchannel=9e4c43db40317010VgnVCM100000dc0ca8c0RCRD&vgnextoid=7ea629ea9281c010VgnVCM1000000b205a0aRCRD;SANTA ENGRACIA;CALLE;V;125;;;;;MADRID;MADRID;28003;RIOS ROSAS;CHAMBERI;440566;4476739;40.43917634;-3.700784412;915 451 000 (ext. 2505);917 208 280;museosexposiciones@madrid.org;/contenido/entidadesYorganismos/MonumentosEdificiosArtisticos;Monumento
21;Senado;;Oficina de información:  De lunes a jueves, de 9 a 14.30 horas y los viernes, de 9.30 a 14 horas.;;Metro: Plaza España (líneas 3, 10)  Bus: 25, 39, 46, 68, 69, 74, 75, 138, 148;;1;http://www.madrid.es/sites/v/index.jsp?vgnextchannel=9e4c43db40317010VgnVCM100000dc0ca8c0RCRD&vgnextoid=c86f29ea9281c010VgnVCM1000000b205a0aRCRD;BAILEN;CALLE;V;3;;;;;MADRID;MADRID;28013;PALACIO;CENTRO;439661;4474988;40.42145566;-3.712565079;900 103 038 / 915 381 852 / 915 381 853 / 915 381 854 / 915 381 518;;;/contenido/entidadesYorganismos/MonumentosEdificiosArtisticos;Monumento
20592;Sociedad General de Autores y Editores (SGAE);La SGAE, Sociedad General de Autores y Editores, es una entidad privada dedicada a la  defensa y gestión colectiva de los derechos de propiedad intelectual  de sus más de 106.000 socios. Su misión fundamental es la protección y reparto de la remuneración de los socios por la utilización de sus obras (reproducción, distribución, comunicación pública, transformación y copia privada) y la gestión de licencias entre los clientes para su uso.;;;Metro: Alonso Martínez (líneas 4, 5, 10), Tribunal (líneas 1, 10)  Bus: 3, 37,;Descripción monumental:  antiguo Palacio Longoria. Obra madrileña que más se identifica con el estilo modernista, al menos en lo que se refiere al revestimiento ornamental. Aunque en la estructura interior Grases (su arquitecto) se alejó del modernismo para adoptar criterios más tradicionales. En 1950 la Sociedad General de Autores compra el edificio y encargó a Arniches una radical transformación.  Más información en la  página web de Monumenta Madrid;0;http://www.madrid.es/sites/v/index.jsp?vgnextchannel=9e4c43db40317010VgnVCM100000dc0ca8c0RCRD&vgnextoid=7b9332df1d51c010VgnVCM2000000c205a0aRCRD;FERNANDO VI;CALLE;V;4;;;;;MADRID;MADRID;28004;JUSTICIA;CENTRO;441011;4475420;40.4254443;-3.696692731;"913 499 550 / 00          
";913 499 537;sociosmadrid@sgae.es;/contenido/entidadesYorganismos/MonumentosEdificiosArtisticos;Monumento
20605;Templo de Debod;Templo egipcio dedicado a Amón de Debod y a Isis, construido entre 185  a. de C.  y el siglo  I  de la Era. Fue donado por Egipto a España en 1968, en agradecimiento por la ayuda en el salvamento de los templos de Abu Simbel.;De martes a domingos y festivos: de 10 a 20 horas.   Cerrado los lunes y los días 1 y 6 de enero, 1 de mayo, 24, 25 y 31 de diciembre.   Último pase de visita 15 minutos antes del cierre.  Este horario y la apertura de salas pueden sufrir modificaciones, por favor, confírmelo en el teléfono de información del museo.;Actividades didácticas: talleres para grupos escolares, talleres de profesores, talleres para familias.  Obtención de información sobre sus fondos y colecciones con fines de investigación, enseñanza o difusión.   Se pueden realizar fotografías o grabaciones de vídeo libremente en el exterior o en el interior del templo, siempre y cuando no se utilicen flash o trípode y su fin no sea comercial.  Para la obtención de reproducciones de fotografías del archivo del templo de Debod con fines editoriales, de investigación, difusión o comerciales el interesado deberá cumplimentar la solicitud de Reproducciones Fotográficas y enviarla por correo electrónico al Servicio de Documentación del templo de Debod.  La realización de reportajes fotográficos y grabaciones profesionales en el recinto del templo de Debod (estanque delantero, plataformas y edificio) sólo será autorizada cuando los fines para los que se solicita sean la divulgación y difusión cultural del monumento o de las actividades museísticas que en él se desarrollen. Cualquier otra finalidad, gratuita o comercial, será desestimada.;"Metro:  Plaza de España (líneas 3 y 10) y Ventura Rodríguez (línea 3)   Bus:  1, 2, 3, 25, 39, 44, 46, 74, 75, 133, 138, 148, C1 y C2   Renfe:  Príncipe Pío    Bus turístico:  Ruta 1. PARADA 10 - Templo de Debod   Otras formas de acceso:    Aparcamiento de coches: dentro del Área de Estacionamiento Regulado de la ciudad de Madrid.   BiciMAD (Servicio público de bicicletas de la ciudad de Madrid): Estación en calle Evaristo San Miguel s/n. (entre P&ordm;.  Pintor Rosales y calle Ferraz)";"El templo de Debod no cuenta en la actualidad con accesos adaptados a personas con movilidad reducida y la circulación en su interior es igualmente difícil.  El templo es un monumento histórico de una antig&uuml;edad de 2.200 años. Su estructura interna, que constituye el espacio de actual de exposición, está formada por distintas salas de dimensiones reducidas, con vanos estrechos y numerosas barreras, que responden a los fines y necesidades de los cultos religiosos que en él tuvieron lugar, pero que imposibilitan la circulación con sillas de ruedas convencionales.   La legislación sobre accesibilidad vigente en nuestra Comunidad (Ley 8/1993 de 22 de Junio de Promoción de la Accesibilidad y Supresión de Barreras Arquitectónicas), en su disposición adicional 7&ordf;, exime de su aplicación en los inmuebles declarados Bien de Interés Cultural o en aquellos edificios de valor histórico-artístico. No obstante, se está trabajando en hacer accesibles las plataformas en las que se levanta el templo y sus dos portales.";0;http://www.madrid.es/sites/v/index.jsp?vgnextchannel=9e4c43db40317010VgnVCM100000dc0ca8c0RCRD&vgnextoid=13b432df1d51c010VgnVCM2000000c205a0aRCRD;FERRAZ;CALLE;V;1;;;;;MADRID;MADRID;28008;CASA DE CAMPO;MONCLOA-ARAVACA;439218;4475093;40.42425097;-3.716531856;913 667 415 (Museo de San Isidro / Templo de Debod);;templodebod@madrid.es;/contenido/entidadesYorganismos/MonumentosEdificiosArtisticos;Monumento
1634;Tribunal de Cuentas;Supremo órgano fiscalizador de las cuentas y de la gestión económica del Estado, así como del Sector Público, sin perjuicio de su propia jurisdicción.;;;Metro: Manuel Becerra (líneas 2 y 6)  Bus: 1, 12, 38, 43, 48, 56, 74, 110, 210, C1, C2;Posee una sede secundaria en la calle Padre Damián, 19;0;http://www.madrid.es/sites/v/index.jsp?vgnextchannel=9e4c43db40317010VgnVCM100000dc0ca8c0RCRD&vgnextoid=9ca01e79ee71c010VgnVCM1000000b205a0aRCRD;JOSE ORTEGA Y GASSET;CALLE;V;100;;;;;MADRID;MADRID;28006;LISTA;SALAMANCA;443204;4475856;40.4295249;-3.670881136;"914 478 701           
";;;/contenido/entidadesYorganismos/MonumentosEdificiosArtisticos;Monumento
541;Tribunal Supremo;;;;Metro: Colón (línea 4)  Bus: 5, 14, 21 , 27, 37, 45, 53, 150   Cercanías: Recoletos  BICIMAD:   Estación 10 (calle Marqués de la Ensenada, 16)  Estación 26 (Plaza Salesas, 7);;3;http://www.madrid.es/sites/v/index.jsp?vgnextchannel=9e4c43db40317010VgnVCM100000dc0ca8c0RCRD&vgnextoid=eafde3914381c010VgnVCM1000000b205a0aRCRD;VILLA DE PARIS;PLAZA;V;0;;;;;MADRID;MADRID;28004;JUSTICIA;CENTRO;441188;4475132;40.42474976;-3.693300072;"913 971 245 / 913 973 230 / 913 971 004
     
 ";;;/contenido/entidadesYorganismos/MonumentosEdificiosArtisticos;Monumento